{"0000":{"zip_code":"0030000","prefecture":"北海道","prefecture_kana":"ホッカイドウ","city":"札幌市白石区","city_kana":"サッポロシシロイシク","town":"","town_kana":"","prefecture_code":1},"0851":{"zip_code":"0030851","prefecture":"北海道","prefecture_kana":"ホッカイドウ","city":"札幌市白石区","city_kana":"サッポロシシロイシク","town":"川北一条","town_kana":"カワキタ1ジョウ","prefecture_code":1},"0852":{"zip_code":"0030852","prefecture":"北海道","prefecture_kana":"ホッカイドウ","city":"札幌市白石区","city_kana":"サッポロシシロイシク","town":"川北二条","town_kana":"カワキタ2ジョウ","prefecture_code":1},"0853":{"zip_code":"0030853","prefecture":"北海道","prefecture_kana":"ホッカイドウ","city":"札幌市白石区","city_kana":"サッポロシシロイシク","town":"川北三条","town_kana":"カワキタ3ジョウ","prefecture_code":1},"0854":{"zip_code":"0030854","prefecture":"北海道","prefecture_kana":"ホッカイドウ","city":"札幌市白石区","city_kana":"サッポロシシロイシク","town":"川北四条","town_kana":"カワキタ4ジョウ","prefecture_code":1},"0855":{"zip_code":"0030855","prefecture":"北海道","prefecture_kana":"ホッカイドウ","city":"札幌市白石区","city_kana":"サッポロシシロイシク","town":"川北五条","town_kana":"カワキタ5ジョウ","prefecture_code":1},"0869":{"zip_code":"0030869","prefecture":"北海道","prefecture_kana":"ホッカイドウ","city":"札幌市白石区","city_kana":"サッポロシシロイシク","town":"川下","town_kana":"カワシモ","prefecture_code":1},"0861":{"zip_code":"0030861","prefecture":"北海道","prefecture_kana":"ホッカイドウ","city":"札幌市白石区","city_kana":"サッポロシシロイシク","town":"川下一条","town_kana":"カワシモ1ジョウ","prefecture_code":1},"0862":{"zip_code":"0030862","prefecture":"北海道","prefecture_kana":"ホッカイドウ","city":"札幌市白石区","city_kana":"サッポロシシロイシク","town":"川下二条","town_kana":"カワシモ2ジョウ","prefecture_code":1},"0863":{"zip_code":"0030863","prefecture":"北海道","prefecture_kana":"ホッカイドウ","city":"札幌市白石区","city_kana":"サッポロシシロイシク","town":"川下三条","town_kana":"カワシモ3ジョウ","prefecture_code":1},"0864":{"zip_code":"0030864","prefecture":"北海道","prefecture_kana":"ホッカイドウ","city":"札幌市白石区","city_kana":"サッポロシシロイシク","town":"川下四条","town_kana":"カワシモ4ジョウ","prefecture_code":1},"0865":{"zip_code":"0030865","prefecture":"北海道","prefecture_kana":"ホッカイドウ","city":"札幌市白石区","city_kana":"サッポロシシロイシク","town":"川下五条","town_kana":"カワシモ5ジョウ","prefecture_code":1},"0859":{"zip_code":"0030859","prefecture":"北海道","prefecture_kana":"ホッカイドウ","city":"札幌市白石区","city_kana":"サッポロシシロイシク","town":"川北","town_kana":"カワキタ","prefecture_code":1},"0801":{"zip_code":"0030801","prefecture":"北海道","prefecture_kana":"ホッカイドウ","city":"札幌市白石区","city_kana":"サッポロシシロイシク","town":"菊水一条","town_kana":"キクスイ1ジョウ","prefecture_code":1},"0802":{"zip_code":"0030802","prefecture":"北海道","prefecture_kana":"ホッカイドウ","city":"札幌市白石区","city_kana":"サッポロシシロイシク","town":"菊水二条","town_kana":"キクスイ2ジョウ","prefecture_code":1},"0803":{"zip_code":"0030803","prefecture":"北海道","prefecture_kana":"ホッカイドウ","city":"札幌市白石区","city_kana":"サッポロシシロイシク","town":"菊水三条","town_kana":"キクスイ3ジョウ","prefecture_code":1},"0804":{"zip_code":"0030804","prefecture":"北海道","prefecture_kana":"ホッカイドウ","city":"札幌市白石区","city_kana":"サッポロシシロイシク","town":"菊水四条","town_kana":"キクスイ4ジョウ","prefecture_code":1},"0805":{"zip_code":"0030805","prefecture":"北海道","prefecture_kana":"ホッカイドウ","city":"札幌市白石区","city_kana":"サッポロシシロイシク","town":"菊水五条","town_kana":"キクスイ5ジョウ","prefecture_code":1},"0806":{"zip_code":"0030806","prefecture":"北海道","prefecture_kana":"ホッカイドウ","city":"札幌市白石区","city_kana":"サッポロシシロイシク","town":"菊水六条","town_kana":"キクスイ6ジョウ","prefecture_code":1},"0807":{"zip_code":"0030807","prefecture":"北海道","prefecture_kana":"ホッカイドウ","city":"札幌市白石区","city_kana":"サッポロシシロイシク","town":"菊水七条","town_kana":"キクスイ7ジョウ","prefecture_code":1},"0808":{"zip_code":"0030808","prefecture":"北海道","prefecture_kana":"ホッカイドウ","city":"札幌市白石区","city_kana":"サッポロシシロイシク","town":"菊水八条","town_kana":"キクスイ8ジョウ","prefecture_code":1},"0809":{"zip_code":"0030809","prefecture":"北海道","prefecture_kana":"ホッカイドウ","city":"札幌市白石区","city_kana":"サッポロシシロイシク","town":"菊水九条","town_kana":"キクスイ9ジョウ","prefecture_code":1},"0811":{"zip_code":"0030811","prefecture":"北海道","prefecture_kana":"ホッカイドウ","city":"札幌市白石区","city_kana":"サッポロシシロイシク","town":"菊水上町一条","town_kana":"キクスイカミマチ1ジョウ","prefecture_code":1},"0812":{"zip_code":"0030812","prefecture":"北海道","prefecture_kana":"ホッカイドウ","city":"札幌市白石区","city_kana":"サッポロシシロイシク","town":"菊水上町二条","town_kana":"キクスイカミマチ2ジョウ","prefecture_code":1},"0813":{"zip_code":"0030813","prefecture":"北海道","prefecture_kana":"ホッカイドウ","city":"札幌市白石区","city_kana":"サッポロシシロイシク","town":"菊水上町三条","town_kana":"キクスイカミマチ3ジョウ","prefecture_code":1},"0814":{"zip_code":"0030814","prefecture":"北海道","prefecture_kana":"ホッカイドウ","city":"札幌市白石区","city_kana":"サッポロシシロイシク","town":"菊水上町四条","town_kana":"キクスイカミマチ4ジョウ","prefecture_code":1},"0821":{"zip_code":"0030821","prefecture":"北海道","prefecture_kana":"ホッカイドウ","city":"札幌市白石区","city_kana":"サッポロシシロイシク","town":"菊水元町一条","town_kana":"キクスイモトマチ1ジョウ","prefecture_code":1},"0822":{"zip_code":"0030822","prefecture":"北海道","prefecture_kana":"ホッカイドウ","city":"札幌市白石区","city_kana":"サッポロシシロイシク","town":"菊水元町二条","town_kana":"キクスイモトマチ2ジョウ","prefecture_code":1},"0823":{"zip_code":"0030823","prefecture":"北海道","prefecture_kana":"ホッカイドウ","city":"札幌市白石区","city_kana":"サッポロシシロイシク","town":"菊水元町三条","town_kana":"キクスイモトマチ3ジョウ","prefecture_code":1},"0824":{"zip_code":"0030824","prefecture":"北海道","prefecture_kana":"ホッカイドウ","city":"札幌市白石区","city_kana":"サッポロシシロイシク","town":"菊水元町四条","town_kana":"キクスイモトマチ4ジョウ","prefecture_code":1},"0825":{"zip_code":"0030825","prefecture":"北海道","prefecture_kana":"ホッカイドウ","city":"札幌市白石区","city_kana":"サッポロシシロイシク","town":"菊水元町五条","town_kana":"キクスイモトマチ5ジョウ","prefecture_code":1},"0826":{"zip_code":"0030826","prefecture":"北海道","prefecture_kana":"ホッカイドウ","city":"札幌市白石区","city_kana":"サッポロシシロイシク","town":"菊水元町六条","town_kana":"キクスイモトマチ6ジョウ","prefecture_code":1},"0827":{"zip_code":"0030827","prefecture":"北海道","prefecture_kana":"ホッカイドウ","city":"札幌市白石区","city_kana":"サッポロシシロイシク","town":"菊水元町七条","town_kana":"キクスイモトマチ7ジョウ","prefecture_code":1},"0828":{"zip_code":"0030828","prefecture":"北海道","prefecture_kana":"ホッカイドウ","city":"札幌市白石区","city_kana":"サッポロシシロイシク","town":"菊水元町八条","town_kana":"キクスイモトマチ8ジョウ","prefecture_code":1},"0829":{"zip_code":"0030829","prefecture":"北海道","prefecture_kana":"ホッカイドウ","city":"札幌市白石区","city_kana":"サッポロシシロイシク","town":"菊水元町九条","town_kana":"キクスイモトマチ9ジョウ","prefecture_code":1},"0830":{"zip_code":"0030830","prefecture":"北海道","prefecture_kana":"ホッカイドウ","city":"札幌市白石区","city_kana":"サッポロシシロイシク","town":"菊水元町十条","town_kana":"キクスイモトマチ10ジョウ","prefecture_code":1},"0849":{"zip_code":"0030849","prefecture":"北海道","prefecture_kana":"ホッカイドウ","city":"札幌市白石区","city_kana":"サッポロシシロイシク","town":"北郷","town_kana":"キタゴウ","prefecture_code":1},"0831":{"zip_code":"0030831","prefecture":"北海道","prefecture_kana":"ホッカイドウ","city":"札幌市白石区","city_kana":"サッポロシシロイシク","town":"北郷一条","town_kana":"キタゴウ1ジョウ","prefecture_code":1},"0832":{"zip_code":"0030832","prefecture":"北海道","prefecture_kana":"ホッカイドウ","city":"札幌市白石区","city_kana":"サッポロシシロイシク","town":"北郷二条","town_kana":"キタゴウ2ジョウ","prefecture_code":1},"0833":{"zip_code":"0030833","prefecture":"北海道","prefecture_kana":"ホッカイドウ","city":"札幌市白石区","city_kana":"サッポロシシロイシク","town":"北郷三条","town_kana":"キタゴウ3ジョウ","prefecture_code":1},"0834":{"zip_code":"0030834","prefecture":"北海道","prefecture_kana":"ホッカイドウ","city":"札幌市白石区","city_kana":"サッポロシシロイシク","town":"北郷四条","town_kana":"キタゴウ4ジョウ","prefecture_code":1},"0835":{"zip_code":"0030835","prefecture":"北海道","prefecture_kana":"ホッカイドウ","city":"札幌市白石区","city_kana":"サッポロシシロイシク","town":"北郷五条","town_kana":"キタゴウ5ジョウ","prefecture_code":1},"0836":{"zip_code":"0030836","prefecture":"北海道","prefecture_kana":"ホッカイドウ","city":"札幌市白石区","city_kana":"サッポロシシロイシク","town":"北郷六条","town_kana":"キタゴウ6ジョウ","prefecture_code":1},"0837":{"zip_code":"0030837","prefecture":"北海道","prefecture_kana":"ホッカイドウ","city":"札幌市白石区","city_kana":"サッポロシシロイシク","town":"北郷七条","town_kana":"キタゴウ7ジョウ","prefecture_code":1},"0838":{"zip_code":"0030838","prefecture":"北海道","prefecture_kana":"ホッカイドウ","city":"札幌市白石区","city_kana":"サッポロシシロイシク","town":"北郷八条","town_kana":"キタゴウ8ジョウ","prefecture_code":1},"0839":{"zip_code":"0030839","prefecture":"北海道","prefecture_kana":"ホッカイドウ","city":"札幌市白石区","city_kana":"サッポロシシロイシク","town":"北郷九条","town_kana":"キタゴウ9ジョウ","prefecture_code":1},"0840":{"zip_code":"0030840","prefecture":"北海道","prefecture_kana":"ホッカイドウ","city":"札幌市白石区","city_kana":"サッポロシシロイシク","town":"北郷十条","town_kana":"キタゴウ10ジョウ","prefecture_code":1},"0021":{"zip_code":"0030021","prefecture":"北海道","prefecture_kana":"ホッカイドウ","city":"札幌市白石区","city_kana":"サッポロシシロイシク","town":"栄通","town_kana":"サカエドオリ","prefecture_code":1},"0011":{"zip_code":"0030011","prefecture":"北海道","prefecture_kana":"ホッカイドウ","city":"札幌市白石区","city_kana":"サッポロシシロイシク","town":"中央一条","town_kana":"チュウオウ1ジョウ","prefecture_code":1},"0012":{"zip_code":"0030012","prefecture":"北海道","prefecture_kana":"ホッカイドウ","city":"札幌市白石区","city_kana":"サッポロシシロイシク","town":"中央二条","town_kana":"チュウオウ2ジョウ","prefecture_code":1},"0013":{"zip_code":"0030013","prefecture":"北海道","prefecture_kana":"ホッカイドウ","city":"札幌市白石区","city_kana":"サッポロシシロイシク","town":"中央三条","town_kana":"チュウオウ3ジョウ","prefecture_code":1},"0022":[{"zip_code":"0030022","prefecture":"北海道","prefecture_kana":"ホッカイドウ","city":"札幌市白石区","city_kana":"サッポロシシロイシク","town":"南郷通","town_kana":"ナンゴウドオリ","prefecture_code":1},{"zip_code":"0030022","prefecture":"北海道","prefecture_kana":"ホッカイドウ","city":"札幌市白石区","city_kana":"サッポロシシロイシク","town":"南郷通南","town_kana":"ナンゴウドオリミナミ","prefecture_code":1}],"0023":[{"zip_code":"0030023","prefecture":"北海道","prefecture_kana":"ホッカイドウ","city":"札幌市白石区","city_kana":"サッポロシシロイシク","town":"南郷通","town_kana":"ナンゴウドオリ","prefecture_code":1},{"zip_code":"0030023","prefecture":"北海道","prefecture_kana":"ホッカイドウ","city":"札幌市白石区","city_kana":"サッポロシシロイシク","town":"南郷通北","town_kana":"ナンゴウドオリキタ","prefecture_code":1}],"0001":{"zip_code":"0030001","prefecture":"北海道","prefecture_kana":"ホッカイドウ","city":"札幌市白石区","city_kana":"サッポロシシロイシク","town":"東札幌一条","town_kana":"ヒガシサッポロ1ジョウ","prefecture_code":1},"0002":{"zip_code":"0030002","prefecture":"北海道","prefecture_kana":"ホッカイドウ","city":"札幌市白石区","city_kana":"サッポロシシロイシク","town":"東札幌二条","town_kana":"ヒガシサッポロ2ジョウ","prefecture_code":1},"0003":{"zip_code":"0030003","prefecture":"北海道","prefecture_kana":"ホッカイドウ","city":"札幌市白石区","city_kana":"サッポロシシロイシク","town":"東札幌三条","town_kana":"ヒガシサッポロ3ジョウ","prefecture_code":1},"0004":{"zip_code":"0030004","prefecture":"北海道","prefecture_kana":"ホッカイドウ","city":"札幌市白石区","city_kana":"サッポロシシロイシク","town":"東札幌四条","town_kana":"ヒガシサッポロ4ジョウ","prefecture_code":1},"0005":{"zip_code":"0030005","prefecture":"北海道","prefecture_kana":"ホッカイドウ","city":"札幌市白石区","city_kana":"サッポロシシロイシク","town":"東札幌五条","town_kana":"ヒガシサッポロ5ジョウ","prefecture_code":1},"0006":{"zip_code":"0030006","prefecture":"北海道","prefecture_kana":"ホッカイドウ","city":"札幌市白石区","city_kana":"サッポロシシロイシク","town":"東札幌六条","town_kana":"ヒガシサッポロ6ジョウ","prefecture_code":1},"0876":{"zip_code":"0030876","prefecture":"北海道","prefecture_kana":"ホッカイドウ","city":"札幌市白石区","city_kana":"サッポロシシロイシク","town":"東米里","town_kana":"ヒガシヨネサト","prefecture_code":1},"0028":[{"zip_code":"0030028","prefecture":"北海道","prefecture_kana":"ホッカイドウ","city":"札幌市白石区","city_kana":"サッポロシシロイシク","town":"平和通","town_kana":"ヘイワドオリ","prefecture_code":1},{"zip_code":"0030028","prefecture":"北海道","prefecture_kana":"ホッカイドウ","city":"札幌市白石区","city_kana":"サッポロシシロイシク","town":"平和通南","town_kana":"ヘイワドオリミナミ","prefecture_code":1}],"0029":[{"zip_code":"0030029","prefecture":"北海道","prefecture_kana":"ホッカイドウ","city":"札幌市白石区","city_kana":"サッポロシシロイシク","town":"平和通","town_kana":"ヘイワドオリ","prefecture_code":1},{"zip_code":"0030029","prefecture":"北海道","prefecture_kana":"ホッカイドウ","city":"札幌市白石区","city_kana":"サッポロシシロイシク","town":"平和通北","town_kana":"ヘイワドオリキタ","prefecture_code":1}],"0024":[{"zip_code":"0030024","prefecture":"北海道","prefecture_kana":"ホッカイドウ","city":"札幌市白石区","city_kana":"サッポロシシロイシク","town":"本郷通","town_kana":"ホンゴウドオリ","prefecture_code":1},{"zip_code":"0030024","prefecture":"北海道","prefecture_kana":"ホッカイドウ","city":"札幌市白石区","city_kana":"サッポロシシロイシク","town":"本郷通南","town_kana":"ホンゴウドオリミナミ","prefecture_code":1}],"0025":[{"zip_code":"0030025","prefecture":"北海道","prefecture_kana":"ホッカイドウ","city":"札幌市白石区","city_kana":"サッポロシシロイシク","town":"本郷通","town_kana":"ホンゴウドオリ","prefecture_code":1},{"zip_code":"0030025","prefecture":"北海道","prefecture_kana":"ホッカイドウ","city":"札幌市白石区","city_kana":"サッポロシシロイシク","town":"本郷通北","town_kana":"ホンゴウドオリキタ","prefecture_code":1}],"0026":[{"zip_code":"0030026","prefecture":"北海道","prefecture_kana":"ホッカイドウ","city":"札幌市白石区","city_kana":"サッポロシシロイシク","town":"本通","town_kana":"ホンドオリ","prefecture_code":1},{"zip_code":"0030026","prefecture":"北海道","prefecture_kana":"ホッカイドウ","city":"札幌市白石区","city_kana":"サッポロシシロイシク","town":"本通南","town_kana":"ホンドオリミナミ","prefecture_code":1}],"0027":[{"zip_code":"0030027","prefecture":"北海道","prefecture_kana":"ホッカイドウ","city":"札幌市白石区","city_kana":"サッポロシシロイシク","town":"本通","town_kana":"ホンドオリ","prefecture_code":1},{"zip_code":"0030027","prefecture":"北海道","prefecture_kana":"ホッカイドウ","city":"札幌市白石区","city_kana":"サッポロシシロイシク","town":"本通北","town_kana":"ホンドオリキタ","prefecture_code":1}],"0871":{"zip_code":"0030871","prefecture":"北海道","prefecture_kana":"ホッカイドウ","city":"札幌市白石区","city_kana":"サッポロシシロイシク","town":"米里一条","town_kana":"ヨネサト1ジョウ","prefecture_code":1},"0872":{"zip_code":"0030872","prefecture":"北海道","prefecture_kana":"ホッカイドウ","city":"札幌市白石区","city_kana":"サッポロシシロイシク","town":"米里二条","town_kana":"ヨネサト2ジョウ","prefecture_code":1},"0873":{"zip_code":"0030873","prefecture":"北海道","prefecture_kana":"ホッカイドウ","city":"札幌市白石区","city_kana":"サッポロシシロイシク","town":"米里三条","town_kana":"ヨネサト3ジョウ","prefecture_code":1},"0874":{"zip_code":"0030874","prefecture":"北海道","prefecture_kana":"ホッカイドウ","city":"札幌市白石区","city_kana":"サッポロシシロイシク","town":"米里四条","town_kana":"ヨネサト4ジョウ","prefecture_code":1},"0875":{"zip_code":"0030875","prefecture":"北海道","prefecture_kana":"ホッカイドウ","city":"札幌市白石区","city_kana":"サッポロシシロイシク","town":"米里五条","town_kana":"ヨネサト5ジョウ","prefecture_code":1},"0030":{"zip_code":"0030030","prefecture":"北海道","prefecture_kana":"ホッカイドウ","city":"札幌市白石区","city_kana":"サッポロシシロイシク","town":"流通センター","town_kana":"リュウツウセンター","prefecture_code":1},"8630":{"zip_code":"0038630","prefecture":"北海道","city":"札幌市白石区","town":"本通","prefecture_code":1},"8585":{"zip_code":"0038585","prefecture":"北海道","city":"札幌市白石区","town":"東札幌三条","prefecture_code":1},"8566":{"zip_code":"0038566","prefecture":"北海道","city":"札幌市白石区","town":"流通センター","prefecture_code":1},"8515":{"zip_code":"0038515","prefecture":"北海道","city":"札幌市白石区","town":"菊水六条","prefecture_code":1},"8511":{"zip_code":"0038511","prefecture":"北海道","city":"札幌市白石区","town":"中央二条","prefecture_code":1},"8567":{"zip_code":"0038567","prefecture":"北海道","city":"札幌市白石区","town":"中央二条","prefecture_code":1},"8588":{"zip_code":"0038588","prefecture":"北海道","city":"札幌市白石区","town":"菊水三条","prefecture_code":1},"8519":{"zip_code":"0038519","prefecture":"北海道","city":"札幌市白石区","town":"東札幌一条","prefecture_code":1},"8639":{"zip_code":"0038639","prefecture":"北海道","city":"札幌市白石区","town":"流通センター","prefecture_code":1},"8631":{"zip_code":"0038631","prefecture":"北海道","city":"札幌市白石区","town":"南郷通","prefecture_code":1},"8582":{"zip_code":"0038582","prefecture":"北海道","city":"札幌市白石区","town":"流通センター","prefecture_code":1},"8610":{"zip_code":"0038610","prefecture":"北海道","city":"札幌市白石区","town":"本通","prefecture_code":1},"8581":{"zip_code":"0038581","prefecture":"北海道","city":"札幌市白石区","town":"流通センター","prefecture_code":1},"8510":{"zip_code":"0038510","prefecture":"北海道","city":"札幌市白石区","town":"菊水四条","prefecture_code":1},"8520":{"zip_code":"0038520","prefecture":"北海道","city":"札幌市白石区","town":"中央二条","prefecture_code":1},"8505":{"zip_code":"0038505","prefecture":"北海道","city":"札幌市白石区","town":"菊水九条","prefecture_code":1},"8612":{"zip_code":"0038612","prefecture":"北海道","city":"札幌市白石区","town":"南郷通","prefecture_code":1},"8640":{"zip_code":"0038640","prefecture":"北海道","city":"札幌市白石区","town":"本通","prefecture_code":1},"8504":{"zip_code":"0038504","prefecture":"北海道","city":"札幌市白石区","town":"菊水三条","prefecture_code":1},"8502":{"zip_code":"0038502","prefecture":"北海道","city":"札幌市白石区","town":"流通センター","prefecture_code":1},"8668":{"zip_code":"0038668","prefecture":"北海道","city":"札幌市白石区","town":"本通","prefecture_code":1},"8701":{"zip_code":"0038701","prefecture":"北海道","city":"札幌市白石区","town":"平和通","prefecture_code":1},"8530":{"zip_code":"0038530","prefecture":"北海道","city":"札幌市白石区","town":"菊水一条","prefecture_code":1},"8601":{"zip_code":"0038601","prefecture":"北海道","city":"札幌市白石区","town":"流通センター","prefecture_code":1},"8503":{"zip_code":"0038503","prefecture":"北海道","city":"札幌市白石区","town":"菊水三条","prefecture_code":1},"8531":{"zip_code":"0038531","prefecture":"北海道","city":"札幌市白石区","town":"菊水二条","prefecture_code":1},"8702":{"zip_code":"0038702","prefecture":"北海道","city":"札幌市白石区","town":"東札幌三条","prefecture_code":1},"8558":{"zip_code":"0038558","prefecture":"北海道","city":"札幌市白石区","town":"東札幌二条","prefecture_code":1},"8580":{"zip_code":"0038580","prefecture":"北海道","city":"札幌市白石区","town":"流通センター","prefecture_code":1},"8501":{"zip_code":"0038501","prefecture":"北海道","city":"札幌市白石区","town":"中央二条","prefecture_code":1},"8577":{"zip_code":"0038577","prefecture":"北海道","city":"札幌市白石区","town":"東札幌三条","prefecture_code":1}}