{"0000":{"zip_code":"0500000","prefecture":"北海道","prefecture_kana":"ホッカイドウ","city":"室蘭市","city_kana":"ムロランシ","town":"","town_kana":"","prefecture_code":1},"0051":{"zip_code":"0500051","prefecture":"北海道","prefecture_kana":"ホッカイドウ","city":"室蘭市","city_kana":"ムロランシ","town":"石川町","town_kana":"イシカワチョウ","prefecture_code":1},"0086":{"zip_code":"0500086","prefecture":"北海道","prefecture_kana":"ホッカイドウ","city":"室蘭市","city_kana":"ムロランシ","town":"大沢町","town_kana":"オオサワチョウ","prefecture_code":1},"0052":{"zip_code":"0500052","prefecture":"北海道","prefecture_kana":"ホッカイドウ","city":"室蘭市","city_kana":"ムロランシ","town":"香川町","town_kana":"カガワチョウ","prefecture_code":1},"0064":{"zip_code":"0500064","prefecture":"北海道","prefecture_kana":"ホッカイドウ","city":"室蘭市","city_kana":"ムロランシ","town":"柏木町","town_kana":"カシワギチョウ","prefecture_code":1},"0053":{"zip_code":"0500053","prefecture":"北海道","prefecture_kana":"ホッカイドウ","city":"室蘭市","city_kana":"ムロランシ","town":"神代町","town_kana":"カミシロチョウ","prefecture_code":1},"0063":{"zip_code":"0500063","prefecture":"北海道","prefecture_kana":"ホッカイドウ","city":"室蘭市","city_kana":"ムロランシ","town":"港北町","town_kana":"コウホクチョウ","prefecture_code":1},"0082":{"zip_code":"0500082","prefecture":"北海道","prefecture_kana":"ホッカイドウ","city":"室蘭市","city_kana":"ムロランシ","town":"寿町","town_kana":"コトブキチョウ","prefecture_code":1},"0055":{"zip_code":"0500055","prefecture":"北海道","prefecture_kana":"ホッカイドウ","city":"室蘭市","city_kana":"ムロランシ","town":"崎守町","town_kana":"サキモリチョウ","prefecture_code":1},"0067":{"zip_code":"0500067","prefecture":"北海道","prefecture_kana":"ホッカイドウ","city":"室蘭市","city_kana":"ムロランシ","town":"陣屋町","town_kana":"ジンヤマチ","prefecture_code":1},"0072":{"zip_code":"0500072","prefecture":"北海道","prefecture_kana":"ホッカイドウ","city":"室蘭市","city_kana":"ムロランシ","town":"高砂町","town_kana":"タカサゴチョウ","prefecture_code":1},"0062":{"zip_code":"0500062","prefecture":"北海道","prefecture_kana":"ホッカイドウ","city":"室蘭市","city_kana":"ムロランシ","town":"高平町","town_kana":"タカヒラチョウ","prefecture_code":1},"0076":{"zip_code":"0500076","prefecture":"北海道","prefecture_kana":"ホッカイドウ","city":"室蘭市","city_kana":"ムロランシ","town":"知利別町","town_kana":"チリベツチョウ","prefecture_code":1},"0077":{"zip_code":"0500077","prefecture":"北海道","prefecture_kana":"ホッカイドウ","city":"室蘭市","city_kana":"ムロランシ","town":"天神町","town_kana":"テンジンチョウ","prefecture_code":1},"0074":{"zip_code":"0500074","prefecture":"北海道","prefecture_kana":"ホッカイドウ","city":"室蘭市","city_kana":"ムロランシ","town":"中島町","town_kana":"ナカジマチョウ","prefecture_code":1},"0075":{"zip_code":"0500075","prefecture":"北海道","prefecture_kana":"ホッカイドウ","city":"室蘭市","city_kana":"ムロランシ","town":"中島本町","town_kana":"ナカジマホンチョウ","prefecture_code":1},"0087":{"zip_code":"0500087","prefecture":"北海道","prefecture_kana":"ホッカイドウ","city":"室蘭市","city_kana":"ムロランシ","town":"仲町","town_kana":"ナカマチ","prefecture_code":1},"0054":{"zip_code":"0500054","prefecture":"北海道","prefecture_kana":"ホッカイドウ","city":"室蘭市","city_kana":"ムロランシ","town":"白鳥台","town_kana":"ハクチョウダイ","prefecture_code":1},"0061":{"zip_code":"0500061","prefecture":"北海道","prefecture_kana":"ホッカイドウ","city":"室蘭市","city_kana":"ムロランシ","town":"八丁平","town_kana":"ハッチョウダイラ","prefecture_code":1},"0083":{"zip_code":"0500083","prefecture":"北海道","prefecture_kana":"ホッカイドウ","city":"室蘭市","city_kana":"ムロランシ","town":"東町","town_kana":"ヒガシマチ","prefecture_code":1},"0081":{"zip_code":"0500081","prefecture":"北海道","prefecture_kana":"ホッカイドウ","city":"室蘭市","city_kana":"ムロランシ","town":"日の出町","town_kana":"ヒノデチョウ","prefecture_code":1},"0066":{"zip_code":"0500066","prefecture":"北海道","prefecture_kana":"ホッカイドウ","city":"室蘭市","city_kana":"ムロランシ","town":"幌萌町","town_kana":"ホロモエチョウ","prefecture_code":1},"0071":{"zip_code":"0500071","prefecture":"北海道","prefecture_kana":"ホッカイドウ","city":"室蘭市","city_kana":"ムロランシ","town":"水元町","town_kana":"ミズモトチョウ","prefecture_code":1},"0073":{"zip_code":"0500073","prefecture":"北海道","prefecture_kana":"ホッカイドウ","city":"室蘭市","city_kana":"ムロランシ","town":"宮の森町","town_kana":"ミヤノモリチョウ","prefecture_code":1},"0084":{"zip_code":"0500084","prefecture":"北海道","prefecture_kana":"ホッカイドウ","city":"室蘭市","city_kana":"ムロランシ","town":"みゆき町","town_kana":"ミユキチョウ","prefecture_code":1},"0065":{"zip_code":"0500065","prefecture":"北海道","prefecture_kana":"ホッカイドウ","city":"室蘭市","city_kana":"ムロランシ","town":"本輪西町","town_kana":"モトワニシチョウ","prefecture_code":1},"0085":{"zip_code":"0500085","prefecture":"北海道","prefecture_kana":"ホッカイドウ","city":"室蘭市","city_kana":"ムロランシ","town":"輪西町","town_kana":"ワニシチョウ","prefecture_code":1},"8511":{"zip_code":"0508511","prefecture":"北海道","city":"室蘭市","town":"東町","prefecture_code":1},"8570":{"zip_code":"0508570","prefecture":"北海道","city":"室蘭市","town":"崎守町","prefecture_code":1},"8518":{"zip_code":"0508518","prefecture":"北海道","city":"室蘭市","town":"中島町","prefecture_code":1},"8588":{"zip_code":"0508588","prefecture":"北海道","city":"室蘭市","town":"日の出町","prefecture_code":1},"8550":{"zip_code":"0508550","prefecture":"北海道","city":"室蘭市","town":"仲町","prefecture_code":1},"8582":{"zip_code":"0508582","prefecture":"北海道","city":"室蘭市","town":"寿町","prefecture_code":1},"8510":{"zip_code":"0508510","prefecture":"北海道","city":"室蘭市","town":"仲町","prefecture_code":1},"8585":{"zip_code":"0508585","prefecture":"北海道","city":"室蘭市","town":"水元町","prefecture_code":1},"8725":{"zip_code":"0508725","prefecture":"北海道","city":"室蘭市","town":"東町","prefecture_code":1}}