{"0029":{"zip_code":"0910029","prefecture":"北海道","prefecture_kana":"ホッカイドウ","city":"北見市","city_kana":"キタミシ","town":"留辺蘂町旭１区","town_kana":"ルベシベチョウアサヒ1ク","prefecture_code":1},"0028":{"zip_code":"0910028","prefecture":"北海道","prefecture_kana":"ホッカイドウ","city":"北見市","city_kana":"キタミシ","town":"留辺蘂町旭３区","town_kana":"ルベシベチョウアサヒ3ク","prefecture_code":1},"0025":{"zip_code":"0910025","prefecture":"北海道","prefecture_kana":"ホッカイドウ","city":"北見市","city_kana":"キタミシ","town":"留辺蘂町旭北","town_kana":"ルベシベチョウアサヒキタ","prefecture_code":1},"0026":{"zip_code":"0910026","prefecture":"北海道","prefecture_kana":"ホッカイドウ","city":"北見市","city_kana":"キタミシ","town":"留辺蘂町旭公園","town_kana":"ルベシベチョウアサヒコウエン","prefecture_code":1},"0023":{"zip_code":"0910023","prefecture":"北海道","prefecture_kana":"ホッカイドウ","city":"北見市","city_kana":"キタミシ","town":"留辺蘂町旭中央","town_kana":"ルベシベチョウアサヒチュウオウ","prefecture_code":1},"0027":{"zip_code":"0910027","prefecture":"北海道","prefecture_kana":"ホッカイドウ","city":"北見市","city_kana":"キタミシ","town":"留辺蘂町旭西","town_kana":"ルベシベチョウアサヒニシ","prefecture_code":1},"0022":{"zip_code":"0910022","prefecture":"北海道","prefecture_kana":"ホッカイドウ","city":"北見市","city_kana":"キタミシ","town":"留辺蘂町旭東","town_kana":"ルベシベチョウアサヒヒガシ","prefecture_code":1},"0024":{"zip_code":"0910024","prefecture":"北海道","prefecture_kana":"ホッカイドウ","city":"北見市","city_kana":"キタミシ","town":"留辺蘂町旭南","town_kana":"ルベシベチョウアサヒミナミ","prefecture_code":1},"0002":{"zip_code":"0910002","prefecture":"北海道","prefecture_kana":"ホッカイドウ","city":"北見市","city_kana":"キタミシ","town":"留辺蘂町東町","town_kana":"ルベシベチョウアズママチ","prefecture_code":1},"0011":{"zip_code":"0910011","prefecture":"北海道","prefecture_kana":"ホッカイドウ","city":"北見市","city_kana":"キタミシ","town":"留辺蘂町泉","town_kana":"ルベシベチョウイズミ","prefecture_code":1},"0031":{"zip_code":"0910031","prefecture":"北海道","prefecture_kana":"ホッカイドウ","city":"北見市","city_kana":"キタミシ","town":"留辺蘂町大富","town_kana":"ルベシベチョウオオトミ","prefecture_code":1},"0170":{"zip_code":"0910170","prefecture":"北海道","prefecture_kana":"ホッカイドウ","city":"北見市","city_kana":"キタミシ","town":"留辺蘂町温根湯温泉","town_kana":"ルベシベチョウオンネユオンセン","prefecture_code":1},"0021":{"zip_code":"0910021","prefecture":"北海道","prefecture_kana":"ホッカイドウ","city":"北見市","city_kana":"キタミシ","town":"留辺蘂町金華","town_kana":"ルベシベチョウカネハナ","prefecture_code":1},"0004":{"zip_code":"0910004","prefecture":"北海道","prefecture_kana":"ホッカイドウ","city":"北見市","city_kana":"キタミシ","town":"留辺蘂町上町","town_kana":"ルベシベチョウカミマチ","prefecture_code":1},"0156":{"zip_code":"0910156","prefecture":"北海道","prefecture_kana":"ホッカイドウ","city":"北見市","city_kana":"キタミシ","town":"留辺蘂町川北","town_kana":"ルベシベチョウカワキタ","prefecture_code":1},"0161":{"zip_code":"0910161","prefecture":"北海道","prefecture_kana":"ホッカイドウ","city":"北見市","city_kana":"キタミシ","town":"留辺蘂町厚和","town_kana":"ルベシベチョウコウワ","prefecture_code":1},"0033":{"zip_code":"0910033","prefecture":"北海道","prefecture_kana":"ホッカイドウ","city":"北見市","city_kana":"キタミシ","town":"留辺蘂町栄町","town_kana":"ルベシベチョウサカエマチ","prefecture_code":1},"0151":{"zip_code":"0910151","prefecture":"北海道","prefecture_kana":"ホッカイドウ","city":"北見市","city_kana":"キタミシ","town":"留辺蘂町昭栄","town_kana":"ルベシベチョウショウエイ","prefecture_code":1},"0163":{"zip_code":"0910163","prefecture":"北海道","prefecture_kana":"ホッカイドウ","city":"北見市","city_kana":"キタミシ","town":"留辺蘂町滝の湯","town_kana":"ルベシベチョウタキノユ","prefecture_code":1},"0007":{"zip_code":"0910007","prefecture":"北海道","prefecture_kana":"ホッカイドウ","city":"北見市","city_kana":"キタミシ","town":"留辺蘂町富岡","town_kana":"ルベシベチョウトミオカ","prefecture_code":1},"0032":{"zip_code":"0910032","prefecture":"北海道","prefecture_kana":"ホッカイドウ","city":"北見市","city_kana":"キタミシ","town":"留辺蘂町豊金","town_kana":"ルベシベチョウトヨガネ","prefecture_code":1},"0003":{"zip_code":"0910003","prefecture":"北海道","prefecture_kana":"ホッカイドウ","city":"北見市","city_kana":"キタミシ","town":"留辺蘂町仲町","town_kana":"ルベシベチョウナカマチ","prefecture_code":1},"0157":{"zip_code":"0910157","prefecture":"北海道","prefecture_kana":"ホッカイドウ","city":"北見市","city_kana":"キタミシ","town":"留辺蘂町花丘","town_kana":"ルベシベチョウハナオカ","prefecture_code":1},"0018":{"zip_code":"0910018","prefecture":"北海道","prefecture_kana":"ホッカイドウ","city":"北見市","city_kana":"キタミシ","town":"留辺蘂町花園","town_kana":"ルベシベチョウハナゾノ","prefecture_code":1},"0154":{"zip_code":"0910154","prefecture":"北海道","prefecture_kana":"ホッカイドウ","city":"北見市","city_kana":"キタミシ","town":"留辺蘂町平里","town_kana":"ルベシベチョウヒラサト","prefecture_code":1},"0162":{"zip_code":"0910162","prefecture":"北海道","prefecture_kana":"ホッカイドウ","city":"北見市","city_kana":"キタミシ","town":"留辺蘂町富士見","town_kana":"ルベシベチョウフジミ","prefecture_code":1},"0153":{"zip_code":"0910153","prefecture":"北海道","prefecture_kana":"ホッカイドウ","city":"北見市","city_kana":"キタミシ","town":"留辺蘂町松山","town_kana":"ルベシベチョウマツヤマ","prefecture_code":1},"0016":{"zip_code":"0910016","prefecture":"北海道","prefecture_kana":"ホッカイドウ","city":"北見市","city_kana":"キタミシ","town":"留辺蘂町丸山","town_kana":"ルベシベチョウマルヤマ","prefecture_code":1},"0017":{"zip_code":"0910017","prefecture":"北海道","prefecture_kana":"ホッカイドウ","city":"北見市","city_kana":"キタミシ","town":"留辺蘂町瑞穂","town_kana":"ルベシベチョウミズホ","prefecture_code":1},"0008":{"zip_code":"0910008","prefecture":"北海道","prefecture_kana":"ホッカイドウ","city":"北見市","city_kana":"キタミシ","town":"留辺蘂町宮下町","town_kana":"ルベシベチョウミヤシタチョウ","prefecture_code":1},"0001":{"zip_code":"0910001","prefecture":"北海道","prefecture_kana":"ホッカイドウ","city":"北見市","city_kana":"キタミシ","town":"留辺蘂町元町","town_kana":"ルベシベチョウモトマチ","prefecture_code":1},"0155":{"zip_code":"0910155","prefecture":"北海道","prefecture_kana":"ホッカイドウ","city":"北見市","city_kana":"キタミシ","town":"留辺蘂町大和","town_kana":"ルベシベチョウヤマト","prefecture_code":1},"0553":{"zip_code":"0910553","prefecture":"北海道","prefecture_kana":"ホッカイドウ","city":"常呂郡佐呂間町","city_kana":"トコログンサロマチョウ","town":"朝日","town_kana":"アサヒ","prefecture_code":1},"0557":{"zip_code":"0910557","prefecture":"北海道","prefecture_kana":"ホッカイドウ","city":"常呂郡佐呂間町","city_kana":"トコログンサロマチョウ","town":"川西","town_kana":"カワニシ","prefecture_code":1},"0473":{"zip_code":"0910473","prefecture":"北海道","prefecture_kana":"ホッカイドウ","city":"常呂郡佐呂間町","city_kana":"トコログンサロマチョウ","town":"共立","town_kana":"キョウリツ","prefecture_code":1},"0556":{"zip_code":"0910556","prefecture":"北海道","prefecture_kana":"ホッカイドウ","city":"常呂郡佐呂間町","city_kana":"トコログンサロマチョウ","town":"啓生","town_kana":"ケイセイ","prefecture_code":1},"0472":{"zip_code":"0910472","prefecture":"北海道","prefecture_kana":"ホッカイドウ","city":"常呂郡佐呂間町","city_kana":"トコログンサロマチョウ","town":"栄","town_kana":"サカエ","prefecture_code":1},"0471":{"zip_code":"0910471","prefecture":"北海道","prefecture_kana":"ホッカイドウ","city":"常呂郡佐呂間町","city_kana":"トコログンサロマチョウ","town":"大成","town_kana":"タイセイ","prefecture_code":1},"0558":{"zip_code":"0910558","prefecture":"北海道","prefecture_kana":"ホッカイドウ","city":"常呂郡佐呂間町","city_kana":"トコログンサロマチョウ","town":"栃木","town_kana":"トチギ","prefecture_code":1},"0552":{"zip_code":"0910552","prefecture":"北海道","prefecture_kana":"ホッカイドウ","city":"常呂郡佐呂間町","city_kana":"トコログンサロマチョウ","town":"富丘","town_kana":"トミオカ","prefecture_code":1},"0555":{"zip_code":"0910555","prefecture":"北海道","prefecture_kana":"ホッカイドウ","city":"常呂郡佐呂間町","city_kana":"トコログンサロマチョウ","town":"中園","town_kana":"ナカゾノ","prefecture_code":1},"0554":{"zip_code":"0910554","prefecture":"北海道","prefecture_kana":"ホッカイドウ","city":"常呂郡佐呂間町","city_kana":"トコログンサロマチョウ","town":"武士","town_kana":"ブシ","prefecture_code":1},"0551":{"zip_code":"0910551","prefecture":"北海道","prefecture_kana":"ホッカイドウ","city":"常呂郡佐呂間町","city_kana":"トコログンサロマチョウ","town":"若佐","town_kana":"ワカサ","prefecture_code":1},"0194":{"zip_code":"0910194","prefecture":"北海道","city":"北見市","town":"留辺蘂町温根湯温泉","prefecture_code":1},"0193":{"zip_code":"0910193","prefecture":"北海道","city":"北見市","town":"留辺蘂町温根湯温泉","prefecture_code":1},"0192":{"zip_code":"0910192","prefecture":"北海道","city":"北見市","town":"留辺蘂町温根湯温泉","prefecture_code":1},"8666":{"zip_code":"0918666","prefecture":"北海道","city":"北見市","town":"留辺蘂町上町","prefecture_code":1}}