{"0032":{"zip_code":"1010032","prefecture":"東京都","prefecture_kana":"トウキョウト","city":"千代田区","city_kana":"チヨダク","town":"岩本町","town_kana":"イワモトチョウ","prefecture_code":13},"0047":{"zip_code":"1010047","prefecture":"東京都","prefecture_kana":"トウキョウト","city":"千代田区","city_kana":"チヨダク","town":"内神田","town_kana":"ウチカンダ","prefecture_code":13},"0044":{"zip_code":"1010044","prefecture":"東京都","prefecture_kana":"トウキョウト","city":"千代田区","city_kana":"チヨダク","town":"鍛冶町","town_kana":"カジチョウ","prefecture_code":13},"0029":{"zip_code":"1010029","prefecture":"東京都","prefecture_kana":"トウキョウト","city":"千代田区","city_kana":"チヨダク","town":"神田相生町","town_kana":"カンダアイオイチョウ","prefecture_code":13},"0063":{"zip_code":"1010063","prefecture":"東京都","prefecture_kana":"トウキョウト","city":"千代田区","city_kana":"チヨダク","town":"神田淡路町","town_kana":"カンダアワジチョウ","prefecture_code":13},"0024":{"zip_code":"1010024","prefecture":"東京都","prefecture_kana":"トウキョウト","city":"千代田区","city_kana":"チヨダク","town":"神田和泉町","town_kana":"カンダイズミチョウ","prefecture_code":13},"0033":{"zip_code":"1010033","prefecture":"東京都","prefecture_kana":"トウキョウト","city":"千代田区","city_kana":"チヨダク","town":"神田岩本町","town_kana":"カンダイワモトチョウ","prefecture_code":13},"0052":{"zip_code":"1010052","prefecture":"東京都","prefecture_kana":"トウキョウト","city":"千代田区","city_kana":"チヨダク","town":"神田小川町","town_kana":"カンダオガワマチ","prefecture_code":13},"0045":{"zip_code":"1010045","prefecture":"東京都","prefecture_kana":"トウキョウト","city":"千代田区","city_kana":"チヨダク","town":"神田鍛冶町","town_kana":"カンダカジチョウ","prefecture_code":13},"0036":{"zip_code":"1010036","prefecture":"東京都","prefecture_kana":"トウキョウト","city":"千代田区","city_kana":"チヨダク","town":"神田北乗物町","town_kana":"カンダキタノリモノチョウ","prefecture_code":13},"0035":{"zip_code":"1010035","prefecture":"東京都","prefecture_kana":"トウキョウト","city":"千代田区","city_kana":"チヨダク","town":"神田紺屋町","town_kana":"カンダコンヤチョウ","prefecture_code":13},"0026":{"zip_code":"1010026","prefecture":"東京都","prefecture_kana":"トウキョウト","city":"千代田区","city_kana":"チヨダク","town":"神田佐久間河岸","town_kana":"カンダサクマガシ","prefecture_code":13},"0025":{"zip_code":"1010025","prefecture":"東京都","prefecture_kana":"トウキョウト","city":"千代田区","city_kana":"チヨダク","town":"神田佐久間町","town_kana":"カンダサクマチョウ","prefecture_code":13},"0051":{"zip_code":"1010051","prefecture":"東京都","prefecture_kana":"トウキョウト","city":"千代田区","city_kana":"チヨダク","town":"神田神保町","town_kana":"カンダジンボウチョウ","prefecture_code":13},"0041":{"zip_code":"1010041","prefecture":"東京都","prefecture_kana":"トウキョウト","city":"千代田区","city_kana":"チヨダク","town":"神田須田町","town_kana":"カンダスダチョウ","prefecture_code":13},"0062":{"zip_code":"1010062","prefecture":"東京都","prefecture_kana":"トウキョウト","city":"千代田区","city_kana":"チヨダク","town":"神田駿河台","town_kana":"カンダスルガダイ","prefecture_code":13},"0046":{"zip_code":"1010046","prefecture":"東京都","prefecture_kana":"トウキョウト","city":"千代田区","city_kana":"チヨダク","town":"神田多町","town_kana":"カンダタチョウ","prefecture_code":13},"0048":{"zip_code":"1010048","prefecture":"東京都","prefecture_kana":"トウキョウト","city":"千代田区","city_kana":"チヨダク","town":"神田司町","town_kana":"カンダツカサマチ","prefecture_code":13},"0043":{"zip_code":"1010043","prefecture":"東京都","prefecture_kana":"トウキョウト","city":"千代田区","city_kana":"チヨダク","town":"神田富山町","town_kana":"カンダトミヤマチョウ","prefecture_code":13},"0054":{"zip_code":"1010054","prefecture":"東京都","prefecture_kana":"トウキョウト","city":"千代田区","city_kana":"チヨダク","town":"神田錦町","town_kana":"カンダニシキチョウ","prefecture_code":13},"0037":{"zip_code":"1010037","prefecture":"東京都","prefecture_kana":"トウキョウト","city":"千代田区","city_kana":"チヨダク","town":"神田西福田町","town_kana":"カンダニシフクダチョウ","prefecture_code":13},"0022":{"zip_code":"1010022","prefecture":"東京都","prefecture_kana":"トウキョウト","city":"千代田区","city_kana":"チヨダク","town":"神田練塀町","town_kana":"カンダネリベイチョウ","prefecture_code":13},"0028":{"zip_code":"1010028","prefecture":"東京都","prefecture_kana":"トウキョウト","city":"千代田区","city_kana":"チヨダク","town":"神田花岡町","town_kana":"カンダハナオカチョウ","prefecture_code":13},"0034":{"zip_code":"1010034","prefecture":"東京都","prefecture_kana":"トウキョウト","city":"千代田区","city_kana":"チヨダク","town":"神田東紺屋町","town_kana":"カンダヒガシコンヤチョウ","prefecture_code":13},"0042":{"zip_code":"1010042","prefecture":"東京都","prefecture_kana":"トウキョウト","city":"千代田区","city_kana":"チヨダク","town":"神田東松下町","town_kana":"カンダヒガシマツシタチョウ","prefecture_code":13},"0027":{"zip_code":"1010027","prefecture":"東京都","prefecture_kana":"トウキョウト","city":"千代田区","city_kana":"チヨダク","town":"神田平河町","town_kana":"カンダヒラカワチョウ","prefecture_code":13},"0023":{"zip_code":"1010023","prefecture":"東京都","prefecture_kana":"トウキョウト","city":"千代田区","city_kana":"チヨダク","town":"神田松永町","town_kana":"カンダマツナガチョウ","prefecture_code":13},"0038":{"zip_code":"1010038","prefecture":"東京都","prefecture_kana":"トウキョウト","city":"千代田区","city_kana":"チヨダク","town":"神田美倉町","town_kana":"カンダミクラチョウ","prefecture_code":13},"0053":{"zip_code":"1010053","prefecture":"東京都","prefecture_kana":"トウキョウト","city":"千代田区","city_kana":"チヨダク","town":"神田美土代町","town_kana":"カンダミトシロチョウ","prefecture_code":13},"0064":{"zip_code":"1010064","prefecture":"東京都","prefecture_kana":"トウキョウト","city":"千代田区","city_kana":"チヨダク","town":"猿楽町","town_kana":"サルガクチョウ","prefecture_code":13},"0021":{"zip_code":"1010021","prefecture":"東京都","prefecture_kana":"トウキョウト","city":"千代田区","city_kana":"チヨダク","town":"外神田","town_kana":"ソトカンダ","prefecture_code":13},"0065":{"zip_code":"1010065","prefecture":"東京都","prefecture_kana":"トウキョウト","city":"千代田区","city_kana":"チヨダク","town":"西神田","town_kana":"ニシカンダ","prefecture_code":13},"0031":{"zip_code":"1010031","prefecture":"東京都","prefecture_kana":"トウキョウト","city":"千代田区","city_kana":"チヨダク","town":"東神田","town_kana":"ヒガシカンダ","prefecture_code":13},"0003":{"zip_code":"1010003","prefecture":"東京都","prefecture_kana":"トウキョウト","city":"千代田区","city_kana":"チヨダク","town":"一ツ橋","town_kana":"ヒトツバシ","prefecture_code":13},"0061":{"zip_code":"1010061","prefecture":"東京都","prefecture_kana":"トウキョウト","city":"千代田区","city_kana":"チヨダク","town":"三崎町","town_kana":"ミサキチョウ","prefecture_code":13},"8480":{"zip_code":"1018480","prefecture":"東京都","city":"千代田区","town":"神田錦町","prefecture_code":13},"8481":{"zip_code":"1018481","prefecture":"東京都","city":"千代田区","town":"神田美土代町","prefecture_code":13},"8512":{"zip_code":"1018512","prefecture":"東京都","city":"千代田区","town":"神田美土代町","prefecture_code":13},"8445":{"zip_code":"1018445","prefecture":"東京都","city":"千代田区","town":"神田錦町","prefecture_code":13},"8986":{"zip_code":"1018986","prefecture":"東京都","city":"千代田区","town":"神田錦町","prefecture_code":13},"8555":{"zip_code":"1018555","prefecture":"東京都","city":"千代田区","town":"神田須田町","prefecture_code":13},"8534":{"zip_code":"1018534","prefecture":"東京都","city":"千代田区","town":"神田司町","prefecture_code":13},"8611":{"zip_code":"1018611","prefecture":"東京都","city":"千代田区","town":"神田駿河台","prefecture_code":13},"8362":{"zip_code":"1018362","prefecture":"東京都","city":"千代田区","town":"西神田","prefecture_code":13},"8532":{"zip_code":"1018532","prefecture":"東京都","city":"千代田区","town":"神田司町","prefecture_code":13},"8347":{"zip_code":"1018347","prefecture":"東京都","city":"千代田区","town":"猿楽町","prefecture_code":13},"8535":{"zip_code":"1018535","prefecture":"東京都","city":"千代田区","town":"神田司町","prefecture_code":13},"8353":{"zip_code":"1018353","prefecture":"東京都","city":"千代田区","town":"西神田","prefecture_code":13},"8352":{"zip_code":"1018352","prefecture":"東京都","city":"千代田区","town":"西神田","prefecture_code":13},"8228":{"zip_code":"1018228","prefecture":"東京都","city":"千代田区","town":"猿楽町","prefecture_code":13},"8504":{"zip_code":"1018504","prefecture":"東京都","city":"千代田区","town":"内神田","prefecture_code":13},"8586":{"zip_code":"1018586","prefecture":"東京都","city":"千代田区","town":"岩本町","prefecture_code":13},"8627":{"zip_code":"1018627","prefecture":"東京都","city":"千代田区","town":"神田松永町","prefecture_code":13},"8629":{"zip_code":"1018629","prefecture":"東京都","city":"千代田区","town":"神田松永町","prefecture_code":13},"8628":{"zip_code":"1018628","prefecture":"東京都","city":"千代田区","town":"神田松永町","prefecture_code":13},"8543":{"zip_code":"1018543","prefecture":"東京都","city":"千代田区","town":"鍛冶町","prefecture_code":13},"8526":{"zip_code":"1018526","prefecture":"東京都","city":"千代田区","town":"内神田","prefecture_code":13},"8449":{"zip_code":"1018449","prefecture":"東京都","city":"千代田区","town":"猿楽町","prefecture_code":13},"8973":{"zip_code":"1018973","prefecture":"東京都","city":"千代田区","town":"外神田","prefecture_code":13},"8355":{"zip_code":"1018355","prefecture":"東京都","city":"千代田区","town":"西神田","prefecture_code":13},"8202":{"zip_code":"1018202","prefecture":"東京都","city":"千代田区","town":"神田練塀町","prefecture_code":13},"8615":{"zip_code":"1018615","prefecture":"東京都","city":"千代田区","town":"外神田","prefecture_code":13},"8469":{"zip_code":"1018469","prefecture":"東京都","city":"千代田区","town":"神田錦町","prefecture_code":13},"8558":{"zip_code":"1018558","prefecture":"東京都","city":"千代田区","town":"神田須田町","prefecture_code":13},"8201":{"zip_code":"1018201","prefecture":"東京都","city":"千代田区","town":"神田練塀町","prefecture_code":13},"8204":{"zip_code":"1018204","prefecture":"東京都","city":"千代田区","town":"神田練塀町","prefecture_code":13},"8467":{"zip_code":"1018467","prefecture":"東京都","city":"千代田区","town":"神田錦町","prefecture_code":13},"8517":{"zip_code":"1018517","prefecture":"東京都","city":"千代田区","town":"内神田","prefecture_code":13},"8460":{"zip_code":"1018460","prefecture":"東京都","city":"千代田区","town":"神田錦町","prefecture_code":13},"8624":{"zip_code":"1018624","prefecture":"東京都","city":"千代田区","town":"外神田","prefecture_code":13},"8476":{"zip_code":"1018476","prefecture":"東京都","city":"千代田区","town":"神田錦町","prefecture_code":13},"8589":{"zip_code":"1018589","prefecture":"東京都","city":"千代田区","town":"外神田","prefecture_code":13},"8672":{"zip_code":"1018672","prefecture":"東京都","city":"千代田区","town":"三崎町","prefecture_code":13},"8560":{"zip_code":"1018560","prefecture":"東京都","city":"千代田区","town":"神田小川町","prefecture_code":13},"8316":{"zip_code":"1018316","prefecture":"東京都","city":"千代田区","town":"神田駿河台","prefecture_code":13},"8568":{"zip_code":"1018568","prefecture":"東京都","city":"千代田区","town":"神田富山町","prefecture_code":13},"8371":{"zip_code":"1018371","prefecture":"東京都","city":"千代田区","town":"三崎町","prefecture_code":13},"8410":{"zip_code":"1018410","prefecture":"東京都","city":"千代田区","town":"神田神保町","prefecture_code":13},"8448":{"zip_code":"1018448","prefecture":"東京都","city":"千代田区","town":"神田錦町","prefecture_code":13},"8522":{"zip_code":"1018522","prefecture":"東京都","city":"千代田区","town":"内神田","prefecture_code":13},"8050":{"zip_code":"1018050","prefecture":"東京都","city":"千代田区","town":"一ツ橋","prefecture_code":13},"8054":{"zip_code":"1018054","prefecture":"東京都","city":"千代田区","town":"一ツ橋","prefecture_code":13},"8001":{"zip_code":"1018001","prefecture":"東京都","city":"千代田区","town":"一ツ橋","prefecture_code":13},"8415":{"zip_code":"1018415","prefecture":"東京都","city":"千代田区","town":"神田神保町","prefecture_code":13},"8388":{"zip_code":"1018388","prefecture":"東京都","city":"千代田区","town":"三崎町","prefecture_code":13},"8588":{"zip_code":"1018588","prefecture":"東京都","city":"千代田区","town":"神田岩本町","prefecture_code":13},"8450":{"zip_code":"1018450","prefecture":"東京都","city":"千代田区","town":"神田錦町","prefecture_code":13},"8475":{"zip_code":"1018475","prefecture":"東京都","city":"千代田区","town":"神田小川町","prefecture_code":13},"8421":{"zip_code":"1018421","prefecture":"東京都","city":"千代田区","town":"猿楽町","prefecture_code":13},"8636":{"zip_code":"1018636","prefecture":"東京都","city":"千代田区","town":"神田佐久間河岸","prefecture_code":13},"8465":{"zip_code":"1018465","prefecture":"東京都","city":"千代田区","town":"神田錦町","prefecture_code":13},"8418":{"zip_code":"1018418","prefecture":"東京都","city":"千代田区","town":"西神田","prefecture_code":13},"8610":{"zip_code":"1018610","prefecture":"東京都","city":"千代田区","town":"外神田","prefecture_code":13},"8638":{"zip_code":"1018638","prefecture":"東京都","city":"千代田区","town":"神田佐久間町","prefecture_code":13},"8335":{"zip_code":"1018335","prefecture":"東京都","city":"千代田区","town":"神田淡路町","prefecture_code":13},"8466":{"zip_code":"1018466","prefecture":"東京都","city":"千代田区","town":"神田錦町","prefecture_code":13},"8577":{"zip_code":"1018577","prefecture":"東京都","city":"千代田区","town":"外神田","prefecture_code":13},"8619":{"zip_code":"1018619","prefecture":"東京都","city":"千代田区","town":"外神田","prefecture_code":13},"8408":{"zip_code":"1018408","prefecture":"東京都","city":"千代田区","town":"神田神保町","prefecture_code":13},"8470":{"zip_code":"1018470","prefecture":"東京都","city":"千代田区","town":"神田小川町","prefecture_code":13},"8667":{"zip_code":"1018667","prefecture":"東京都","city":"千代田区","town":"神田須田町","prefecture_code":13},"8365":{"zip_code":"1018365","prefecture":"東京都","city":"千代田区","town":"三崎町","prefecture_code":13},"8548":{"zip_code":"1018548","prefecture":"東京都","city":"千代田区","town":"鍛冶町","prefecture_code":13},"8419":{"zip_code":"1018419","prefecture":"東京都","city":"千代田区","town":"神田神保町","prefecture_code":13},"8323":{"zip_code":"1018323","prefecture":"東京都","city":"千代田区","town":"神田小川町","prefecture_code":13},"8576":{"zip_code":"1018576","prefecture":"東京都","city":"千代田区","town":"岩本町","prefecture_code":13},"8561":{"zip_code":"1018561","prefecture":"東京都","city":"千代田区","town":"神田東松下町","prefecture_code":13},"8901":{"zip_code":"1018901","prefecture":"東京都","city":"千代田区","town":"神田東松下町","prefecture_code":13},"8613":{"zip_code":"1018613","prefecture":"東京都","city":"千代田区","town":"外神田","prefecture_code":13},"8454":{"zip_code":"1018454","prefecture":"東京都","city":"千代田区","town":"神田小川町","prefecture_code":13},"8565":{"zip_code":"1018565","prefecture":"東京都","city":"千代田区","town":"神田富山町","prefecture_code":13},"8562":{"zip_code":"1018562","prefecture":"東京都","city":"千代田区","town":"神田富山町","prefecture_code":13},"8941":{"zip_code":"1018941","prefecture":"東京都","city":"千代田区","town":"神田淡路町","prefecture_code":13},"8405":{"zip_code":"1018405","prefecture":"東京都","city":"千代田区","town":"三崎町","prefecture_code":13},"8381":{"zip_code":"1018381","prefecture":"東京都","city":"千代田区","town":"三崎町","prefecture_code":13},"8423":{"zip_code":"1018423","prefecture":"東京都","city":"千代田区","town":"神田神保町","prefecture_code":13},"8424":{"zip_code":"1018424","prefecture":"東京都","city":"千代田区","town":"神田神保町","prefecture_code":13},"8972":{"zip_code":"1018972","prefecture":"東京都","city":"千代田区","town":"外神田","prefecture_code":13},"8305":{"zip_code":"1018305","prefecture":"東京都","city":"千代田区","town":"神田駿河台","prefecture_code":13},"8648":{"zip_code":"1018648","prefecture":"東京都","city":"千代田区","town":"神田和泉町","prefecture_code":13},"8566":{"zip_code":"1018566","prefecture":"東京都","city":"千代田区","town":"神田富山町","prefecture_code":13},"8519":{"zip_code":"1018519","prefecture":"東京都","city":"千代田区","town":"内神田","prefecture_code":13},"8325":{"zip_code":"1018325","prefecture":"東京都","city":"千代田区","town":"神田駿河台","prefecture_code":13},"8345":{"zip_code":"1018345","prefecture":"東京都","city":"千代田区","town":"猿楽町","prefecture_code":13},"8464":{"zip_code":"1018464","prefecture":"東京都","city":"千代田区","town":"神田錦町","prefecture_code":13},"8712":{"zip_code":"1018712","prefecture":"東京都","city":"千代田区","town":"内神田","prefecture_code":13},"8351":{"zip_code":"1018351","prefecture":"東京都","city":"千代田区","town":"西神田","prefecture_code":13},"8433":{"zip_code":"1018433","prefecture":"東京都","city":"千代田区","town":"一ツ橋","prefecture_code":13},"8313":{"zip_code":"1018313","prefecture":"東京都","city":"千代田区","town":"神田駿河台","prefecture_code":13},"8456":{"zip_code":"1018456","prefecture":"東京都","city":"千代田区","town":"神田錦町","prefecture_code":13},"8301":{"zip_code":"1018301","prefecture":"東京都","city":"千代田区","town":"神田駿河台","prefecture_code":13},"8311":{"zip_code":"1018311","prefecture":"東京都","city":"千代田区","town":"神田駿河台","prefecture_code":13},"8510":{"zip_code":"1018510","prefecture":"東京都","city":"千代田区","town":"内神田","prefecture_code":13},"8317":{"zip_code":"1018317","prefecture":"東京都","city":"千代田区","town":"神田駿河台","prefecture_code":13},"8437":{"zip_code":"1018437","prefecture":"東京都","city":"千代田区","town":"一ツ橋","prefecture_code":13},"8621":{"zip_code":"1018621","prefecture":"東京都","city":"千代田区","town":"外神田","prefecture_code":13},"8645":{"zip_code":"1018645","prefecture":"東京都","city":"千代田区","town":"神田和泉町","prefecture_code":13},"8641":{"zip_code":"1018641","prefecture":"東京都","city":"千代田区","town":"東神田","prefecture_code":13},"8356":{"zip_code":"1018356","prefecture":"東京都","city":"千代田区","town":"西神田","prefecture_code":13},"8545":{"zip_code":"1018545","prefecture":"東京都","city":"千代田区","town":"神田東松下町","prefecture_code":13},"8427":{"zip_code":"1018427","prefecture":"東京都","city":"千代田区","town":"神田神保町","prefecture_code":13},"8977":{"zip_code":"1018977","prefecture":"東京都","city":"千代田区","town":"外神田","prefecture_code":13},"8378":{"zip_code":"1018378","prefecture":"東京都","city":"千代田区","town":"猿楽町","prefecture_code":13},"8559":{"zip_code":"1018559","prefecture":"東京都","city":"千代田区","town":"神田須田町","prefecture_code":13},"8583":{"zip_code":"1018583","prefecture":"東京都","city":"千代田区","town":"外神田","prefecture_code":13},"8682":{"zip_code":"1018682","prefecture":"東京都","city":"千代田区","town":"神田錦町","prefecture_code":13},"8333":{"zip_code":"1018333","prefecture":"東京都","city":"千代田区","town":"神田淡路町","prefecture_code":13},"8346":{"zip_code":"1018346","prefecture":"東京都","city":"千代田区","town":"猿楽町","prefecture_code":13},"8358":{"zip_code":"1018358","prefecture":"東京都","city":"千代田区","town":"西神田","prefecture_code":13},"8983":{"zip_code":"1018983","prefecture":"東京都","city":"千代田区","town":"外神田","prefecture_code":13},"8581":{"zip_code":"1018581","prefecture":"東京都","city":"千代田区","town":"鍛冶町","prefecture_code":13},"8412":{"zip_code":"1018412","prefecture":"東京都","city":"千代田区","town":"神田神保町","prefecture_code":13},"8643":{"zip_code":"1018643","prefecture":"東京都","city":"千代田区","town":"神田和泉町","prefecture_code":13},"8459":{"zip_code":"1018459","prefecture":"東京都","city":"千代田区","town":"神田錦町","prefecture_code":13},"8544":{"zip_code":"1018544","prefecture":"東京都","city":"千代田区","town":"鍛冶町","prefecture_code":13},"8552":{"zip_code":"1018552","prefecture":"東京都","city":"千代田区","town":"神田須田町","prefecture_code":13},"8328":{"zip_code":"1018328","prefecture":"東京都","city":"千代田区","town":"神田駿河台","prefecture_code":13},"8326":{"zip_code":"1018326","prefecture":"東京都","city":"千代田区","town":"神田駿河台","prefecture_code":13},"8307":{"zip_code":"1018307","prefecture":"東京都","city":"千代田区","town":"神田駿河台","prefecture_code":13},"8468":{"zip_code":"1018468","prefecture":"東京都","city":"千代田区","town":"神田錦町","prefecture_code":13},"8330":{"zip_code":"1018330","prefecture":"東京都","city":"千代田区","town":"神田駿河台","prefecture_code":13},"8521":{"zip_code":"1018521","prefecture":"東京都","city":"千代田区","town":"内神田","prefecture_code":13},"8616":{"zip_code":"1018616","prefecture":"東京都","city":"千代田区","town":"外神田","prefecture_code":13},"8451":{"zip_code":"1018451","prefecture":"東京都","city":"千代田区","town":"神田錦町","prefecture_code":13},"8603":{"zip_code":"1018603","prefecture":"東京都","city":"千代田区","town":"外神田","prefecture_code":13},"8447":{"zip_code":"1018447","prefecture":"東京都","city":"千代田区","town":"神田錦町","prefecture_code":13},"8430":{"zip_code":"1018430","prefecture":"東京都","city":"千代田区","town":"一ツ橋","prefecture_code":13},"8633":{"zip_code":"1018633","prefecture":"東京都","city":"千代田区","town":"東神田","prefecture_code":13},"8453":{"zip_code":"1018453","prefecture":"東京都","city":"千代田区","town":"神田錦町","prefecture_code":13},"8425":{"zip_code":"1018425","prefecture":"東京都","city":"千代田区","town":"神田神保町","prefecture_code":13},"8525":{"zip_code":"1018525","prefecture":"東京都","city":"千代田区","town":"内神田","prefecture_code":13},"8503":{"zip_code":"1018503","prefecture":"東京都","city":"千代田区","town":"内神田","prefecture_code":13},"8508":{"zip_code":"1018508","prefecture":"東京都","city":"千代田区","town":"内神田","prefecture_code":13},"8509":{"zip_code":"1018509","prefecture":"東京都","city":"千代田区","town":"内神田","prefecture_code":13},"8501":{"zip_code":"1018501","prefecture":"東京都","city":"千代田区","town":"内神田","prefecture_code":13},"8502":{"zip_code":"1018502","prefecture":"東京都","city":"千代田区","town":"神田錦町","prefecture_code":13},"8416":{"zip_code":"1018416","prefecture":"東京都","city":"千代田区","town":"神田神保町","prefecture_code":13},"8444":{"zip_code":"1018444","prefecture":"東京都","city":"千代田区","town":"神田錦町","prefecture_code":13},"8321":{"zip_code":"1018321","prefecture":"東京都","city":"千代田区","town":"神田駿河台","prefecture_code":13},"8575":{"zip_code":"1018575","prefecture":"東京都","city":"千代田区","town":"岩本町","prefecture_code":13},"8579":{"zip_code":"1018579","prefecture":"東京都","city":"千代田区","town":"外神田","prefecture_code":13},"8383":{"zip_code":"1018383","prefecture":"東京都","city":"千代田区","town":"三崎町","prefecture_code":13},"8950":{"zip_code":"1018950","prefecture":"東京都","city":"千代田区","town":"外神田","prefecture_code":13},"8324":{"zip_code":"1018324","prefecture":"東京都","city":"千代田区","town":"神田駿河台","prefecture_code":13},"8646":{"zip_code":"1018646","prefecture":"東京都","city":"千代田区","town":"神田和泉町","prefecture_code":13},"8366":{"zip_code":"1018366","prefecture":"東京都","city":"千代田区","town":"三崎町","prefecture_code":13},"8703":{"zip_code":"1018703","prefecture":"東京都","city":"千代田区","town":"神田駿河台","prefecture_code":13},"8530":{"zip_code":"1018530","prefecture":"東京都","city":"千代田区","town":"神田司町","prefecture_code":13},"8533":{"zip_code":"1018533","prefecture":"東京都","city":"千代田区","town":"神田須田町","prefecture_code":13},"8523":{"zip_code":"1018523","prefecture":"東京都","city":"千代田区","town":"内神田","prefecture_code":13},"8520":{"zip_code":"1018520","prefecture":"東京都","city":"千代田区","town":"内神田","prefecture_code":13},"8515":{"zip_code":"1018515","prefecture":"東京都","city":"千代田区","town":"内神田","prefecture_code":13},"8350":{"zip_code":"1018350","prefecture":"東京都","city":"千代田区","town":"西神田","prefecture_code":13},"8327":{"zip_code":"1018327","prefecture":"東京都","city":"千代田区","town":"神田駿河台","prefecture_code":13},"8630":{"zip_code":"1018630","prefecture":"東京都","city":"千代田区","town":"東神田","prefecture_code":13},"8411":{"zip_code":"1018411","prefecture":"東京都","city":"千代田区","town":"神田神保町","prefecture_code":13},"8612":{"zip_code":"1018612","prefecture":"東京都","city":"千代田区","town":"外神田","prefecture_code":13},"8617":{"zip_code":"1018617","prefecture":"東京都","city":"千代田区","town":"外神田","prefecture_code":13},"8008":{"zip_code":"1018008","prefecture":"東京都","city":"千代田区","town":"神田駿河台","prefecture_code":13},"8359":{"zip_code":"1018359","prefecture":"東京都","city":"千代田区","town":"西神田","prefecture_code":13},"8662":{"zip_code":"1018662","prefecture":"東京都","city":"千代田区","town":"神田錦町","prefecture_code":13},"8688":{"zip_code":"1018688","prefecture":"東京都","city":"千代田区","town":"神田駿河台","prefecture_code":13},"8483":{"zip_code":"1018483","prefecture":"東京都","city":"千代田区","town":"神田美土代町","prefecture_code":13},"8609":{"zip_code":"1018609","prefecture":"東京都","city":"千代田区","town":"外神田","prefecture_code":13},"8441":{"zip_code":"1018441","prefecture":"東京都","city":"千代田区","town":"神田錦町","prefecture_code":13},"8210":{"zip_code":"1018210","prefecture":"東京都","city":"千代田区","town":"神田駿河台","prefecture_code":13},"8215":{"zip_code":"1018215","prefecture":"東京都","city":"千代田区","town":"神田駿河台","prefecture_code":13},"8213":{"zip_code":"1018213","prefecture":"東京都","city":"千代田区","town":"神田駿河台","prefecture_code":13},"8946":{"zip_code":"1018946","prefecture":"東京都","city":"千代田区","town":"東神田","prefecture_code":13},"8710":{"zip_code":"1018710","prefecture":"東京都","city":"千代田区","town":"神田駿河台","prefecture_code":13},"8310":{"zip_code":"1018310","prefecture":"東京都","city":"千代田区","town":"神田駿河台","prefecture_code":13},"8354":{"zip_code":"1018354","prefecture":"東京都","city":"千代田区","town":"三崎町","prefecture_code":13},"8375":{"zip_code":"1018375","prefecture":"東京都","city":"千代田区","town":"三崎町","prefecture_code":13},"8308":{"zip_code":"1018308","prefecture":"東京都","city":"千代田区","town":"神田駿河台","prefecture_code":13},"8707":{"zip_code":"1018707","prefecture":"東京都","city":"千代田区","town":"神田須田町","prefecture_code":13},"8407":{"zip_code":"1018407","prefecture":"東京都","city":"千代田区","town":"神田神保町","prefecture_code":13},"8506":{"zip_code":"1018506","prefecture":"東京都","city":"千代田区","town":"内神田","prefecture_code":13},"8511":{"zip_code":"1018511","prefecture":"東京都","city":"千代田区","town":"内神田","prefecture_code":13},"8507":{"zip_code":"1018507","prefecture":"東京都","city":"千代田区","town":"内神田","prefecture_code":13},"8711":{"zip_code":"1018711","prefecture":"東京都","city":"千代田区","town":"西神田","prefecture_code":13},"8605":{"zip_code":"1018605","prefecture":"東京都","city":"千代田区","town":"神田紺屋町","prefecture_code":13},"8462":{"zip_code":"1018462","prefecture":"東京都","city":"千代田区","town":"神田錦町","prefecture_code":13},"8302":{"zip_code":"1018302","prefecture":"東京都","city":"千代田区","town":"神田駿河台","prefecture_code":13},"8971":{"zip_code":"1018971","prefecture":"東京都","city":"千代田区","town":"外神田","prefecture_code":13},"8439":{"zip_code":"1018439","prefecture":"東京都","city":"千代田区","town":"一ツ橋","prefecture_code":13},"8634":{"zip_code":"1018634","prefecture":"東京都","city":"千代田区","town":"東神田","prefecture_code":13},"8528":{"zip_code":"1018528","prefecture":"東京都","city":"千代田区","town":"内神田","prefecture_code":13},"8314":{"zip_code":"1018314","prefecture":"東京都","city":"千代田区","town":"神田駿河台","prefecture_code":13},"8625":{"zip_code":"1018625","prefecture":"東京都","city":"千代田区","town":"外神田","prefecture_code":13},"8542":{"zip_code":"1018542","prefecture":"東京都","city":"千代田区","town":"神田富山町","prefecture_code":13},"8452":{"zip_code":"1018452","prefecture":"東京都","city":"千代田区","town":"神田錦町","prefecture_code":13},"8606":{"zip_code":"1018606","prefecture":"東京都","city":"千代田区","town":"神田美倉町","prefecture_code":13},"8380":{"zip_code":"1018380","prefecture":"東京都","city":"千代田区","town":"三崎町","prefecture_code":13},"8970":{"zip_code":"1018970","prefecture":"東京都","city":"千代田区","town":"外神田","prefecture_code":13},"8409":{"zip_code":"1018409","prefecture":"東京都","city":"千代田区","town":"神田駿河台","prefecture_code":13},"8322":{"zip_code":"1018322","prefecture":"東京都","city":"千代田区","town":"神田駿河台","prefecture_code":13},"8331":{"zip_code":"1018331","prefecture":"東京都","city":"千代田区","town":"神田駿河台","prefecture_code":13},"8363":{"zip_code":"1018363","prefecture":"東京都","city":"千代田区","town":"西神田","prefecture_code":13},"8477":{"zip_code":"1018477","prefecture":"東京都","city":"千代田区","town":"神田小川町","prefecture_code":13},"8219":{"zip_code":"1018219","prefecture":"東京都","city":"千代田区","town":"神田駿河台","prefecture_code":13},"8443":{"zip_code":"1018443","prefecture":"東京都","city":"千代田区","town":"神田錦町","prefecture_code":13},"8429":{"zip_code":"1018429","prefecture":"東京都","city":"千代田区","town":"神田神保町","prefecture_code":13},"8458":{"zip_code":"1018458","prefecture":"東京都","city":"千代田区","town":"神田錦町","prefecture_code":13},"8011":{"zip_code":"1018011","prefecture":"東京都","city":"千代田区","town":"神田駿河台","prefecture_code":13},"8607":{"zip_code":"1018607","prefecture":"東京都","city":"千代田区","town":"外神田","prefecture_code":13},"8338":{"zip_code":"1018338","prefecture":"東京都","city":"千代田区","town":"内神田","prefecture_code":13},"8637":{"zip_code":"1018637","prefecture":"東京都","city":"千代田区","town":"神田淡路町","prefecture_code":13},"8676":{"zip_code":"1018676","prefecture":"東京都","city":"千代田区","town":"内神田","prefecture_code":13},"8554":{"zip_code":"1018554","prefecture":"東京都","city":"千代田区","town":"神田須田町","prefecture_code":13},"8578":{"zip_code":"1018578","prefecture":"東京都","city":"千代田区","town":"岩本町","prefecture_code":13},"8626":{"zip_code":"1018626","prefecture":"東京都","city":"千代田区","town":"外神田","prefecture_code":13},"8620":{"zip_code":"1018620","prefecture":"東京都","city":"千代田区","town":"外神田","prefecture_code":13},"8585":{"zip_code":"1018585","prefecture":"東京都","city":"千代田区","town":"岩本町","prefecture_code":13},"8531":{"zip_code":"1018531","prefecture":"東京都","city":"千代田区","town":"神田司町","prefecture_code":13},"8422":{"zip_code":"1018422","prefecture":"東京都","city":"千代田区","town":"神田神保町","prefecture_code":13},"8336":{"zip_code":"1018336","prefecture":"東京都","city":"千代田区","town":"神田淡路町","prefecture_code":13},"8370":{"zip_code":"1018370","prefecture":"東京都","city":"千代田区","town":"三崎町","prefecture_code":13},"8446":{"zip_code":"1018446","prefecture":"東京都","city":"千代田区","town":"神田錦町","prefecture_code":13},"8385":{"zip_code":"1018385","prefecture":"東京都","city":"千代田区","town":"三崎町","prefecture_code":13},"8315":{"zip_code":"1018315","prefecture":"東京都","city":"千代田区","town":"神田駿河台","prefecture_code":13},"8642":{"zip_code":"1018642","prefecture":"東京都","city":"千代田区","town":"神田和泉町","prefecture_code":13},"8101":{"zip_code":"1018101","prefecture":"東京都","city":"千代田区","town":"神田神保町","prefecture_code":13},"8002":{"zip_code":"1018002","prefecture":"東京都","city":"千代田区","town":"一ツ橋","prefecture_code":13},"8077":{"zip_code":"1018077","prefecture":"東京都","city":"千代田区","town":"神田神保町","prefecture_code":13},"8655":{"zip_code":"1018655","prefecture":"東京都","city":"千代田区","town":"神田美土代町","prefecture_code":13},"8654":{"zip_code":"1018654","prefecture":"東京都","city":"千代田区","town":"内神田","prefecture_code":13},"8701":{"zip_code":"1018701","prefecture":"東京都","city":"千代田区","town":"神田神保町","prefecture_code":13},"8718":{"zip_code":"1018718","prefecture":"東京都","city":"千代田区","town":"神田駿河台","prefecture_code":13},"8715":{"zip_code":"1018715","prefecture":"東京都","city":"千代田区","town":"神田錦町","prefecture_code":13},"8670":{"zip_code":"1018670","prefecture":"東京都","city":"千代田区","town":"神田小川町","prefecture_code":13},"8651":{"zip_code":"1018651","prefecture":"東京都","city":"千代田区","town":"神田淡路町","prefecture_code":13},"8665":{"zip_code":"1018665","prefecture":"東京都","city":"中央区","town":"銀座","prefecture_code":13},"8716":{"zip_code":"1018716","prefecture":"東京都","city":"中央区","town":"京橋","prefecture_code":13},"8717":{"zip_code":"1018717","prefecture":"東京都","city":"中央区","town":"京橋","prefecture_code":13},"8656":{"zip_code":"1018656","prefecture":"東京都","city":"新宿区","town":"新小川町","prefecture_code":13},"8668":{"zip_code":"1018668","prefecture":"東京都","city":"文京区","town":"関口","prefecture_code":13}}