{"0072":{"zip_code":"1020072","prefecture":"東京都","prefecture_kana":"トウキョウト","city":"千代田区","city_kana":"チヨダク","town":"飯田橋","town_kana":"イイダバシ","prefecture_code":13},"0082":{"zip_code":"1020082","prefecture":"東京都","prefecture_kana":"トウキョウト","city":"千代田区","city_kana":"チヨダク","town":"一番町","town_kana":"イチバンチョウ","prefecture_code":13},"0094":{"zip_code":"1020094","prefecture":"東京都","prefecture_kana":"トウキョウト","city":"千代田区","city_kana":"チヨダク","town":"紀尾井町","town_kana":"キオイチョウ","prefecture_code":13},"0091":{"zip_code":"1020091","prefecture":"東京都","prefecture_kana":"トウキョウト","city":"千代田区","city_kana":"チヨダク","town":"北の丸公園","town_kana":"キタノマルコウエン","prefecture_code":13},"0074":{"zip_code":"1020074","prefecture":"東京都","prefecture_kana":"トウキョウト","city":"千代田区","city_kana":"チヨダク","town":"九段南","town_kana":"クダンミナミ","prefecture_code":13},"0073":{"zip_code":"1020073","prefecture":"東京都","prefecture_kana":"トウキョウト","city":"千代田区","city_kana":"チヨダク","town":"九段北","town_kana":"クダンキタ","prefecture_code":13},"0083":{"zip_code":"1020083","prefecture":"東京都","prefecture_kana":"トウキョウト","city":"千代田区","city_kana":"チヨダク","town":"麹町","town_kana":"コウジマチ","prefecture_code":13},"0076":{"zip_code":"1020076","prefecture":"東京都","prefecture_kana":"トウキョウト","city":"千代田区","city_kana":"チヨダク","town":"五番町","town_kana":"ゴバンチョウ","prefecture_code":13},"0075":{"zip_code":"1020075","prefecture":"東京都","prefecture_kana":"トウキョウト","city":"千代田区","city_kana":"チヨダク","town":"三番町","town_kana":"サンバンチョウ","prefecture_code":13},"0084":{"zip_code":"1020084","prefecture":"東京都","prefecture_kana":"トウキョウト","city":"千代田区","city_kana":"チヨダク","town":"二番町","town_kana":"ニバンチョウ","prefecture_code":13},"0092":{"zip_code":"1020092","prefecture":"東京都","prefecture_kana":"トウキョウト","city":"千代田区","city_kana":"チヨダク","town":"隼町","town_kana":"ハヤブサチョウ","prefecture_code":13},"0093":{"zip_code":"1020093","prefecture":"東京都","prefecture_kana":"トウキョウト","city":"千代田区","city_kana":"チヨダク","town":"平河町","town_kana":"ヒラカワチョウ","prefecture_code":13},"0071":{"zip_code":"1020071","prefecture":"東京都","prefecture_kana":"トウキョウト","city":"千代田区","city_kana":"チヨダク","town":"富士見","town_kana":"フジミ","prefecture_code":13},"0081":{"zip_code":"1020081","prefecture":"東京都","prefecture_kana":"トウキョウト","city":"千代田区","city_kana":"チヨダク","town":"四番町","town_kana":"ヨンバンチョウ","prefecture_code":13},"0085":{"zip_code":"1020085","prefecture":"東京都","prefecture_kana":"トウキョウト","city":"千代田区","city_kana":"チヨダク","town":"六番町","town_kana":"ロクバンチョウ","prefecture_code":13},"8644":{"zip_code":"1028644","prefecture":"東京都","city":"千代田区","town":"二番町","prefecture_code":13},"8450":{"zip_code":"1028450","prefecture":"東京都","city":"千代田区","town":"二番町","prefecture_code":13},"8353":{"zip_code":"1028353","prefecture":"東京都","city":"千代田区","town":"六番町","prefecture_code":13},"8618":{"zip_code":"1028618","prefecture":"東京都","city":"千代田区","town":"平河町","prefecture_code":13},"8619":{"zip_code":"1028619","prefecture":"東京都","city":"千代田区","town":"平河町","prefecture_code":13},"8055":{"zip_code":"1028055","prefecture":"東京都","city":"千代田区","town":"紀尾井町","prefecture_code":13},"8128":{"zip_code":"1028128","prefecture":"東京都","city":"千代田区","town":"飯田橋","prefecture_code":13},"8150":{"zip_code":"1028150","prefecture":"東京都","city":"千代田区","town":"富士見","prefecture_code":13},"8310":{"zip_code":"1028310","prefecture":"東京都","city":"千代田区","town":"九段南","prefecture_code":13},"8639":{"zip_code":"1028639","prefecture":"東京都","city":"千代田区","town":"平河町","prefecture_code":13},"8381":{"zip_code":"1028381","prefecture":"東京都","city":"千代田区","town":"一番町","prefecture_code":13},"8231":{"zip_code":"1028231","prefecture":"東京都","city":"千代田区","town":"九段北","prefecture_code":13},"8335":{"zip_code":"1028335","prefecture":"東京都","city":"千代田区","town":"三番町","prefecture_code":13},"8502":{"zip_code":"1028502","prefecture":"東京都","city":"千代田区","town":"九段北","prefecture_code":13},"8414":{"zip_code":"1028414","prefecture":"東京都","city":"千代田区","town":"三番町","prefecture_code":13},"8561":{"zip_code":"1028561","prefecture":"東京都","city":"千代田区","town":"紀尾井町","prefecture_code":13},"8553":{"zip_code":"1028553","prefecture":"東京都","city":"千代田区","town":"紀尾井町","prefecture_code":13},"8166":{"zip_code":"1028166","prefecture":"東京都","city":"千代田区","town":"富士見","prefecture_code":13},"8613":{"zip_code":"1028613","prefecture":"東京都","city":"千代田区","town":"平河町","prefecture_code":13},"8508":{"zip_code":"1028508","prefecture":"東京都","city":"千代田区","town":"飯田橋","prefecture_code":13},"8571":{"zip_code":"1028571","prefecture":"東京都","city":"千代田区","town":"紀尾井町","prefecture_code":13},"8606":{"zip_code":"1028606","prefecture":"東京都","city":"千代田区","town":"平河町","prefecture_code":13},"8420":{"zip_code":"1028420","prefecture":"東京都","city":"千代田区","town":"一番町","prefecture_code":13},"8115":{"zip_code":"1028115","prefecture":"東京都","city":"千代田区","town":"飯田橋","prefecture_code":13},"8541":{"zip_code":"1028541","prefecture":"東京都","city":"千代田区","town":"紀尾井町","prefecture_code":13},"8313":{"zip_code":"1028313","prefecture":"東京都","city":"千代田区","town":"麹町","prefecture_code":13},"8370":{"zip_code":"1028370","prefecture":"東京都","city":"千代田区","town":"四番町","prefecture_code":13},"8580":{"zip_code":"1028580","prefecture":"東京都","city":"千代田区","town":"紀尾井町","prefecture_code":13},"8552":{"zip_code":"1028552","prefecture":"東京都","city":"千代田区","town":"富士見","prefecture_code":13},"8077":{"zip_code":"1028077","prefecture":"東京都","city":"千代田区","town":"五番町","prefecture_code":13},"8177":{"zip_code":"1028177","prefecture":"東京都","city":"千代田区","town":"富士見","prefecture_code":13},"8078":{"zip_code":"1028078","prefecture":"東京都","city":"千代田区","town":"富士見","prefecture_code":13},"8584":{"zip_code":"1028584","prefecture":"東京都","city":"千代田区","town":"富士見","prefecture_code":13},"8024":{"zip_code":"1028024","prefecture":"東京都","city":"千代田区","town":"富士見","prefecture_code":13},"8302":{"zip_code":"1028302","prefecture":"東京都","city":"千代田区","town":"富士見","prefecture_code":13},"8205":{"zip_code":"1028205","prefecture":"東京都","city":"千代田区","town":"九段北","prefecture_code":13},"8617":{"zip_code":"1028617","prefecture":"東京都","city":"千代田区","town":"九段南","prefecture_code":13},"8350":{"zip_code":"1028350","prefecture":"東京都","city":"千代田区","town":"三番町","prefecture_code":13},"8627":{"zip_code":"1028627","prefecture":"東京都","city":"千代田区","town":"九段南","prefecture_code":13},"8637":{"zip_code":"1028637","prefecture":"東京都","city":"千代田区","town":"九段南","prefecture_code":13},"8405":{"zip_code":"1028405","prefecture":"東京都","city":"千代田区","town":"一番町","prefecture_code":13},"8407":{"zip_code":"1028407","prefecture":"東京都","city":"千代田区","town":"一番町","prefecture_code":13},"8130":{"zip_code":"1028130","prefecture":"東京都","city":"千代田区","town":"飯田橋","prefecture_code":13},"8324":{"zip_code":"1028324","prefecture":"東京都","city":"千代田区","town":"紀尾井町","prefecture_code":13},"8506":{"zip_code":"1028506","prefecture":"東京都","city":"千代田区","town":"麹町","prefecture_code":13},"8103":{"zip_code":"1028103","prefecture":"東京都","city":"千代田区","town":"麹町","prefecture_code":13},"8124":{"zip_code":"1028124","prefecture":"東京都","city":"千代田区","town":"紀尾井町","prefecture_code":13},"8141":{"zip_code":"1028141","prefecture":"東京都","city":"千代田区","town":"富士見","prefecture_code":13},"8660":{"zip_code":"1028660","prefecture":"東京都","city":"千代田区","town":"九段南","prefecture_code":13},"8101":{"zip_code":"1028101","prefecture":"東京都","city":"千代田区","town":"飯田橋","prefecture_code":13},"8109":{"zip_code":"1028109","prefecture":"東京都","city":"千代田区","town":"九段北","prefecture_code":13},"8511":{"zip_code":"1028511","prefecture":"東京都","city":"千代田区","town":"麹町","prefecture_code":13},"8110":{"zip_code":"1028110","prefecture":"東京都","city":"千代田区","town":"一番町","prefecture_code":13},"8533":{"zip_code":"1028533","prefecture":"東京都","city":"千代田区","town":"麹町","prefecture_code":13},"8671":{"zip_code":"1028671","prefecture":"東京都","city":"千代田区","town":"九段南","prefecture_code":13},"8573":{"zip_code":"1028573","prefecture":"東京都","city":"千代田区","town":"飯田橋","prefecture_code":13},"8025":{"zip_code":"1028025","prefecture":"東京都","city":"千代田区","town":"紀尾井町","prefecture_code":13},"8427":{"zip_code":"1028427","prefecture":"東京都","city":"千代田区","town":"二番町","prefecture_code":13},"8503":{"zip_code":"1028503","prefecture":"東京都","city":"千代田区","town":"麹町","prefecture_code":13},"8504":{"zip_code":"1028504","prefecture":"東京都","city":"千代田区","town":"麹町","prefecture_code":13},"8622":{"zip_code":"1028622","prefecture":"東京都","city":"千代田区","town":"紀尾井町","prefecture_code":13},"8685":{"zip_code":"1028685","prefecture":"東京都","city":"千代田区","town":"紀尾井町","prefecture_code":13},"8540":{"zip_code":"1028540","prefecture":"東京都","city":"千代田区","town":"麹町","prefecture_code":13},"8228":{"zip_code":"1028228","prefecture":"東京都","city":"千代田区","town":"九段北","prefecture_code":13},"8522":{"zip_code":"1028522","prefecture":"東京都","city":"千代田区","town":"三番町","prefecture_code":13},"8152":{"zip_code":"1028152","prefecture":"東京都","city":"千代田区","town":"富士見","prefecture_code":13},"8230":{"zip_code":"1028230","prefecture":"東京都","city":"千代田区","town":"九段北","prefecture_code":13},"8481":{"zip_code":"1028481","prefecture":"東京都","city":"千代田区","town":"麹町","prefecture_code":13},"8515":{"zip_code":"1028515","prefecture":"東京都","city":"千代田区","town":"紀尾井町","prefecture_code":13},"8440":{"zip_code":"1028440","prefecture":"東京都","city":"千代田区","town":"二番町","prefecture_code":13},"8611":{"zip_code":"1028611","prefecture":"東京都","city":"千代田区","town":"平河町","prefecture_code":13},"8232":{"zip_code":"1028232","prefecture":"東京都","city":"千代田区","town":"九段南","prefecture_code":13},"8238":{"zip_code":"1028238","prefecture":"東京都","city":"千代田区","town":"麹町","prefecture_code":13},"8221":{"zip_code":"1028221","prefecture":"東京都","city":"千代田区","town":"紀尾井町","prefecture_code":13},"8612":{"zip_code":"1028612","prefecture":"東京都","city":"千代田区","town":"平河町","prefecture_code":13},"8558":{"zip_code":"1028558","prefecture":"東京都","city":"千代田区","town":"紀尾井町","prefecture_code":13},"8488":{"zip_code":"1028488","prefecture":"東京都","city":"千代田区","town":"九段北","prefecture_code":13},"8528":{"zip_code":"1028528","prefecture":"東京都","city":"千代田区","town":"麹町","prefecture_code":13},"8187":{"zip_code":"1028187","prefecture":"東京都","city":"千代田区","town":"九段北","prefecture_code":13},"8437":{"zip_code":"1028437","prefecture":"東京都","city":"千代田区","town":"二番町","prefecture_code":13},"8426":{"zip_code":"1028426","prefecture":"東京都","city":"千代田区","town":"二番町","prefecture_code":13},"8455":{"zip_code":"1028455","prefecture":"東京都","city":"千代田区","town":"二番町","prefecture_code":13},"8452":{"zip_code":"1028452","prefecture":"東京都","city":"千代田区","town":"二番町","prefecture_code":13},"8438":{"zip_code":"1028438","prefecture":"東京都","city":"千代田区","town":"二番町","prefecture_code":13},"8466":{"zip_code":"1028466","prefecture":"東京都","city":"千代田区","town":"二番町","prefecture_code":13},"8211":{"zip_code":"1028211","prefecture":"東京都","city":"千代田区","town":"九段北","prefecture_code":13},"8679":{"zip_code":"1028679","prefecture":"東京都","city":"千代田区","town":"五番町","prefecture_code":13},"8633":{"zip_code":"1028633","prefecture":"東京都","city":"千代田区","town":"平河町","prefecture_code":13},"8388":{"zip_code":"1028388","prefecture":"東京都","city":"千代田区","town":"一番町","prefecture_code":13},"8139":{"zip_code":"1028139","prefecture":"東京都","city":"千代田区","town":"富士見","prefecture_code":13},"8186":{"zip_code":"1028186","prefecture":"東京都","city":"千代田区","town":"九段北","prefecture_code":13},"8142":{"zip_code":"1028142","prefecture":"東京都","city":"千代田区","town":"富士見","prefecture_code":13},"8320":{"zip_code":"1028320","prefecture":"東京都","city":"千代田区","town":"九段南","prefecture_code":13},"8181":{"zip_code":"1028181","prefecture":"東京都","city":"千代田区","town":"九段北","prefecture_code":13},"8117":{"zip_code":"1028117","prefecture":"東京都","city":"千代田区","town":"飯田橋","prefecture_code":13},"8569":{"zip_code":"1028569","prefecture":"東京都","city":"千代田区","town":"紀尾井町","prefecture_code":13},"8512":{"zip_code":"1028512","prefecture":"東京都","city":"千代田区","town":"九段南","prefecture_code":13},"8578":{"zip_code":"1028578","prefecture":"東京都","city":"千代田区","town":"紀尾井町","prefecture_code":13},"8260":{"zip_code":"1028260","prefecture":"東京都","city":"千代田区","town":"九段南","prefecture_code":13},"8026":{"zip_code":"1028026","prefecture":"東京都","city":"千代田区","town":"五番町","prefecture_code":13},"8331":{"zip_code":"1028331","prefecture":"東京都","city":"千代田区","town":"一番町","prefecture_code":13},"8144":{"zip_code":"1028144","prefecture":"東京都","city":"千代田区","town":"富士見","prefecture_code":13},"8620":{"zip_code":"1028620","prefecture":"東京都","city":"千代田区","town":"平河町","prefecture_code":13},"8406":{"zip_code":"1028406","prefecture":"東京都","city":"千代田区","town":"一番町","prefecture_code":13},"8303":{"zip_code":"1028303","prefecture":"東京都","city":"千代田区","town":"九段南","prefecture_code":13},"8604":{"zip_code":"1028604","prefecture":"東京都","city":"千代田区","town":"麹町","prefecture_code":13},"8602":{"zip_code":"1028602","prefecture":"東京都","city":"千代田区","town":"麹町","prefecture_code":13},"8155":{"zip_code":"1028155","prefecture":"東京都","city":"千代田区","town":"一番町","prefecture_code":13},"8433":{"zip_code":"1028433","prefecture":"東京都","city":"千代田区","town":"二番町","prefecture_code":13},"8019":{"zip_code":"1028019","prefecture":"東京都","city":"千代田区","town":"五番町","prefecture_code":13},"8520":{"zip_code":"1028520","prefecture":"東京都","city":"千代田区","town":"麹町","prefecture_code":13},"8621":{"zip_code":"1028621","prefecture":"東京都","city":"千代田区","town":"平河町","prefecture_code":13},"8372":{"zip_code":"1028372","prefecture":"東京都","city":"千代田区","town":"五番町","prefecture_code":13},"8429":{"zip_code":"1028429","prefecture":"東京都","city":"千代田区","town":"二番町","prefecture_code":13},"8642":{"zip_code":"1028642","prefecture":"東京都","city":"千代田区","town":"平河町","prefecture_code":13},"8417":{"zip_code":"1028417","prefecture":"東京都","city":"千代田区","town":"二番町","prefecture_code":13},"8609":{"zip_code":"1028609","prefecture":"東京都","city":"千代田区","town":"平河町","prefecture_code":13},"8401":{"zip_code":"1028401","prefecture":"東京都","city":"千代田区","town":"紀尾井町","prefecture_code":13},"8357":{"zip_code":"1028357","prefecture":"東京都","city":"千代田区","town":"三番町","prefecture_code":13},"8178":{"zip_code":"1028178","prefecture":"東京都","city":"千代田区","town":"富士見","prefecture_code":13},"8185":{"zip_code":"1028185","prefecture":"東京都","city":"千代田区","town":"九段北","prefecture_code":13},"8341":{"zip_code":"1028341","prefecture":"東京都","city":"千代田区","town":"三番町","prefecture_code":13},"8336":{"zip_code":"1028336","prefecture":"東京都","city":"千代田区","town":"三番町","prefecture_code":13},"8470":{"zip_code":"1028470","prefecture":"東京都","city":"千代田区","town":"六番町","prefecture_code":13},"8628":{"zip_code":"1028628","prefecture":"東京都","city":"千代田区","town":"九段南","prefecture_code":13},"8364":{"zip_code":"1028364","prefecture":"東京都","city":"千代田区","town":"九段南","prefecture_code":13},"8531":{"zip_code":"1028531","prefecture":"東京都","city":"千代田区","town":"麹町","prefecture_code":13},"8588":{"zip_code":"1028588","prefecture":"東京都","city":"千代田区","town":"三番町","prefecture_code":13},"8607":{"zip_code":"1028607","prefecture":"東京都","city":"千代田区","town":"三番町","prefecture_code":13},"8461":{"zip_code":"1028461","prefecture":"東京都","city":"千代田区","town":"飯田橋","prefecture_code":13},"8462":{"zip_code":"1028462","prefecture":"東京都","city":"千代田区","town":"飯田橋","prefecture_code":13},"8460":{"zip_code":"1028460","prefecture":"東京都","city":"千代田区","town":"飯田橋","prefecture_code":13},"8383":{"zip_code":"1028383","prefecture":"東京都","city":"千代田区","town":"一番町","prefecture_code":13},"8559":{"zip_code":"1028559","prefecture":"東京都","city":"千代田区","town":"紀尾井町","prefecture_code":13},"8459":{"zip_code":"1028459","prefecture":"東京都","city":"千代田区","town":"四番町","prefecture_code":13},"8311":{"zip_code":"1028311","prefecture":"東京都","city":"千代田区","town":"九段南","prefecture_code":13},"8309":{"zip_code":"1028309","prefecture":"東京都","city":"千代田区","town":"九段南","prefecture_code":13},"8305":{"zip_code":"1028305","prefecture":"東京都","city":"千代田区","town":"九段南","prefecture_code":13},"8102":{"zip_code":"1028102","prefecture":"東京都","city":"千代田区","town":"飯田橋","prefecture_code":13},"8651":{"zip_code":"1028651","prefecture":"東京都","city":"千代田区","town":"隼町","prefecture_code":13},"8333":{"zip_code":"1028333","prefecture":"東京都","city":"千代田区","town":"三番町","prefecture_code":13},"8410":{"zip_code":"1028410","prefecture":"東京都","city":"千代田区","town":"一番町","prefecture_code":13},"8530":{"zip_code":"1028530","prefecture":"東京都","city":"千代田区","town":"麹町","prefecture_code":13},"8140":{"zip_code":"1028140","prefecture":"東京都","city":"千代田区","town":"富士見","prefecture_code":13},"8585":{"zip_code":"1028585","prefecture":"東京都","city":"千代田区","town":"紀尾井町","prefecture_code":13},"8650":{"zip_code":"1028650","prefecture":"東京都","city":"千代田区","town":"麹町","prefecture_code":13},"8474":{"zip_code":"1028474","prefecture":"東京都","city":"千代田区","town":"麹町","prefecture_code":13},"8555":{"zip_code":"1028555","prefecture":"東京都","city":"千代田区","town":"紀尾井町","prefecture_code":13},"8011":{"zip_code":"1028011","prefecture":"東京都","city":"千代田区","town":"六番町","prefecture_code":13},"8288":{"zip_code":"1028288","prefecture":"東京都","city":"千代田区","town":"九段南","prefecture_code":13},"8567":{"zip_code":"1028567","prefecture":"東京都","city":"千代田区","town":"紀尾井町","prefecture_code":13},"8321":{"zip_code":"1028321","prefecture":"東京都","city":"千代田区","town":"北の丸公園","prefecture_code":13},"8138":{"zip_code":"1028138","prefecture":"東京都","city":"千代田区","town":"富士見","prefecture_code":13},"8234":{"zip_code":"1028234","prefecture":"東京都","city":"千代田区","town":"九段北","prefecture_code":13},"8556":{"zip_code":"1028556","prefecture":"東京都","city":"千代田区","town":"紀尾井町","prefecture_code":13},"8411":{"zip_code":"1028411","prefecture":"東京都","city":"千代田区","town":"一番町","prefecture_code":13},"8356":{"zip_code":"1028356","prefecture":"東京都","city":"千代田区","town":"三番町","prefecture_code":13},"8241":{"zip_code":"1028241","prefecture":"東京都","city":"千代田区","town":"九段北","prefecture_code":13},"8184":{"zip_code":"1028184","prefecture":"東京都","city":"千代田区","town":"九段北","prefecture_code":13},"8603":{"zip_code":"1028603","prefecture":"東京都","city":"千代田区","town":"平河町","prefecture_code":13},"8577":{"zip_code":"1028577","prefecture":"東京都","city":"千代田区","town":"紀尾井町","prefecture_code":13},"8111":{"zip_code":"1028111","prefecture":"東京都","city":"千代田区","town":"飯田橋","prefecture_code":13},"8088":{"zip_code":"1028088","prefecture":"東京都","city":"千代田区","town":"九段南","prefecture_code":13},"8377":{"zip_code":"1028377","prefecture":"東京都","city":"千代田区","town":"五番町","prefecture_code":13},"8510":{"zip_code":"1028510","prefecture":"東京都","city":"千代田区","town":"一番町","prefecture_code":13},"8201":{"zip_code":"1028201","prefecture":"東京都","city":"千代田区","town":"九段北","prefecture_code":13},"8554":{"zip_code":"1028554","prefecture":"東京都","city":"千代田区","town":"紀尾井町","prefecture_code":13},"8614":{"zip_code":"1028614","prefecture":"東京都","city":"千代田区","town":"平河町","prefecture_code":13},"8465":{"zip_code":"1028465","prefecture":"東京都","city":"千代田区","town":"六番町","prefecture_code":13},"8610":{"zip_code":"1028610","prefecture":"東京都","city":"千代田区","town":"平河町","prefecture_code":13},"8645":{"zip_code":"1028645","prefecture":"東京都","city":"千代田区","town":"平河町","prefecture_code":13},"8125":{"zip_code":"1028125","prefecture":"東京都","city":"千代田区","town":"飯田橋","prefecture_code":13},"8120":{"zip_code":"1028120","prefecture":"東京都","city":"千代田区","town":"飯田橋","prefecture_code":13},"8630":{"zip_code":"1028630","prefecture":"東京都","city":"千代田区","town":"平河町","prefecture_code":13},"8575":{"zip_code":"1028575","prefecture":"東京都","city":"千代田区","town":"九段北","prefecture_code":13},"8016":{"zip_code":"1028016","prefecture":"東京都","city":"千代田区","town":"富士見","prefecture_code":13},"8635":{"zip_code":"1028635","prefecture":"東京都","city":"千代田区","town":"平河町","prefecture_code":13},"8532":{"zip_code":"1028532","prefecture":"東京都","city":"千代田区","town":"麹町","prefecture_code":13},"8464":{"zip_code":"1028464","prefecture":"東京都","city":"千代田区","town":"六番町","prefecture_code":13},"8795":{"zip_code":"1028795","prefecture":"東京都","city":"千代田区","town":"九段南","prefecture_code":13},"8170":{"zip_code":"1028170","prefecture":"東京都","city":"千代田区","town":"富士見","prefecture_code":13},"8430":{"zip_code":"1028430","prefecture":"東京都","city":"千代田区","town":"二番町","prefecture_code":13},"8175":{"zip_code":"1028175","prefecture":"東京都","city":"千代田区","town":"富士見","prefecture_code":13},"8424":{"zip_code":"1028424","prefecture":"東京都","city":"千代田区","town":"飯田橋","prefecture_code":13},"8018":{"zip_code":"1028018","prefecture":"東京都","city":"千代田区","town":"三番町","prefecture_code":13},"8112":{"zip_code":"1028112","prefecture":"東京都","city":"千代田区","town":"飯田橋","prefecture_code":13},"8419":{"zip_code":"1028419","prefecture":"東京都","city":"千代田区","town":"一番町","prefecture_code":13},"8601":{"zip_code":"1028601","prefecture":"東京都","city":"千代田区","town":"平河町","prefecture_code":13},"8085":{"zip_code":"1028085","prefecture":"東京都","city":"千代田区","town":"九段南","prefecture_code":13},"8421":{"zip_code":"1028421","prefecture":"東京都","city":"千代田区","town":"二番町","prefecture_code":13},"8451":{"zip_code":"1028451","prefecture":"東京都","city":"千代田区","town":"四番町","prefecture_code":13},"8122":{"zip_code":"1028122","prefecture":"東京都","city":"千代田区","town":"飯田橋","prefecture_code":13},"8382":{"zip_code":"1028382","prefecture":"東京都","city":"千代田区","town":"一番町","prefecture_code":13},"8161":{"zip_code":"1028161","prefecture":"東京都","city":"千代田区","town":"富士見","prefecture_code":13},"8322":{"zip_code":"1028322","prefecture":"東京都","city":"千代田区","town":"北の丸公園","prefecture_code":13},"8265":{"zip_code":"1028265","prefecture":"東京都","city":"千代田区","town":"九段南","prefecture_code":13},"8798":{"zip_code":"1028798","prefecture":"東京都","city":"千代田区","town":"富士見","prefecture_code":13},"8225":{"zip_code":"1028225","prefecture":"東京都","city":"千代田区","town":"九段南","prefecture_code":13},"8226":{"zip_code":"1028226","prefecture":"東京都","city":"千代田区","town":"九段南","prefecture_code":13},"8362":{"zip_code":"1028362","prefecture":"東京都","city":"千代田区","town":"四番町","prefecture_code":13},"8447":{"zip_code":"1028447","prefecture":"東京都","city":"千代田区","town":"四番町","prefecture_code":13},"8182":{"zip_code":"1028182","prefecture":"東京都","city":"千代田区","town":"九段北","prefecture_code":13},"8131":{"zip_code":"1028131","prefecture":"東京都","city":"千代田区","town":"富士見","prefecture_code":13},"8332":{"zip_code":"1028332","prefecture":"東京都","city":"千代田区","town":"三番町","prefecture_code":13},"8484":{"zip_code":"1028484","prefecture":"東京都","city":"千代田区","town":"麹町","prefecture_code":13},"8666":{"zip_code":"1028666","prefecture":"東京都","city":"千代田区","town":"四番町","prefecture_code":13},"8118":{"zip_code":"1028118","prefecture":"東京都","city":"千代田区","town":"九段北","prefecture_code":13},"8222":{"zip_code":"1028222","prefecture":"東京都","city":"千代田区","town":"九段北","prefecture_code":13},"8489":{"zip_code":"1028489","prefecture":"東京都","city":"千代田区","town":"麹町","prefecture_code":13},"8123":{"zip_code":"1028123","prefecture":"東京都","city":"千代田区","town":"飯田橋","prefecture_code":13},"8172":{"zip_code":"1028172","prefecture":"東京都","city":"千代田区","town":"富士見","prefecture_code":13},"8656":{"zip_code":"1028656","prefecture":"東京都","city":"千代田区","town":"隼町","prefecture_code":13},"8539":{"zip_code":"1028539","prefecture":"東京都","city":"千代田区","town":"九段北","prefecture_code":13},"8264":{"zip_code":"1028264","prefecture":"東京都","city":"千代田区","town":"九段南","prefecture_code":13},"8188":{"zip_code":"1028188","prefecture":"東京都","city":"千代田区","town":"九段北","prefecture_code":13},"8005":{"zip_code":"1028005","prefecture":"東京都","city":"千代田区","town":"九段南","prefecture_code":13},"8275":{"zip_code":"1028275","prefecture":"東京都","city":"千代田区","town":"九段南","prefecture_code":13},"8251":{"zip_code":"1028251","prefecture":"東京都","city":"千代田区","town":"五番町","prefecture_code":13},"8218":{"zip_code":"1028218","prefecture":"東京都","city":"千代田区","town":"九段北","prefecture_code":13},"8272":{"zip_code":"1028272","prefecture":"東京都","city":"千代田区","town":"九段南","prefecture_code":13},"8626":{"zip_code":"1028626","prefecture":"東京都","city":"千代田区","town":"九段南","prefecture_code":13},"8050":{"zip_code":"1028050","prefecture":"東京都","city":"千代田区","town":"紀尾井町","prefecture_code":13},"8277":{"zip_code":"1028277","prefecture":"東京都","city":"千代田区","town":"九段南","prefecture_code":13},"8631":{"zip_code":"1028631","prefecture":"東京都","city":"千代田区","town":"平河町","prefecture_code":13},"8560":{"zip_code":"1028560","prefecture":"東京都","city":"千代田区","town":"紀尾井町","prefecture_code":13},"8468":{"zip_code":"1028468","prefecture":"東京都","city":"千代田区","town":"六番町","prefecture_code":13},"8667":{"zip_code":"1028667","prefecture":"東京都","city":"千代田区","town":"九段北","prefecture_code":13},"8655":{"zip_code":"1028655","prefecture":"東京都","city":"千代田区","town":"平河町","prefecture_code":13},"8570":{"zip_code":"1028570","prefecture":"東京都","city":"千代田区","town":"紀尾井町","prefecture_code":13},"8171":{"zip_code":"1028171","prefecture":"東京都","city":"千代田区","town":"富士見","prefecture_code":13},"8402":{"zip_code":"1028402","prefecture":"東京都","city":"千代田区","town":"一番町","prefecture_code":13},"8373":{"zip_code":"1028373","prefecture":"東京都","city":"千代田区","town":"一番町","prefecture_code":13},"8255":{"zip_code":"1028255","prefecture":"東京都","city":"千代田区","town":"九段南","prefecture_code":13},"8543":{"zip_code":"1028543","prefecture":"東京都","city":"千代田区","town":"紀尾井町","prefecture_code":13},"8632":{"zip_code":"1028632","prefecture":"東京都","city":"千代田区","town":"九段南","prefecture_code":13},"8015":{"zip_code":"1028015","prefecture":"東京都","city":"千代田区","town":"一番町","prefecture_code":13},"8477":{"zip_code":"1028477","prefecture":"東京都","city":"千代田区","town":"麹町","prefecture_code":13},"8160":{"zip_code":"1028160","prefecture":"東京都","city":"千代田区","town":"富士見","prefecture_code":13},"8240":{"zip_code":"1028240","prefecture":"東京都","city":"千代田区","town":"九段北","prefecture_code":13},"8445":{"zip_code":"1028445","prefecture":"東京都","city":"千代田区","town":"富士見","prefecture_code":13},"8132":{"zip_code":"1028132","prefecture":"東京都","city":"千代田区","town":"富士見","prefecture_code":13},"8215":{"zip_code":"1028215","prefecture":"東京都","city":"千代田区","town":"九段北","prefecture_code":13},"8151":{"zip_code":"1028151","prefecture":"東京都","city":"千代田区","town":"富士見","prefecture_code":13},"8529":{"zip_code":"1028529","prefecture":"東京都","city":"千代田区","town":"麹町","prefecture_code":13},"8516":{"zip_code":"1028516","prefecture":"東京都","city":"千代田区","town":"麹町","prefecture_code":13},"8030":{"zip_code":"1028030","prefecture":"東京都","city":"千代田区","town":"麹町","prefecture_code":13},"8314":{"zip_code":"1028314","prefecture":"東京都","city":"千代田区","town":"九段南","prefecture_code":13},"8250":{"zip_code":"1028250","prefecture":"東京都","city":"千代田区","town":"九段北","prefecture_code":13},"8176":{"zip_code":"1028176","prefecture":"東京都","city":"千代田区","town":"富士見","prefecture_code":13},"8404":{"zip_code":"1028404","prefecture":"東京都","city":"千代田区","town":"九段北","prefecture_code":13},"8557":{"zip_code":"1028557","prefecture":"東京都","city":"千代田区","town":"紀尾井町","prefecture_code":13},"8246":{"zip_code":"1028246","prefecture":"東京都","city":"千代田区","town":"九段北","prefecture_code":13},"8282":{"zip_code":"1028282","prefecture":"東京都","city":"千代田区","town":"紀尾井町","prefecture_code":13},"8236":{"zip_code":"1028236","prefecture":"東京都","city":"千代田区","town":"九段北","prefecture_code":13},"8223":{"zip_code":"1028223","prefecture":"東京都","city":"千代田区","town":"紀尾井町","prefecture_code":13},"8224":{"zip_code":"1028224","prefecture":"東京都","city":"千代田区","town":"紀尾井町","prefecture_code":13},"8012":{"zip_code":"1028012","prefecture":"東京都","city":"千代田区","town":"二番町","prefecture_code":13},"8008":{"zip_code":"1028008","prefecture":"東京都","city":"千代田区","town":"紀尾井町","prefecture_code":13},"8080":{"zip_code":"1028080","prefecture":"東京都","city":"千代田区","town":"麹町","prefecture_code":13},"8083":{"zip_code":"1028083","prefecture":"東京都","city":"千代田区","town":"九段南","prefecture_code":13},"8082":{"zip_code":"1028082","prefecture":"東京都","city":"千代田区","town":"九段南","prefecture_code":13},"8081":{"zip_code":"1028081","prefecture":"東京都","city":"千代田区","town":"九段南","prefecture_code":13},"8677":{"zip_code":"1028677","prefecture":"東京都","city":"千代田区","town":"九段南","prefecture_code":13},"8680":{"zip_code":"1028680","prefecture":"東京都","city":"千代田区","town":"九段北","prefecture_code":13},"8678":{"zip_code":"1028678","prefecture":"東京都","city":"千代田区","town":"一番町","prefecture_code":13},"8689":{"zip_code":"1028689","prefecture":"東京都","city":"千代田区","town":"一番町","prefecture_code":13},"8668":{"zip_code":"1028668","prefecture":"東京都","city":"千代田区","town":"五番町","prefecture_code":13},"8688":{"zip_code":"1028688","prefecture":"東京都","city":"千代田区","town":"九段南","prefecture_code":13}}