{"0044":{"zip_code":"1040044","prefecture":"東京都","prefecture_kana":"トウキョウト","city":"中央区","city_kana":"チュウオウク","town":"明石町","town_kana":"アカシチョウ","prefecture_code":13},"0042":{"zip_code":"1040042","prefecture":"東京都","prefecture_kana":"トウキョウト","city":"中央区","city_kana":"チュウオウク","town":"入船","town_kana":"イリフネ","prefecture_code":13},"0054":{"zip_code":"1040054","prefecture":"東京都","prefecture_kana":"トウキョウト","city":"中央区","city_kana":"チュウオウク","town":"勝どき","town_kana":"カチドキ","prefecture_code":13},"0031":{"zip_code":"1040031","prefecture":"東京都","prefecture_kana":"トウキョウト","city":"中央区","city_kana":"チュウオウク","town":"京橋","town_kana":"キョウバシ","prefecture_code":13},"0061":{"zip_code":"1040061","prefecture":"東京都","prefecture_kana":"トウキョウト","city":"中央区","city_kana":"チュウオウク","town":"銀座","town_kana":"ギンザ","prefecture_code":13},"0033":{"zip_code":"1040033","prefecture":"東京都","prefecture_kana":"トウキョウト","city":"中央区","city_kana":"チュウオウク","town":"新川","town_kana":"シンカワ","prefecture_code":13},"0041":{"zip_code":"1040041","prefecture":"東京都","prefecture_kana":"トウキョウト","city":"中央区","city_kana":"チュウオウク","town":"新富","town_kana":"シントミ","prefecture_code":13},"0052":{"zip_code":"1040052","prefecture":"東京都","prefecture_kana":"トウキョウト","city":"中央区","city_kana":"チュウオウク","town":"月島","town_kana":"ツキシマ","prefecture_code":13},"0045":{"zip_code":"1040045","prefecture":"東京都","prefecture_kana":"トウキョウト","city":"中央区","city_kana":"チュウオウク","town":"築地","town_kana":"ツキジ","prefecture_code":13},"0051":{"zip_code":"1040051","prefecture":"東京都","prefecture_kana":"トウキョウト","city":"中央区","city_kana":"チュウオウク","town":"佃","town_kana":"ツクダ","prefecture_code":13},"0055":{"zip_code":"1040055","prefecture":"東京都","prefecture_kana":"トウキョウト","city":"中央区","city_kana":"チュウオウク","town":"豊海町","town_kana":"トヨミチョウ","prefecture_code":13},"0032":{"zip_code":"1040032","prefecture":"東京都","prefecture_kana":"トウキョウト","city":"中央区","city_kana":"チュウオウク","town":"八丁堀","town_kana":"ハッチョウボリ","prefecture_code":13},"0046":{"zip_code":"1040046","prefecture":"東京都","prefecture_kana":"トウキョウト","city":"中央区","city_kana":"チュウオウク","town":"浜離宮庭園","town_kana":"ハマリキュウテイエン","prefecture_code":13},"0053":{"zip_code":"1040053","prefecture":"東京都","prefecture_kana":"トウキョウト","city":"中央区","city_kana":"チュウオウク","town":"晴海","town_kana":"ハルミ","prefecture_code":13},"6090":{"zip_code":"1046090","prefecture":"東京都","prefecture_kana":"トウキョウト","city":"中央区","city_kana":"チュウオウク","town":"晴海オフィスタワーＸ","town_kana":"ハルミオフィスタワーX","prefecture_code":13},"6001":{"zip_code":"1046001","prefecture":"東京都","prefecture_kana":"トウキョウト","city":"中央区","city_kana":"チュウオウク","town":"晴海オフィスタワーＸ　１階","town_kana":"ハルミオフィスタワーX1カイ","prefecture_code":13},"6002":{"zip_code":"1046002","prefecture":"東京都","prefecture_kana":"トウキョウト","city":"中央区","city_kana":"チュウオウク","town":"晴海オフィスタワーＸ　２階","town_kana":"ハルミオフィスタワーX2カイ","prefecture_code":13},"6003":{"zip_code":"1046003","prefecture":"東京都","prefecture_kana":"トウキョウト","city":"中央区","city_kana":"チュウオウク","town":"晴海オフィスタワーＸ　３階","town_kana":"ハルミオフィスタワーX3カイ","prefecture_code":13},"6004":{"zip_code":"1046004","prefecture":"東京都","prefecture_kana":"トウキョウト","city":"中央区","city_kana":"チュウオウク","town":"晴海オフィスタワーＸ　４階","town_kana":"ハルミオフィスタワーX4カイ","prefecture_code":13},"6005":{"zip_code":"1046005","prefecture":"東京都","prefecture_kana":"トウキョウト","city":"中央区","city_kana":"チュウオウク","town":"晴海オフィスタワーＸ　５階","town_kana":"ハルミオフィスタワーX5カイ","prefecture_code":13},"6006":{"zip_code":"1046006","prefecture":"東京都","prefecture_kana":"トウキョウト","city":"中央区","city_kana":"チュウオウク","town":"晴海オフィスタワーＸ　６階","town_kana":"ハルミオフィスタワーX6カイ","prefecture_code":13},"6007":{"zip_code":"1046007","prefecture":"東京都","prefecture_kana":"トウキョウト","city":"中央区","city_kana":"チュウオウク","town":"晴海オフィスタワーＸ　７階","town_kana":"ハルミオフィスタワーX7カイ","prefecture_code":13},"6008":{"zip_code":"1046008","prefecture":"東京都","prefecture_kana":"トウキョウト","city":"中央区","city_kana":"チュウオウク","town":"晴海オフィスタワーＸ　８階","town_kana":"ハルミオフィスタワーX8カイ","prefecture_code":13},"6009":{"zip_code":"1046009","prefecture":"東京都","prefecture_kana":"トウキョウト","city":"中央区","city_kana":"チュウオウク","town":"晴海オフィスタワーＸ　９階","town_kana":"ハルミオフィスタワーX9カイ","prefecture_code":13},"6010":{"zip_code":"1046010","prefecture":"東京都","prefecture_kana":"トウキョウト","city":"中央区","city_kana":"チュウオウク","town":"晴海オフィスタワーＸ　１０階","town_kana":"ハルミオフィスタワーX10カイ","prefecture_code":13},"6011":{"zip_code":"1046011","prefecture":"東京都","prefecture_kana":"トウキョウト","city":"中央区","city_kana":"チュウオウク","town":"晴海オフィスタワーＸ　１１階","town_kana":"ハルミオフィスタワーX11カイ","prefecture_code":13},"6012":{"zip_code":"1046012","prefecture":"東京都","prefecture_kana":"トウキョウト","city":"中央区","city_kana":"チュウオウク","town":"晴海オフィスタワーＸ　１２階","town_kana":"ハルミオフィスタワーX12カイ","prefecture_code":13},"6013":{"zip_code":"1046013","prefecture":"東京都","prefecture_kana":"トウキョウト","city":"中央区","city_kana":"チュウオウク","town":"晴海オフィスタワーＸ　１３階","town_kana":"ハルミオフィスタワーX13カイ","prefecture_code":13},"6014":{"zip_code":"1046014","prefecture":"東京都","prefecture_kana":"トウキョウト","city":"中央区","city_kana":"チュウオウク","town":"晴海オフィスタワーＸ　１４階","town_kana":"ハルミオフィスタワーX14カイ","prefecture_code":13},"6015":{"zip_code":"1046015","prefecture":"東京都","prefecture_kana":"トウキョウト","city":"中央区","city_kana":"チュウオウク","town":"晴海オフィスタワーＸ　１５階","town_kana":"ハルミオフィスタワーX15カイ","prefecture_code":13},"6016":{"zip_code":"1046016","prefecture":"東京都","prefecture_kana":"トウキョウト","city":"中央区","city_kana":"チュウオウク","town":"晴海オフィスタワーＸ　１６階","town_kana":"ハルミオフィスタワーX16カイ","prefecture_code":13},"6017":{"zip_code":"1046017","prefecture":"東京都","prefecture_kana":"トウキョウト","city":"中央区","city_kana":"チュウオウク","town":"晴海オフィスタワーＸ　１７階","town_kana":"ハルミオフィスタワーX17カイ","prefecture_code":13},"6018":{"zip_code":"1046018","prefecture":"東京都","prefecture_kana":"トウキョウト","city":"中央区","city_kana":"チュウオウク","town":"晴海オフィスタワーＸ　１８階","town_kana":"ハルミオフィスタワーX18カイ","prefecture_code":13},"6019":{"zip_code":"1046019","prefecture":"東京都","prefecture_kana":"トウキョウト","city":"中央区","city_kana":"チュウオウク","town":"晴海オフィスタワーＸ　１９階","town_kana":"ハルミオフィスタワーX19カイ","prefecture_code":13},"6020":{"zip_code":"1046020","prefecture":"東京都","prefecture_kana":"トウキョウト","city":"中央区","city_kana":"チュウオウク","town":"晴海オフィスタワーＸ　２０階","town_kana":"ハルミオフィスタワーX20カイ","prefecture_code":13},"6021":{"zip_code":"1046021","prefecture":"東京都","prefecture_kana":"トウキョウト","city":"中央区","city_kana":"チュウオウク","town":"晴海オフィスタワーＸ　２１階","town_kana":"ハルミオフィスタワーX21カイ","prefecture_code":13},"6022":{"zip_code":"1046022","prefecture":"東京都","prefecture_kana":"トウキョウト","city":"中央区","city_kana":"チュウオウク","town":"晴海オフィスタワーＸ　２２階","town_kana":"ハルミオフィスタワーX22カイ","prefecture_code":13},"6023":{"zip_code":"1046023","prefecture":"東京都","prefecture_kana":"トウキョウト","city":"中央区","city_kana":"チュウオウク","town":"晴海オフィスタワーＸ　２３階","town_kana":"ハルミオフィスタワーX23カイ","prefecture_code":13},"6024":{"zip_code":"1046024","prefecture":"東京都","prefecture_kana":"トウキョウト","city":"中央区","city_kana":"チュウオウク","town":"晴海オフィスタワーＸ　２４階","town_kana":"ハルミオフィスタワーX24カイ","prefecture_code":13},"6025":{"zip_code":"1046025","prefecture":"東京都","prefecture_kana":"トウキョウト","city":"中央区","city_kana":"チュウオウク","town":"晴海オフィスタワーＸ　２５階","town_kana":"ハルミオフィスタワーX25カイ","prefecture_code":13},"6026":{"zip_code":"1046026","prefecture":"東京都","prefecture_kana":"トウキョウト","city":"中央区","city_kana":"チュウオウク","town":"晴海オフィスタワーＸ　２６階","town_kana":"ハルミオフィスタワーX26カイ","prefecture_code":13},"6027":{"zip_code":"1046027","prefecture":"東京都","prefecture_kana":"トウキョウト","city":"中央区","city_kana":"チュウオウク","town":"晴海オフィスタワーＸ　２７階","town_kana":"ハルミオフィスタワーX27カイ","prefecture_code":13},"6028":{"zip_code":"1046028","prefecture":"東京都","prefecture_kana":"トウキョウト","city":"中央区","city_kana":"チュウオウク","town":"晴海オフィスタワーＸ　２８階","town_kana":"ハルミオフィスタワーX28カイ","prefecture_code":13},"6029":{"zip_code":"1046029","prefecture":"東京都","prefecture_kana":"トウキョウト","city":"中央区","city_kana":"チュウオウク","town":"晴海オフィスタワーＸ　２９階","town_kana":"ハルミオフィスタワーX29カイ","prefecture_code":13},"6030":{"zip_code":"1046030","prefecture":"東京都","prefecture_kana":"トウキョウト","city":"中央区","city_kana":"チュウオウク","town":"晴海オフィスタワーＸ　３０階","town_kana":"ハルミオフィスタワーX30カイ","prefecture_code":13},"6031":{"zip_code":"1046031","prefecture":"東京都","prefecture_kana":"トウキョウト","city":"中央区","city_kana":"チュウオウク","town":"晴海オフィスタワーＸ　３１階","town_kana":"ハルミオフィスタワーX31カイ","prefecture_code":13},"6032":{"zip_code":"1046032","prefecture":"東京都","prefecture_kana":"トウキョウト","city":"中央区","city_kana":"チュウオウク","town":"晴海オフィスタワーＸ　３２階","town_kana":"ハルミオフィスタワーX32カイ","prefecture_code":13},"6033":{"zip_code":"1046033","prefecture":"東京都","prefecture_kana":"トウキョウト","city":"中央区","city_kana":"チュウオウク","town":"晴海オフィスタワーＸ　３３階","town_kana":"ハルミオフィスタワーX33カイ","prefecture_code":13},"6034":{"zip_code":"1046034","prefecture":"東京都","prefecture_kana":"トウキョウト","city":"中央区","city_kana":"チュウオウク","town":"晴海オフィスタワーＸ　３４階","town_kana":"ハルミオフィスタワーX34カイ","prefecture_code":13},"6035":{"zip_code":"1046035","prefecture":"東京都","prefecture_kana":"トウキョウト","city":"中央区","city_kana":"チュウオウク","town":"晴海オフィスタワーＸ　３５階","town_kana":"ハルミオフィスタワーX35カイ","prefecture_code":13},"6036":{"zip_code":"1046036","prefecture":"東京都","prefecture_kana":"トウキョウト","city":"中央区","city_kana":"チュウオウク","town":"晴海オフィスタワーＸ　３６階","town_kana":"ハルミオフィスタワーX36カイ","prefecture_code":13},"6037":{"zip_code":"1046037","prefecture":"東京都","prefecture_kana":"トウキョウト","city":"中央区","city_kana":"チュウオウク","town":"晴海オフィスタワーＸ　３７階","town_kana":"ハルミオフィスタワーX37カイ","prefecture_code":13},"6038":{"zip_code":"1046038","prefecture":"東京都","prefecture_kana":"トウキョウト","city":"中央区","city_kana":"チュウオウク","town":"晴海オフィスタワーＸ　３８階","town_kana":"ハルミオフィスタワーX38カイ","prefecture_code":13},"6039":{"zip_code":"1046039","prefecture":"東京都","prefecture_kana":"トウキョウト","city":"中央区","city_kana":"チュウオウク","town":"晴海オフィスタワーＸ　３９階","town_kana":"ハルミオフィスタワーX39カイ","prefecture_code":13},"6040":{"zip_code":"1046040","prefecture":"東京都","prefecture_kana":"トウキョウト","city":"中央区","city_kana":"チュウオウク","town":"晴海オフィスタワーＸ　４０階","town_kana":"ハルミオフィスタワーX40カイ","prefecture_code":13},"6041":{"zip_code":"1046041","prefecture":"東京都","prefecture_kana":"トウキョウト","city":"中央区","city_kana":"チュウオウク","town":"晴海オフィスタワーＸ　４１階","town_kana":"ハルミオフィスタワーX41カイ","prefecture_code":13},"6042":{"zip_code":"1046042","prefecture":"東京都","prefecture_kana":"トウキョウト","city":"中央区","city_kana":"チュウオウク","town":"晴海オフィスタワーＸ　４２階","town_kana":"ハルミオフィスタワーX42カイ","prefecture_code":13},"6043":{"zip_code":"1046043","prefecture":"東京都","prefecture_kana":"トウキョウト","city":"中央区","city_kana":"チュウオウク","town":"晴海オフィスタワーＸ　４３階","town_kana":"ハルミオフィスタワーX43カイ","prefecture_code":13},"6044":{"zip_code":"1046044","prefecture":"東京都","prefecture_kana":"トウキョウト","city":"中央区","city_kana":"チュウオウク","town":"晴海オフィスタワーＸ　４４階","town_kana":"ハルミオフィスタワーX44カイ","prefecture_code":13},"6190":{"zip_code":"1046190","prefecture":"東京都","prefecture_kana":"トウキョウト","city":"中央区","city_kana":"チュウオウク","town":"晴海オフィスタワーＹ","town_kana":"ハルミオフィスタワーY","prefecture_code":13},"6101":{"zip_code":"1046101","prefecture":"東京都","prefecture_kana":"トウキョウト","city":"中央区","city_kana":"チュウオウク","town":"晴海オフィスタワーＹ　１階","town_kana":"ハルミオフィスタワーY1カイ","prefecture_code":13},"6102":{"zip_code":"1046102","prefecture":"東京都","prefecture_kana":"トウキョウト","city":"中央区","city_kana":"チュウオウク","town":"晴海オフィスタワーＹ　２階","town_kana":"ハルミオフィスタワーY2カイ","prefecture_code":13},"6103":{"zip_code":"1046103","prefecture":"東京都","prefecture_kana":"トウキョウト","city":"中央区","city_kana":"チュウオウク","town":"晴海オフィスタワーＹ　３階","town_kana":"ハルミオフィスタワーY3カイ","prefecture_code":13},"6104":{"zip_code":"1046104","prefecture":"東京都","prefecture_kana":"トウキョウト","city":"中央区","city_kana":"チュウオウク","town":"晴海オフィスタワーＹ　４階","town_kana":"ハルミオフィスタワーY4カイ","prefecture_code":13},"6105":{"zip_code":"1046105","prefecture":"東京都","prefecture_kana":"トウキョウト","city":"中央区","city_kana":"チュウオウク","town":"晴海オフィスタワーＹ　５階","town_kana":"ハルミオフィスタワーY5カイ","prefecture_code":13},"6106":{"zip_code":"1046106","prefecture":"東京都","prefecture_kana":"トウキョウト","city":"中央区","city_kana":"チュウオウク","town":"晴海オフィスタワーＹ　６階","town_kana":"ハルミオフィスタワーY6カイ","prefecture_code":13},"6107":{"zip_code":"1046107","prefecture":"東京都","prefecture_kana":"トウキョウト","city":"中央区","city_kana":"チュウオウク","town":"晴海オフィスタワーＹ　７階","town_kana":"ハルミオフィスタワーY7カイ","prefecture_code":13},"6108":{"zip_code":"1046108","prefecture":"東京都","prefecture_kana":"トウキョウト","city":"中央区","city_kana":"チュウオウク","town":"晴海オフィスタワーＹ　８階","town_kana":"ハルミオフィスタワーY8カイ","prefecture_code":13},"6109":{"zip_code":"1046109","prefecture":"東京都","prefecture_kana":"トウキョウト","city":"中央区","city_kana":"チュウオウク","town":"晴海オフィスタワーＹ　９階","town_kana":"ハルミオフィスタワーY9カイ","prefecture_code":13},"6110":{"zip_code":"1046110","prefecture":"東京都","prefecture_kana":"トウキョウト","city":"中央区","city_kana":"チュウオウク","town":"晴海オフィスタワーＹ　１０階","town_kana":"ハルミオフィスタワーY10カイ","prefecture_code":13},"6111":{"zip_code":"1046111","prefecture":"東京都","prefecture_kana":"トウキョウト","city":"中央区","city_kana":"チュウオウク","town":"晴海オフィスタワーＹ　１１階","town_kana":"ハルミオフィスタワーY11カイ","prefecture_code":13},"6112":{"zip_code":"1046112","prefecture":"東京都","prefecture_kana":"トウキョウト","city":"中央区","city_kana":"チュウオウク","town":"晴海オフィスタワーＹ　１２階","town_kana":"ハルミオフィスタワーY12カイ","prefecture_code":13},"6113":{"zip_code":"1046113","prefecture":"東京都","prefecture_kana":"トウキョウト","city":"中央区","city_kana":"チュウオウク","town":"晴海オフィスタワーＹ　１３階","town_kana":"ハルミオフィスタワーY13カイ","prefecture_code":13},"6114":{"zip_code":"1046114","prefecture":"東京都","prefecture_kana":"トウキョウト","city":"中央区","city_kana":"チュウオウク","town":"晴海オフィスタワーＹ　１４階","town_kana":"ハルミオフィスタワーY14カイ","prefecture_code":13},"6115":{"zip_code":"1046115","prefecture":"東京都","prefecture_kana":"トウキョウト","city":"中央区","city_kana":"チュウオウク","town":"晴海オフィスタワーＹ　１５階","town_kana":"ハルミオフィスタワーY15カイ","prefecture_code":13},"6116":{"zip_code":"1046116","prefecture":"東京都","prefecture_kana":"トウキョウト","city":"中央区","city_kana":"チュウオウク","town":"晴海オフィスタワーＹ　１６階","town_kana":"ハルミオフィスタワーY16カイ","prefecture_code":13},"6117":{"zip_code":"1046117","prefecture":"東京都","prefecture_kana":"トウキョウト","city":"中央区","city_kana":"チュウオウク","town":"晴海オフィスタワーＹ　１７階","town_kana":"ハルミオフィスタワーY17カイ","prefecture_code":13},"6118":{"zip_code":"1046118","prefecture":"東京都","prefecture_kana":"トウキョウト","city":"中央区","city_kana":"チュウオウク","town":"晴海オフィスタワーＹ　１８階","town_kana":"ハルミオフィスタワーY18カイ","prefecture_code":13},"6119":{"zip_code":"1046119","prefecture":"東京都","prefecture_kana":"トウキョウト","city":"中央区","city_kana":"チュウオウク","town":"晴海オフィスタワーＹ　１９階","town_kana":"ハルミオフィスタワーY19カイ","prefecture_code":13},"6120":{"zip_code":"1046120","prefecture":"東京都","prefecture_kana":"トウキョウト","city":"中央区","city_kana":"チュウオウク","town":"晴海オフィスタワーＹ　２０階","town_kana":"ハルミオフィスタワーY20カイ","prefecture_code":13},"6121":{"zip_code":"1046121","prefecture":"東京都","prefecture_kana":"トウキョウト","city":"中央区","city_kana":"チュウオウク","town":"晴海オフィスタワーＹ　２１階","town_kana":"ハルミオフィスタワーY21カイ","prefecture_code":13},"6122":{"zip_code":"1046122","prefecture":"東京都","prefecture_kana":"トウキョウト","city":"中央区","city_kana":"チュウオウク","town":"晴海オフィスタワーＹ　２２階","town_kana":"ハルミオフィスタワーY22カイ","prefecture_code":13},"6123":{"zip_code":"1046123","prefecture":"東京都","prefecture_kana":"トウキョウト","city":"中央区","city_kana":"チュウオウク","town":"晴海オフィスタワーＹ　２３階","town_kana":"ハルミオフィスタワーY23カイ","prefecture_code":13},"6124":{"zip_code":"1046124","prefecture":"東京都","prefecture_kana":"トウキョウト","city":"中央区","city_kana":"チュウオウク","town":"晴海オフィスタワーＹ　２４階","town_kana":"ハルミオフィスタワーY24カイ","prefecture_code":13},"6125":{"zip_code":"1046125","prefecture":"東京都","prefecture_kana":"トウキョウト","city":"中央区","city_kana":"チュウオウク","town":"晴海オフィスタワーＹ　２５階","town_kana":"ハルミオフィスタワーY25カイ","prefecture_code":13},"6126":{"zip_code":"1046126","prefecture":"東京都","prefecture_kana":"トウキョウト","city":"中央区","city_kana":"チュウオウク","town":"晴海オフィスタワーＹ　２６階","town_kana":"ハルミオフィスタワーY26カイ","prefecture_code":13},"6127":{"zip_code":"1046127","prefecture":"東京都","prefecture_kana":"トウキョウト","city":"中央区","city_kana":"チュウオウク","town":"晴海オフィスタワーＹ　２７階","town_kana":"ハルミオフィスタワーY27カイ","prefecture_code":13},"6128":{"zip_code":"1046128","prefecture":"東京都","prefecture_kana":"トウキョウト","city":"中央区","city_kana":"チュウオウク","town":"晴海オフィスタワーＹ　２８階","town_kana":"ハルミオフィスタワーY28カイ","prefecture_code":13},"6129":{"zip_code":"1046129","prefecture":"東京都","prefecture_kana":"トウキョウト","city":"中央区","city_kana":"チュウオウク","town":"晴海オフィスタワーＹ　２９階","town_kana":"ハルミオフィスタワーY29カイ","prefecture_code":13},"6130":{"zip_code":"1046130","prefecture":"東京都","prefecture_kana":"トウキョウト","city":"中央区","city_kana":"チュウオウク","town":"晴海オフィスタワーＹ　３０階","town_kana":"ハルミオフィスタワーY30カイ","prefecture_code":13},"6131":{"zip_code":"1046131","prefecture":"東京都","prefecture_kana":"トウキョウト","city":"中央区","city_kana":"チュウオウク","town":"晴海オフィスタワーＹ　３１階","town_kana":"ハルミオフィスタワーY31カイ","prefecture_code":13},"6132":{"zip_code":"1046132","prefecture":"東京都","prefecture_kana":"トウキョウト","city":"中央区","city_kana":"チュウオウク","town":"晴海オフィスタワーＹ　３２階","town_kana":"ハルミオフィスタワーY32カイ","prefecture_code":13},"6133":{"zip_code":"1046133","prefecture":"東京都","prefecture_kana":"トウキョウト","city":"中央区","city_kana":"チュウオウク","town":"晴海オフィスタワーＹ　３３階","town_kana":"ハルミオフィスタワーY33カイ","prefecture_code":13},"6134":{"zip_code":"1046134","prefecture":"東京都","prefecture_kana":"トウキョウト","city":"中央区","city_kana":"チュウオウク","town":"晴海オフィスタワーＹ　３４階","town_kana":"ハルミオフィスタワーY34カイ","prefecture_code":13},"6135":{"zip_code":"1046135","prefecture":"東京都","prefecture_kana":"トウキョウト","city":"中央区","city_kana":"チュウオウク","town":"晴海オフィスタワーＹ　３５階","town_kana":"ハルミオフィスタワーY35カイ","prefecture_code":13},"6136":{"zip_code":"1046136","prefecture":"東京都","prefecture_kana":"トウキョウト","city":"中央区","city_kana":"チュウオウク","town":"晴海オフィスタワーＹ　３６階","town_kana":"ハルミオフィスタワーY36カイ","prefecture_code":13},"6137":{"zip_code":"1046137","prefecture":"東京都","prefecture_kana":"トウキョウト","city":"中央区","city_kana":"チュウオウク","town":"晴海オフィスタワーＹ　３７階","town_kana":"ハルミオフィスタワーY37カイ","prefecture_code":13},"6138":{"zip_code":"1046138","prefecture":"東京都","prefecture_kana":"トウキョウト","city":"中央区","city_kana":"チュウオウク","town":"晴海オフィスタワーＹ　３８階","town_kana":"ハルミオフィスタワーY38カイ","prefecture_code":13},"6139":{"zip_code":"1046139","prefecture":"東京都","prefecture_kana":"トウキョウト","city":"中央区","city_kana":"チュウオウク","town":"晴海オフィスタワーＹ　３９階","town_kana":"ハルミオフィスタワーY39カイ","prefecture_code":13},"6290":{"zip_code":"1046290","prefecture":"東京都","prefecture_kana":"トウキョウト","city":"中央区","city_kana":"チュウオウク","town":"晴海オフィスタワーＺ","town_kana":"ハルミオフィスタワーZ","prefecture_code":13},"6201":{"zip_code":"1046201","prefecture":"東京都","prefecture_kana":"トウキョウト","city":"中央区","city_kana":"チュウオウク","town":"晴海オフィスタワーＺ　１階","town_kana":"ハルミオフィスタワーZ1カイ","prefecture_code":13},"6202":{"zip_code":"1046202","prefecture":"東京都","prefecture_kana":"トウキョウト","city":"中央区","city_kana":"チュウオウク","town":"晴海オフィスタワーＺ　２階","town_kana":"ハルミオフィスタワーZ2カイ","prefecture_code":13},"6203":{"zip_code":"1046203","prefecture":"東京都","prefecture_kana":"トウキョウト","city":"中央区","city_kana":"チュウオウク","town":"晴海オフィスタワーＺ　３階","town_kana":"ハルミオフィスタワーZ3カイ","prefecture_code":13},"6204":{"zip_code":"1046204","prefecture":"東京都","prefecture_kana":"トウキョウト","city":"中央区","city_kana":"チュウオウク","town":"晴海オフィスタワーＺ　４階","town_kana":"ハルミオフィスタワーZ4カイ","prefecture_code":13},"6205":{"zip_code":"1046205","prefecture":"東京都","prefecture_kana":"トウキョウト","city":"中央区","city_kana":"チュウオウク","town":"晴海オフィスタワーＺ　５階","town_kana":"ハルミオフィスタワーZ5カイ","prefecture_code":13},"6206":{"zip_code":"1046206","prefecture":"東京都","prefecture_kana":"トウキョウト","city":"中央区","city_kana":"チュウオウク","town":"晴海オフィスタワーＺ　６階","town_kana":"ハルミオフィスタワーZ6カイ","prefecture_code":13},"6207":{"zip_code":"1046207","prefecture":"東京都","prefecture_kana":"トウキョウト","city":"中央区","city_kana":"チュウオウク","town":"晴海オフィスタワーＺ　７階","town_kana":"ハルミオフィスタワーZ7カイ","prefecture_code":13},"6208":{"zip_code":"1046208","prefecture":"東京都","prefecture_kana":"トウキョウト","city":"中央区","city_kana":"チュウオウク","town":"晴海オフィスタワーＺ　８階","town_kana":"ハルミオフィスタワーZ8カイ","prefecture_code":13},"6209":{"zip_code":"1046209","prefecture":"東京都","prefecture_kana":"トウキョウト","city":"中央区","city_kana":"チュウオウク","town":"晴海オフィスタワーＺ　９階","town_kana":"ハルミオフィスタワーZ9カイ","prefecture_code":13},"6210":{"zip_code":"1046210","prefecture":"東京都","prefecture_kana":"トウキョウト","city":"中央区","city_kana":"チュウオウク","town":"晴海オフィスタワーＺ　１０階","town_kana":"ハルミオフィスタワーZ10カイ","prefecture_code":13},"6211":{"zip_code":"1046211","prefecture":"東京都","prefecture_kana":"トウキョウト","city":"中央区","city_kana":"チュウオウク","town":"晴海オフィスタワーＺ　１１階","town_kana":"ハルミオフィスタワーZ11カイ","prefecture_code":13},"6212":{"zip_code":"1046212","prefecture":"東京都","prefecture_kana":"トウキョウト","city":"中央区","city_kana":"チュウオウク","town":"晴海オフィスタワーＺ　１２階","town_kana":"ハルミオフィスタワーZ12カイ","prefecture_code":13},"6213":{"zip_code":"1046213","prefecture":"東京都","prefecture_kana":"トウキョウト","city":"中央区","city_kana":"チュウオウク","town":"晴海オフィスタワーＺ　１３階","town_kana":"ハルミオフィスタワーZ13カイ","prefecture_code":13},"6214":{"zip_code":"1046214","prefecture":"東京都","prefecture_kana":"トウキョウト","city":"中央区","city_kana":"チュウオウク","town":"晴海オフィスタワーＺ　１４階","town_kana":"ハルミオフィスタワーZ14カイ","prefecture_code":13},"6215":{"zip_code":"1046215","prefecture":"東京都","prefecture_kana":"トウキョウト","city":"中央区","city_kana":"チュウオウク","town":"晴海オフィスタワーＺ　１５階","town_kana":"ハルミオフィスタワーZ15カイ","prefecture_code":13},"6216":{"zip_code":"1046216","prefecture":"東京都","prefecture_kana":"トウキョウト","city":"中央区","city_kana":"チュウオウク","town":"晴海オフィスタワーＺ　１６階","town_kana":"ハルミオフィスタワーZ16カイ","prefecture_code":13},"6217":{"zip_code":"1046217","prefecture":"東京都","prefecture_kana":"トウキョウト","city":"中央区","city_kana":"チュウオウク","town":"晴海オフィスタワーＺ　１７階","town_kana":"ハルミオフィスタワーZ17カイ","prefecture_code":13},"6218":{"zip_code":"1046218","prefecture":"東京都","prefecture_kana":"トウキョウト","city":"中央区","city_kana":"チュウオウク","town":"晴海オフィスタワーＺ　１８階","town_kana":"ハルミオフィスタワーZ18カイ","prefecture_code":13},"6219":{"zip_code":"1046219","prefecture":"東京都","prefecture_kana":"トウキョウト","city":"中央区","city_kana":"チュウオウク","town":"晴海オフィスタワーＺ　１９階","town_kana":"ハルミオフィスタワーZ19カイ","prefecture_code":13},"6220":{"zip_code":"1046220","prefecture":"東京都","prefecture_kana":"トウキョウト","city":"中央区","city_kana":"チュウオウク","town":"晴海オフィスタワーＺ　２０階","town_kana":"ハルミオフィスタワーZ20カイ","prefecture_code":13},"6221":{"zip_code":"1046221","prefecture":"東京都","prefecture_kana":"トウキョウト","city":"中央区","city_kana":"チュウオウク","town":"晴海オフィスタワーＺ　２１階","town_kana":"ハルミオフィスタワーZ21カイ","prefecture_code":13},"6222":{"zip_code":"1046222","prefecture":"東京都","prefecture_kana":"トウキョウト","city":"中央区","city_kana":"チュウオウク","town":"晴海オフィスタワーＺ　２２階","town_kana":"ハルミオフィスタワーZ22カイ","prefecture_code":13},"6223":{"zip_code":"1046223","prefecture":"東京都","prefecture_kana":"トウキョウト","city":"中央区","city_kana":"チュウオウク","town":"晴海オフィスタワーＺ　２３階","town_kana":"ハルミオフィスタワーZ23カイ","prefecture_code":13},"6224":{"zip_code":"1046224","prefecture":"東京都","prefecture_kana":"トウキョウト","city":"中央区","city_kana":"チュウオウク","town":"晴海オフィスタワーＺ　２４階","town_kana":"ハルミオフィスタワーZ24カイ","prefecture_code":13},"6225":{"zip_code":"1046225","prefecture":"東京都","prefecture_kana":"トウキョウト","city":"中央区","city_kana":"チュウオウク","town":"晴海オフィスタワーＺ　２５階","town_kana":"ハルミオフィスタワーZ25カイ","prefecture_code":13},"6226":{"zip_code":"1046226","prefecture":"東京都","prefecture_kana":"トウキョウト","city":"中央区","city_kana":"チュウオウク","town":"晴海オフィスタワーＺ　２６階","town_kana":"ハルミオフィスタワーZ26カイ","prefecture_code":13},"6227":{"zip_code":"1046227","prefecture":"東京都","prefecture_kana":"トウキョウト","city":"中央区","city_kana":"チュウオウク","town":"晴海オフィスタワーＺ　２７階","town_kana":"ハルミオフィスタワーZ27カイ","prefecture_code":13},"6228":{"zip_code":"1046228","prefecture":"東京都","prefecture_kana":"トウキョウト","city":"中央区","city_kana":"チュウオウク","town":"晴海オフィスタワーＺ　２８階","town_kana":"ハルミオフィスタワーZ28カイ","prefecture_code":13},"6229":{"zip_code":"1046229","prefecture":"東京都","prefecture_kana":"トウキョウト","city":"中央区","city_kana":"チュウオウク","town":"晴海オフィスタワーＺ　２９階","town_kana":"ハルミオフィスタワーZ29カイ","prefecture_code":13},"6230":{"zip_code":"1046230","prefecture":"東京都","prefecture_kana":"トウキョウト","city":"中央区","city_kana":"チュウオウク","town":"晴海オフィスタワーＺ　３０階","town_kana":"ハルミオフィスタワーZ30カイ","prefecture_code":13},"6231":{"zip_code":"1046231","prefecture":"東京都","prefecture_kana":"トウキョウト","city":"中央区","city_kana":"チュウオウク","town":"晴海オフィスタワーＺ　３１階","town_kana":"ハルミオフィスタワーZ31カイ","prefecture_code":13},"6232":{"zip_code":"1046232","prefecture":"東京都","prefecture_kana":"トウキョウト","city":"中央区","city_kana":"チュウオウク","town":"晴海オフィスタワーＺ　３２階","town_kana":"ハルミオフィスタワーZ32カイ","prefecture_code":13},"6233":{"zip_code":"1046233","prefecture":"東京都","prefecture_kana":"トウキョウト","city":"中央区","city_kana":"チュウオウク","town":"晴海オフィスタワーＺ　３３階","town_kana":"ハルミオフィスタワーZ33カイ","prefecture_code":13},"0043":{"zip_code":"1040043","prefecture":"東京都","prefecture_kana":"トウキョウト","city":"中央区","city_kana":"チュウオウク","town":"湊","town_kana":"ミナト","prefecture_code":13},"0028":{"zip_code":"1040028","prefecture":"東京都","prefecture_kana":"トウキョウト","city":"中央区","city_kana":"チュウオウク","town":"八重洲","town_kana":"ヤエス","prefecture_code":13},"8650":{"zip_code":"1048650","prefecture":"東京都","city":"千代田区","town":"神田小川町","prefecture_code":13},"8660":{"zip_code":"1048660","prefecture":"東京都","city":"千代田区","town":"飯田橋","prefecture_code":13},"8284":{"zip_code":"1048284","prefecture":"東京都","city":"中央区","town":"新川","prefecture_code":13},"8418":{"zip_code":"1048418","prefecture":"東京都","city":"中央区","town":"築地","prefecture_code":13},"8262":{"zip_code":"1048262","prefecture":"東京都","city":"中央区","town":"湊","prefecture_code":13},"8665":{"zip_code":"1048665","prefecture":"東京都","city":"中央区","town":"築地","prefecture_code":13},"8661":{"zip_code":"1048661","prefecture":"東京都","city":"中央区","town":"築地","prefecture_code":13},"8443":{"zip_code":"1048443","prefecture":"東京都","city":"中央区","town":"築地","prefecture_code":13},"8315":{"zip_code":"1048315","prefecture":"東京都","city":"中央区","town":"京橋","prefecture_code":13},"8584":{"zip_code":"1048584","prefecture":"東京都","city":"中央区","town":"八丁堀","prefecture_code":13},"8566":{"zip_code":"1048566","prefecture":"東京都","city":"中央区","town":"湊","prefecture_code":13},"8271":{"zip_code":"1048271","prefecture":"東京都","city":"中央区","town":"新川","prefecture_code":13},"6241":{"zip_code":"1046241","prefecture":"東京都","city":"中央区","town":"晴海","prefecture_code":13},"8174":{"zip_code":"1048174","prefecture":"東京都","city":"中央区","town":"銀座","prefecture_code":13},"8551":{"zip_code":"1048551","prefecture":"東京都","city":"中央区","town":"晴海","prefecture_code":13},"8301":{"zip_code":"1048301","prefecture":"東京都","city":"中央区","town":"京橋","prefecture_code":13},"8528":{"zip_code":"1048528","prefecture":"東京都","city":"中央区","town":"八丁堀","prefecture_code":13},"8319":{"zip_code":"1048319","prefecture":"東京都","city":"中央区","town":"銀座","prefecture_code":13},"8131":{"zip_code":"1048131","prefecture":"東京都","city":"中央区","town":"銀座","prefecture_code":13},"8421":{"zip_code":"1048421","prefecture":"東京都","city":"中央区","town":"明石町","prefecture_code":13},"8543":{"zip_code":"1048543","prefecture":"東京都","city":"中央区","town":"晴海","prefecture_code":13},"8526":{"zip_code":"1048526","prefecture":"東京都","city":"中央区","town":"八丁堀","prefecture_code":13},"8527":{"zip_code":"1048527","prefecture":"東京都","city":"中央区","town":"八丁堀","prefecture_code":13},"8312":{"zip_code":"1048312","prefecture":"東京都","city":"中央区","town":"明石町","prefecture_code":13},"8338":{"zip_code":"1048338","prefecture":"東京都","city":"中央区","town":"京橋","prefecture_code":13},"8135":{"zip_code":"1048135","prefecture":"東京都","city":"中央区","town":"銀座","prefecture_code":13},"8251":{"zip_code":"1048251","prefecture":"東京都","city":"中央区","town":"新富","prefecture_code":13},"8433":{"zip_code":"1048433","prefecture":"東京都","city":"中央区","town":"築地","prefecture_code":13},"8313":{"zip_code":"1048313","prefecture":"東京都","city":"中央区","town":"銀座","prefecture_code":13},"8478":{"zip_code":"1048478","prefecture":"東京都","city":"中央区","town":"八重洲","prefecture_code":13},"8170":{"zip_code":"1048170","prefecture":"東京都","city":"中央区","town":"八重洲","prefecture_code":13},"8282":{"zip_code":"1048282","prefecture":"東京都","city":"中央区","town":"新川","prefecture_code":13},"8189":{"zip_code":"1048189","prefecture":"東京都","city":"中央区","town":"銀座","prefecture_code":13},"8218":{"zip_code":"1048218","prefecture":"東京都","city":"中央区","town":"銀座","prefecture_code":13},"8328":{"zip_code":"1048328","prefecture":"東京都","city":"中央区","town":"京橋","prefecture_code":13},"8139":{"zip_code":"1048139","prefecture":"東京都","city":"中央区","town":"銀座","prefecture_code":13},"8101":{"zip_code":"1048101","prefecture":"東京都","city":"中央区","town":"銀座","prefecture_code":13},"8539":{"zip_code":"1048539","prefecture":"東京都","city":"中央区","town":"晴海","prefecture_code":13},"8168":{"zip_code":"1048168","prefecture":"東京都","city":"中央区","town":"銀座","prefecture_code":13},"8307":{"zip_code":"1048307","prefecture":"東京都","city":"中央区","town":"京橋","prefecture_code":13},"8256":{"zip_code":"1048256","prefecture":"東京都","city":"中央区","town":"新川","prefecture_code":13},"8538":{"zip_code":"1048538","prefecture":"東京都","city":"中央区","town":"晴海","prefecture_code":13},"8536":{"zip_code":"1048536","prefecture":"東京都","city":"中央区","town":"八丁堀","prefecture_code":13},"8440":{"zip_code":"1048440","prefecture":"東京都","city":"中央区","town":"築地","prefecture_code":13},"8568":{"zip_code":"1048568","prefecture":"東京都","city":"中央区","town":"晴海","prefecture_code":13},"8010":{"zip_code":"1048010","prefecture":"東京都","city":"中央区","town":"銀座","prefecture_code":13},"8177":{"zip_code":"1048177","prefecture":"東京都","city":"中央区","town":"築地","prefecture_code":13},"8357":{"zip_code":"1048357","prefecture":"東京都","city":"中央区","town":"京橋","prefecture_code":13},"8178":{"zip_code":"1048178","prefecture":"東京都","city":"中央区","town":"銀座","prefecture_code":13},"8233":{"zip_code":"1048233","prefecture":"東京都","city":"中央区","town":"京橋","prefecture_code":13},"8142":{"zip_code":"1048142","prefecture":"東京都","city":"中央区","town":"銀座","prefecture_code":13},"8266":{"zip_code":"1048266","prefecture":"東京都","city":"中央区","town":"新川","prefecture_code":13},"8138":{"zip_code":"1048138","prefecture":"東京都","city":"中央区","town":"銀座","prefecture_code":13},"8535":{"zip_code":"1048535","prefecture":"東京都","city":"中央区","town":"八丁堀","prefecture_code":13},"8685":{"zip_code":"1048685","prefecture":"東京都","city":"中央区","town":"新富","prefecture_code":13},"8210":{"zip_code":"1048210","prefecture":"東京都","city":"中央区","town":"銀座","prefecture_code":13},"8171":{"zip_code":"1048171","prefecture":"東京都","city":"中央区","town":"銀座","prefecture_code":13},"8161":{"zip_code":"1048161","prefecture":"東京都","city":"中央区","town":"銀座","prefecture_code":13},"8106":{"zip_code":"1048106","prefecture":"東京都","city":"中央区","town":"銀座","prefecture_code":13},"8415":{"zip_code":"1048415","prefecture":"東京都","city":"中央区","town":"銀座","prefecture_code":13},"8004":{"zip_code":"1048004","prefecture":"東京都","city":"中央区","town":"築地","prefecture_code":13},"8183":{"zip_code":"1048183","prefecture":"東京都","city":"中央区","town":"銀座","prefecture_code":13},"8335":{"zip_code":"1048335","prefecture":"東京都","city":"中央区","town":"京橋","prefecture_code":13},"8431":{"zip_code":"1048431","prefecture":"東京都","city":"中央区","town":"築地","prefecture_code":13},"8402":{"zip_code":"1048402","prefecture":"東京都","city":"中央区","town":"築地","prefecture_code":13},"8007":{"zip_code":"1048007","prefecture":"東京都","city":"中央区","town":"新川","prefecture_code":13},"8380":{"zip_code":"1048380","prefecture":"東京都","city":"中央区","town":"京橋","prefecture_code":13},"8176":{"zip_code":"1048176","prefecture":"東京都","city":"中央区","town":"銀座","prefecture_code":13},"8208":{"zip_code":"1048208","prefecture":"東京都","city":"中央区","town":"銀座","prefecture_code":13},"8132":{"zip_code":"1048132","prefecture":"東京都","city":"中央区","town":"銀座","prefecture_code":13},"8304":{"zip_code":"1048304","prefecture":"東京都","city":"中央区","town":"京橋","prefecture_code":13},"8240":{"zip_code":"1048240","prefecture":"東京都","city":"中央区","town":"銀座","prefecture_code":13},"8572":{"zip_code":"1048572","prefecture":"東京都","city":"中央区","town":"晴海","prefecture_code":13},"8215":{"zip_code":"1048215","prefecture":"東京都","city":"中央区","town":"晴海","prefecture_code":13},"8181":{"zip_code":"1048181","prefecture":"東京都","city":"中央区","town":"銀座","prefecture_code":13},"8340":{"zip_code":"1048340","prefecture":"東京都","city":"中央区","town":"京橋","prefecture_code":13},"8104":{"zip_code":"1048104","prefecture":"東京都","city":"中央区","town":"銀座","prefecture_code":13},"8003":{"zip_code":"1048003","prefecture":"東京都","city":"中央区","town":"銀座","prefecture_code":13},"8130":{"zip_code":"1048130","prefecture":"東京都","city":"中央区","town":"銀座","prefecture_code":13},"8145":{"zip_code":"1048145","prefecture":"東京都","city":"中央区","town":"銀座","prefecture_code":13},"8212":{"zip_code":"1048212","prefecture":"東京都","city":"中央区","town":"銀座","prefecture_code":13},"8570":{"zip_code":"1048570","prefecture":"東京都","city":"中央区","town":"豊海町","prefecture_code":13},"8306":{"zip_code":"1048306","prefecture":"東京都","city":"中央区","town":"京橋","prefecture_code":13},"8302":{"zip_code":"1048302","prefecture":"東京都","city":"中央区","town":"京橋","prefecture_code":13},"8488":{"zip_code":"1048488","prefecture":"東京都","city":"中央区","town":"八丁堀","prefecture_code":13},"8456":{"zip_code":"1048456","prefecture":"東京都","city":"中央区","town":"八重洲","prefecture_code":13},"8164":{"zip_code":"1048164","prefecture":"東京都","city":"中央区","town":"銀座","prefecture_code":13},"8325":{"zip_code":"1048325","prefecture":"東京都","city":"中央区","town":"京橋","prefecture_code":13},"8420":{"zip_code":"1048420","prefecture":"東京都","city":"中央区","town":"築地","prefecture_code":13},"8001":{"zip_code":"1048001","prefecture":"東京都","city":"中央区","town":"銀座","prefecture_code":13},"8155":{"zip_code":"1048155","prefecture":"東京都","city":"中央区","town":"銀座","prefecture_code":13},"8222":{"zip_code":"1048222","prefecture":"東京都","city":"中央区","town":"銀座","prefecture_code":13},"8413":{"zip_code":"1048413","prefecture":"東京都","city":"中央区","town":"築地","prefecture_code":13},"8545":{"zip_code":"1048545","prefecture":"東京都","city":"中央区","town":"晴海","prefecture_code":13},"8105":{"zip_code":"1048105","prefecture":"東京都","city":"中央区","town":"銀座","prefecture_code":13},"8102":{"zip_code":"1048102","prefecture":"東京都","city":"中央区","town":"銀座","prefecture_code":13},"8455":{"zip_code":"1048455","prefecture":"東京都","city":"中央区","town":"八重洲","prefecture_code":13},"8116":{"zip_code":"1048116","prefecture":"東京都","city":"中央区","town":"銀座","prefecture_code":13},"8553":{"zip_code":"1048553","prefecture":"東京都","city":"中央区","town":"入船","prefecture_code":13},"8580":{"zip_code":"1048580","prefecture":"東京都","city":"中央区","town":"勝どき","prefecture_code":13},"8451":{"zip_code":"1048451","prefecture":"東京都","city":"中央区","town":"八重洲","prefecture_code":13},"8158":{"zip_code":"1048158","prefecture":"東京都","city":"中央区","town":"銀座","prefecture_code":13},"8206":{"zip_code":"1048206","prefecture":"東京都","city":"中央区","town":"銀座","prefecture_code":13},"8288":{"zip_code":"1048288","prefecture":"東京都","city":"中央区","town":"新川","prefecture_code":13},"8077":{"zip_code":"1048077","prefecture":"東京都","city":"中央区","town":"銀座","prefecture_code":13},"8360":{"zip_code":"1048360","prefecture":"東京都","city":"中央区","town":"京橋","prefecture_code":13},"8111":{"zip_code":"1048111","prefecture":"東京都","city":"中央区","town":"銀座","prefecture_code":13},"8448":{"zip_code":"1048448","prefecture":"東京都","city":"中央区","town":"築地","prefecture_code":13},"8333":{"zip_code":"1048333","prefecture":"東京都","city":"中央区","town":"明石町","prefecture_code":13},"8460":{"zip_code":"1048460","prefecture":"東京都","city":"中央区","town":"八重洲","prefecture_code":13},"8162":{"zip_code":"1048162","prefecture":"東京都","city":"中央区","town":"銀座","prefecture_code":13},"8506":{"zip_code":"1048506","prefecture":"東京都","city":"中央区","town":"明石町","prefecture_code":13},"8587":{"zip_code":"1048587","prefecture":"東京都","city":"中央区","town":"八丁堀","prefecture_code":13},"8560":{"zip_code":"1048560","prefecture":"東京都","city":"中央区","town":"明石町","prefecture_code":13},"8581":{"zip_code":"1048581","prefecture":"東京都","city":"中央区","town":"勝どき","prefecture_code":13},"8321":{"zip_code":"1048321","prefecture":"東京都","city":"中央区","town":"京橋","prefecture_code":13},"8370":{"zip_code":"1048370","prefecture":"東京都","city":"中央区","town":"京橋","prefecture_code":13},"8114":{"zip_code":"1048114","prefecture":"東京都","city":"中央区","town":"銀座","prefecture_code":13},"8450":{"zip_code":"1048450","prefecture":"東京都","city":"中央区","town":"八重洲","prefecture_code":13},"8422":{"zip_code":"1048422","prefecture":"東京都","city":"中央区","town":"築地","prefecture_code":13},"8280":{"zip_code":"1048280","prefecture":"東京都","city":"中央区","town":"新川","prefecture_code":13},"8410":{"zip_code":"1048410","prefecture":"東京都","city":"中央区","town":"築地","prefecture_code":13},"8311":{"zip_code":"1048311","prefecture":"東京都","city":"中央区","town":"京橋","prefecture_code":13},"8188":{"zip_code":"1048188","prefecture":"東京都","city":"中央区","town":"銀座","prefecture_code":13},"8238":{"zip_code":"1048238","prefecture":"東京都","city":"中央区","town":"銀座","prefecture_code":13},"8547":{"zip_code":"1048547","prefecture":"東京都","city":"中央区","town":"晴海","prefecture_code":13},"8260":{"zip_code":"1048260","prefecture":"東京都","city":"中央区","town":"新川","prefecture_code":13},"8548":{"zip_code":"1048548","prefecture":"東京都","city":"中央区","town":"晴海","prefecture_code":13},"8430":{"zip_code":"1048430","prefecture":"東京都","city":"中央区","town":"築地","prefecture_code":13},"8118":{"zip_code":"1048118","prefecture":"東京都","city":"中央区","town":"銀座","prefecture_code":13},"8129":{"zip_code":"1048129","prefecture":"東京都","city":"中央区","town":"銀座","prefecture_code":13},"8110":{"zip_code":"1048110","prefecture":"東京都","city":"中央区","town":"銀座","prefecture_code":13},"8255":{"zip_code":"1048255","prefecture":"東京都","city":"中央区","town":"新川","prefecture_code":13},"8250":{"zip_code":"1048250","prefecture":"東京都","city":"中央区","town":"新川","prefecture_code":13},"8310":{"zip_code":"1048310","prefecture":"東京都","city":"中央区","town":"京橋","prefecture_code":13},"8419":{"zip_code":"1048419","prefecture":"東京都","city":"中央区","town":"築地","prefecture_code":13},"8128":{"zip_code":"1048128","prefecture":"東京都","city":"中央区","town":"京橋","prefecture_code":13},"8109":{"zip_code":"1048109","prefecture":"東京都","city":"中央区","town":"銀座","prefecture_code":13},"8407":{"zip_code":"1048407","prefecture":"東京都","city":"中央区","town":"築地","prefecture_code":13},"8330":{"zip_code":"1048330","prefecture":"東京都","city":"中央区","town":"京橋","prefecture_code":13},"8332":{"zip_code":"1048332","prefecture":"東京都","city":"中央区","town":"京橋","prefecture_code":13},"8344":{"zip_code":"1048344","prefecture":"東京都","city":"中央区","town":"八重洲","prefecture_code":13},"8342":{"zip_code":"1048342","prefecture":"東京都","city":"中央区","town":"八重洲","prefecture_code":13},"8343":{"zip_code":"1048343","prefecture":"東京都","city":"中央区","town":"八重洲","prefecture_code":13},"8341":{"zip_code":"1048341","prefecture":"東京都","city":"中央区","town":"八重洲","prefecture_code":13},"8383":{"zip_code":"1048383","prefecture":"東京都","city":"中央区","town":"京橋","prefecture_code":13},"8518":{"zip_code":"1048518","prefecture":"東京都","city":"中央区","town":"明石町","prefecture_code":13},"8567":{"zip_code":"1048567","prefecture":"東京都","city":"中央区","town":"湊","prefecture_code":13},"8544":{"zip_code":"1048544","prefecture":"東京都","city":"中央区","town":"新富","prefecture_code":13},"8588":{"zip_code":"1048588","prefecture":"東京都","city":"中央区","town":"豊海町","prefecture_code":13},"8468":{"zip_code":"1048468","prefecture":"東京都","city":"中央区","town":"八重洲","prefecture_code":13},"8436":{"zip_code":"1048436","prefecture":"東京都","city":"中央区","town":"築地","prefecture_code":13},"8356":{"zip_code":"1048356","prefecture":"東京都","city":"中央区","town":"京橋","prefecture_code":13},"8289":{"zip_code":"1048289","prefecture":"東京都","city":"中央区","town":"新川","prefecture_code":13},"8117":{"zip_code":"1048117","prefecture":"東京都","city":"中央区","town":"銀座","prefecture_code":13},"8124":{"zip_code":"1048124","prefecture":"東京都","city":"中央区","town":"銀座","prefecture_code":13},"8445":{"zip_code":"1048445","prefecture":"東京都","city":"中央区","town":"築地","prefecture_code":13},"8585":{"zip_code":"1048585","prefecture":"東京都","city":"中央区","town":"月島","prefecture_code":13},"8211":{"zip_code":"1048211","prefecture":"東京都","city":"中央区","town":"銀座","prefecture_code":13},"8115":{"zip_code":"1048115","prefecture":"東京都","city":"中央区","town":"銀座","prefecture_code":13},"8403":{"zip_code":"1048403","prefecture":"東京都","city":"中央区","town":"築地","prefecture_code":13},"8435":{"zip_code":"1048435","prefecture":"東京都","city":"中央区","town":"築地","prefecture_code":13},"8533":{"zip_code":"1048533","prefecture":"東京都","city":"中央区","town":"八丁堀","prefecture_code":13},"8165":{"zip_code":"1048165","prefecture":"東京都","city":"中央区","town":"銀座","prefecture_code":13},"8427":{"zip_code":"1048427","prefecture":"東京都","city":"中央区","town":"築地","prefecture_code":13},"8381":{"zip_code":"1048381","prefecture":"東京都","city":"中央区","town":"京橋","prefecture_code":13},"8379":{"zip_code":"1048379","prefecture":"東京都","city":"中央区","town":"京橋","prefecture_code":13},"8108":{"zip_code":"1048108","prefecture":"東京都","city":"中央区","town":"銀座","prefecture_code":13},"8520":{"zip_code":"1048520","prefecture":"東京都","city":"中央区","town":"八丁堀","prefecture_code":13},"8317":{"zip_code":"1048317","prefecture":"東京都","city":"中央区","town":"新川","prefecture_code":13},"8151":{"zip_code":"1048151","prefecture":"東京都","city":"中央区","town":"銀座","prefecture_code":13},"8405":{"zip_code":"1048405","prefecture":"東京都","city":"中央区","town":"築地","prefecture_code":13},"8449":{"zip_code":"1048449","prefecture":"東京都","city":"中央区","town":"築地","prefecture_code":13},"8470":{"zip_code":"1048470","prefecture":"東京都","city":"中央区","town":"八重洲","prefecture_code":13},"8133":{"zip_code":"1048133","prefecture":"東京都","city":"中央区","town":"銀座","prefecture_code":13},"8404":{"zip_code":"1048404","prefecture":"東京都","city":"中央区","town":"築地","prefecture_code":13},"8558":{"zip_code":"1048558","prefecture":"東京都","city":"中央区","town":"入船","prefecture_code":13},"8434":{"zip_code":"1048434","prefecture":"東京都","city":"中央区","town":"築地","prefecture_code":13},"8378":{"zip_code":"1048378","prefecture":"東京都","city":"中央区","town":"京橋","prefecture_code":13},"8377":{"zip_code":"1048377","prefecture":"東京都","city":"中央区","town":"京橋","prefecture_code":13},"8678":{"zip_code":"1048678","prefecture":"東京都","city":"中央区","town":"八丁堀","prefecture_code":13},"8324":{"zip_code":"1048324","prefecture":"東京都","city":"中央区","town":"京橋","prefecture_code":13},"8345":{"zip_code":"1048345","prefecture":"東京都","city":"中央区","town":"京橋","prefecture_code":13},"8388":{"zip_code":"1048388","prefecture":"東京都","city":"中央区","town":"京橋","prefecture_code":13},"8416":{"zip_code":"1048416","prefecture":"東京都","city":"中央区","town":"築地","prefecture_code":13},"8530":{"zip_code":"1048530","prefecture":"東京都","city":"中央区","town":"入船","prefecture_code":13},"8555":{"zip_code":"1048555","prefecture":"東京都","city":"中央区","town":"八丁堀","prefecture_code":13},"8424":{"zip_code":"1048424","prefecture":"東京都","city":"中央区","town":"築地","prefecture_code":13},"8444":{"zip_code":"1048444","prefecture":"東京都","city":"中央区","town":"築地","prefecture_code":13},"8285":{"zip_code":"1048285","prefecture":"東京都","city":"中央区","town":"新川","prefecture_code":13},"8556":{"zip_code":"1048556","prefecture":"東京都","city":"中央区","town":"明石町","prefecture_code":13},"8406":{"zip_code":"1048406","prefecture":"東京都","city":"中央区","town":"築地","prefecture_code":13},"8167":{"zip_code":"1048167","prefecture":"東京都","city":"中央区","town":"銀座","prefecture_code":13},"8175":{"zip_code":"1048175","prefecture":"東京都","city":"中央区","town":"銀座","prefecture_code":13},"8365":{"zip_code":"1048365","prefecture":"東京都","city":"中央区","town":"京橋","prefecture_code":13},"8656":{"zip_code":"1048656","prefecture":"東京都","city":"中央区","town":"勝どき","prefecture_code":13},"8401":{"zip_code":"1048401","prefecture":"東京都","city":"中央区","town":"八丁堀","prefecture_code":13},"8559":{"zip_code":"1048559","prefecture":"東京都","city":"中央区","town":"勝どき","prefecture_code":13},"8254":{"zip_code":"1048254","prefecture":"東京都","city":"中央区","town":"新川","prefecture_code":13},"8257":{"zip_code":"1048257","prefecture":"東京都","city":"中央区","town":"新川","prefecture_code":13},"8309":{"zip_code":"1048309","prefecture":"東京都","city":"中央区","town":"京橋","prefecture_code":13},"8386":{"zip_code":"1048386","prefecture":"東京都","city":"中央区","town":"京橋","prefecture_code":13},"8423":{"zip_code":"1048423","prefecture":"東京都","city":"中央区","town":"築地","prefecture_code":13},"8531":{"zip_code":"1048531","prefecture":"東京都","city":"中央区","town":"八丁堀","prefecture_code":13},"8303":{"zip_code":"1048303","prefecture":"東京都","city":"中央区","town":"京橋","prefecture_code":13},"8429":{"zip_code":"1048429","prefecture":"東京都","city":"中央区","town":"築地","prefecture_code":13},"8438":{"zip_code":"1048438","prefecture":"東京都","city":"中央区","town":"築地","prefecture_code":13},"8505":{"zip_code":"1048505","prefecture":"東京都","city":"中央区","town":"八丁堀","prefecture_code":13},"8554":{"zip_code":"1048554","prefecture":"東京都","city":"中央区","town":"入船","prefecture_code":13},"8205":{"zip_code":"1048205","prefecture":"東京都","city":"中央区","town":"銀座","prefecture_code":13},"8122":{"zip_code":"1048122","prefecture":"東京都","city":"中央区","town":"銀座","prefecture_code":13},"8523":{"zip_code":"1048523","prefecture":"東京都","city":"中央区","town":"八丁堀","prefecture_code":13},"8521":{"zip_code":"1048521","prefecture":"東京都","city":"中央区","town":"八丁堀","prefecture_code":13},"8563":{"zip_code":"1048563","prefecture":"東京都","city":"中央区","town":"入船","prefecture_code":13},"8351":{"zip_code":"1048351","prefecture":"東京都","city":"中央区","town":"新川","prefecture_code":13},"8281":{"zip_code":"1048281","prefecture":"東京都","city":"中央区","town":"新川","prefecture_code":13},"8447":{"zip_code":"1048447","prefecture":"東京都","city":"中央区","town":"築地","prefecture_code":13},"8502":{"zip_code":"1048502","prefecture":"東京都","city":"中央区","town":"入船","prefecture_code":13},"8481":{"zip_code":"1048481","prefecture":"東京都","city":"中央区","town":"八重洲","prefecture_code":13},"8277":{"zip_code":"1048277","prefecture":"東京都","city":"中央区","town":"八重洲","prefecture_code":13},"8546":{"zip_code":"1048546","prefecture":"東京都","city":"中央区","town":"晴海","prefecture_code":13},"8258":{"zip_code":"1048258","prefecture":"東京都","city":"中央区","town":"新川","prefecture_code":13},"8252":{"zip_code":"1048252","prefecture":"東京都","city":"中央区","town":"新川","prefecture_code":13},"8439":{"zip_code":"1048439","prefecture":"東京都","city":"中央区","town":"築地","prefecture_code":13},"8550":{"zip_code":"1048550","prefecture":"東京都","city":"中央区","town":"晴海","prefecture_code":13},"8372":{"zip_code":"1048372","prefecture":"東京都","city":"中央区","town":"京橋","prefecture_code":13},"8305":{"zip_code":"1048305","prefecture":"東京都","city":"中央区","town":"京橋","prefecture_code":13},"8125":{"zip_code":"1048125","prefecture":"東京都","city":"中央区","town":"銀座","prefecture_code":13},"8486":{"zip_code":"1048486","prefecture":"東京都","city":"中央区","town":"八重洲","prefecture_code":13},"8123":{"zip_code":"1048123","prefecture":"東京都","city":"中央区","town":"銀座","prefecture_code":13},"8512":{"zip_code":"1048512","prefecture":"東京都","city":"中央区","town":"八丁堀","prefecture_code":13},"8501":{"zip_code":"1048501","prefecture":"東京都","city":"中央区","town":"新川","prefecture_code":13},"8134":{"zip_code":"1048134","prefecture":"東京都","city":"中央区","town":"銀座","prefecture_code":13},"8408":{"zip_code":"1048408","prefecture":"東京都","city":"中央区","town":"築地","prefecture_code":13},"8011":{"zip_code":"1048011","prefecture":"東京都","city":"中央区","town":"築地","prefecture_code":13},"8055":{"zip_code":"1048055","prefecture":"東京都","city":"中央区","town":"築地","prefecture_code":13},"8680":{"zip_code":"1048680","prefecture":"東京都","city":"中央区","town":"京橋","prefecture_code":13},"8670":{"zip_code":"1048670","prefecture":"東京都","city":"中央区","town":"銀座","prefecture_code":13},"8668":{"zip_code":"1048668","prefecture":"東京都","city":"中央区","town":"京橋","prefecture_code":13}}