{"0000":{"zip_code":"1050000","prefecture":"東京都","prefecture_kana":"トウキョウト","city":"港区","city_kana":"ミナトク","town":"","town_kana":"","prefecture_code":13},"0002":{"zip_code":"1050002","prefecture":"東京都","prefecture_kana":"トウキョウト","city":"港区","city_kana":"ミナトク","town":"愛宕","town_kana":"アタゴ","prefecture_code":13},"6290":{"zip_code":"1056290","prefecture":"東京都","prefecture_kana":"トウキョウト","city":"港区","city_kana":"ミナトク","town":"愛宕愛宕グリーンヒルズＭＯＲＩタワー","town_kana":"アタゴアタゴグリーンヒルズモリタワー","prefecture_code":13},"6201":{"zip_code":"1056201","prefecture":"東京都","prefecture_kana":"トウキョウト","city":"港区","city_kana":"ミナトク","town":"愛宕愛宕グリーンヒルズＭＯＲＩタワー　１階","town_kana":"アタゴアタゴグリーンヒルズモリタワー1カイ","prefecture_code":13},"6202":{"zip_code":"1056202","prefecture":"東京都","prefecture_kana":"トウキョウト","city":"港区","city_kana":"ミナトク","town":"愛宕愛宕グリーンヒルズＭＯＲＩタワー　２階","town_kana":"アタゴアタゴグリーンヒルズモリタワー2カイ","prefecture_code":13},"6203":{"zip_code":"1056203","prefecture":"東京都","prefecture_kana":"トウキョウト","city":"港区","city_kana":"ミナトク","town":"愛宕愛宕グリーンヒルズＭＯＲＩタワー　３階","town_kana":"アタゴアタゴグリーンヒルズモリタワー3カイ","prefecture_code":13},"6204":{"zip_code":"1056204","prefecture":"東京都","prefecture_kana":"トウキョウト","city":"港区","city_kana":"ミナトク","town":"愛宕愛宕グリーンヒルズＭＯＲＩタワー　４階","town_kana":"アタゴアタゴグリーンヒルズモリタワー4カイ","prefecture_code":13},"6205":{"zip_code":"1056205","prefecture":"東京都","prefecture_kana":"トウキョウト","city":"港区","city_kana":"ミナトク","town":"愛宕愛宕グリーンヒルズＭＯＲＩタワー　５階","town_kana":"アタゴアタゴグリーンヒルズモリタワー5カイ","prefecture_code":13},"6206":{"zip_code":"1056206","prefecture":"東京都","prefecture_kana":"トウキョウト","city":"港区","city_kana":"ミナトク","town":"愛宕愛宕グリーンヒルズＭＯＲＩタワー　６階","town_kana":"アタゴアタゴグリーンヒルズモリタワー6カイ","prefecture_code":13},"6207":{"zip_code":"1056207","prefecture":"東京都","prefecture_kana":"トウキョウト","city":"港区","city_kana":"ミナトク","town":"愛宕愛宕グリーンヒルズＭＯＲＩタワー　７階","town_kana":"アタゴアタゴグリーンヒルズモリタワー7カイ","prefecture_code":13},"6208":{"zip_code":"1056208","prefecture":"東京都","prefecture_kana":"トウキョウト","city":"港区","city_kana":"ミナトク","town":"愛宕愛宕グリーンヒルズＭＯＲＩタワー　８階","town_kana":"アタゴアタゴグリーンヒルズモリタワー8カイ","prefecture_code":13},"6209":{"zip_code":"1056209","prefecture":"東京都","prefecture_kana":"トウキョウト","city":"港区","city_kana":"ミナトク","town":"愛宕愛宕グリーンヒルズＭＯＲＩタワー　９階","town_kana":"アタゴアタゴグリーンヒルズモリタワー9カイ","prefecture_code":13},"6210":{"zip_code":"1056210","prefecture":"東京都","prefecture_kana":"トウキョウト","city":"港区","city_kana":"ミナトク","town":"愛宕愛宕グリーンヒルズＭＯＲＩタワー　１０階","town_kana":"アタゴアタゴグリーンヒルズモリタワー10カイ","prefecture_code":13},"6211":{"zip_code":"1056211","prefecture":"東京都","prefecture_kana":"トウキョウト","city":"港区","city_kana":"ミナトク","town":"愛宕愛宕グリーンヒルズＭＯＲＩタワー　１１階","town_kana":"アタゴアタゴグリーンヒルズモリタワー11カイ","prefecture_code":13},"6212":{"zip_code":"1056212","prefecture":"東京都","prefecture_kana":"トウキョウト","city":"港区","city_kana":"ミナトク","town":"愛宕愛宕グリーンヒルズＭＯＲＩタワー　１２階","town_kana":"アタゴアタゴグリーンヒルズモリタワー12カイ","prefecture_code":13},"6213":{"zip_code":"1056213","prefecture":"東京都","prefecture_kana":"トウキョウト","city":"港区","city_kana":"ミナトク","town":"愛宕愛宕グリーンヒルズＭＯＲＩタワー　１３階","town_kana":"アタゴアタゴグリーンヒルズモリタワー13カイ","prefecture_code":13},"6214":{"zip_code":"1056214","prefecture":"東京都","prefecture_kana":"トウキョウト","city":"港区","city_kana":"ミナトク","town":"愛宕愛宕グリーンヒルズＭＯＲＩタワー　１４階","town_kana":"アタゴアタゴグリーンヒルズモリタワー14カイ","prefecture_code":13},"6215":{"zip_code":"1056215","prefecture":"東京都","prefecture_kana":"トウキョウト","city":"港区","city_kana":"ミナトク","town":"愛宕愛宕グリーンヒルズＭＯＲＩタワー　１５階","town_kana":"アタゴアタゴグリーンヒルズモリタワー15カイ","prefecture_code":13},"6216":{"zip_code":"1056216","prefecture":"東京都","prefecture_kana":"トウキョウト","city":"港区","city_kana":"ミナトク","town":"愛宕愛宕グリーンヒルズＭＯＲＩタワー　１６階","town_kana":"アタゴアタゴグリーンヒルズモリタワー16カイ","prefecture_code":13},"6217":{"zip_code":"1056217","prefecture":"東京都","prefecture_kana":"トウキョウト","city":"港区","city_kana":"ミナトク","town":"愛宕愛宕グリーンヒルズＭＯＲＩタワー　１７階","town_kana":"アタゴアタゴグリーンヒルズモリタワー17カイ","prefecture_code":13},"6218":{"zip_code":"1056218","prefecture":"東京都","prefecture_kana":"トウキョウト","city":"港区","city_kana":"ミナトク","town":"愛宕愛宕グリーンヒルズＭＯＲＩタワー　１８階","town_kana":"アタゴアタゴグリーンヒルズモリタワー18カイ","prefecture_code":13},"6219":{"zip_code":"1056219","prefecture":"東京都","prefecture_kana":"トウキョウト","city":"港区","city_kana":"ミナトク","town":"愛宕愛宕グリーンヒルズＭＯＲＩタワー　１９階","town_kana":"アタゴアタゴグリーンヒルズモリタワー19カイ","prefecture_code":13},"6220":{"zip_code":"1056220","prefecture":"東京都","prefecture_kana":"トウキョウト","city":"港区","city_kana":"ミナトク","town":"愛宕愛宕グリーンヒルズＭＯＲＩタワー　２０階","town_kana":"アタゴアタゴグリーンヒルズモリタワー20カイ","prefecture_code":13},"6221":{"zip_code":"1056221","prefecture":"東京都","prefecture_kana":"トウキョウト","city":"港区","city_kana":"ミナトク","town":"愛宕愛宕グリーンヒルズＭＯＲＩタワー　２１階","town_kana":"アタゴアタゴグリーンヒルズモリタワー21カイ","prefecture_code":13},"6222":{"zip_code":"1056222","prefecture":"東京都","prefecture_kana":"トウキョウト","city":"港区","city_kana":"ミナトク","town":"愛宕愛宕グリーンヒルズＭＯＲＩタワー　２２階","town_kana":"アタゴアタゴグリーンヒルズモリタワー22カイ","prefecture_code":13},"6223":{"zip_code":"1056223","prefecture":"東京都","prefecture_kana":"トウキョウト","city":"港区","city_kana":"ミナトク","town":"愛宕愛宕グリーンヒルズＭＯＲＩタワー　２３階","town_kana":"アタゴアタゴグリーンヒルズモリタワー23カイ","prefecture_code":13},"6224":{"zip_code":"1056224","prefecture":"東京都","prefecture_kana":"トウキョウト","city":"港区","city_kana":"ミナトク","town":"愛宕愛宕グリーンヒルズＭＯＲＩタワー　２４階","town_kana":"アタゴアタゴグリーンヒルズモリタワー24カイ","prefecture_code":13},"6225":{"zip_code":"1056225","prefecture":"東京都","prefecture_kana":"トウキョウト","city":"港区","city_kana":"ミナトク","town":"愛宕愛宕グリーンヒルズＭＯＲＩタワー　２５階","town_kana":"アタゴアタゴグリーンヒルズモリタワー25カイ","prefecture_code":13},"6226":{"zip_code":"1056226","prefecture":"東京都","prefecture_kana":"トウキョウト","city":"港区","city_kana":"ミナトク","town":"愛宕愛宕グリーンヒルズＭＯＲＩタワー　２６階","town_kana":"アタゴアタゴグリーンヒルズモリタワー26カイ","prefecture_code":13},"6227":{"zip_code":"1056227","prefecture":"東京都","prefecture_kana":"トウキョウト","city":"港区","city_kana":"ミナトク","town":"愛宕愛宕グリーンヒルズＭＯＲＩタワー　２７階","town_kana":"アタゴアタゴグリーンヒルズモリタワー27カイ","prefecture_code":13},"6228":{"zip_code":"1056228","prefecture":"東京都","prefecture_kana":"トウキョウト","city":"港区","city_kana":"ミナトク","town":"愛宕愛宕グリーンヒルズＭＯＲＩタワー　２８階","town_kana":"アタゴアタゴグリーンヒルズモリタワー28カイ","prefecture_code":13},"6229":{"zip_code":"1056229","prefecture":"東京都","prefecture_kana":"トウキョウト","city":"港区","city_kana":"ミナトク","town":"愛宕愛宕グリーンヒルズＭＯＲＩタワー　２９階","town_kana":"アタゴアタゴグリーンヒルズモリタワー29カイ","prefecture_code":13},"6230":{"zip_code":"1056230","prefecture":"東京都","prefecture_kana":"トウキョウト","city":"港区","city_kana":"ミナトク","town":"愛宕愛宕グリーンヒルズＭＯＲＩタワー　３０階","town_kana":"アタゴアタゴグリーンヒルズモリタワー30カイ","prefecture_code":13},"6231":{"zip_code":"1056231","prefecture":"東京都","prefecture_kana":"トウキョウト","city":"港区","city_kana":"ミナトク","town":"愛宕愛宕グリーンヒルズＭＯＲＩタワー　３１階","town_kana":"アタゴアタゴグリーンヒルズモリタワー31カイ","prefecture_code":13},"6232":{"zip_code":"1056232","prefecture":"東京都","prefecture_kana":"トウキョウト","city":"港区","city_kana":"ミナトク","town":"愛宕愛宕グリーンヒルズＭＯＲＩタワー　３２階","town_kana":"アタゴアタゴグリーンヒルズモリタワー32カイ","prefecture_code":13},"6233":{"zip_code":"1056233","prefecture":"東京都","prefecture_kana":"トウキョウト","city":"港区","city_kana":"ミナトク","town":"愛宕愛宕グリーンヒルズＭＯＲＩタワー　３３階","town_kana":"アタゴアタゴグリーンヒルズモリタワー33カイ","prefecture_code":13},"6234":{"zip_code":"1056234","prefecture":"東京都","prefecture_kana":"トウキョウト","city":"港区","city_kana":"ミナトク","town":"愛宕愛宕グリーンヒルズＭＯＲＩタワー　３４階","town_kana":"アタゴアタゴグリーンヒルズモリタワー34カイ","prefecture_code":13},"6235":{"zip_code":"1056235","prefecture":"東京都","prefecture_kana":"トウキョウト","city":"港区","city_kana":"ミナトク","town":"愛宕愛宕グリーンヒルズＭＯＲＩタワー　３５階","town_kana":"アタゴアタゴグリーンヒルズモリタワー35カイ","prefecture_code":13},"6236":{"zip_code":"1056236","prefecture":"東京都","prefecture_kana":"トウキョウト","city":"港区","city_kana":"ミナトク","town":"愛宕愛宕グリーンヒルズＭＯＲＩタワー　３６階","town_kana":"アタゴアタゴグリーンヒルズモリタワー36カイ","prefecture_code":13},"6237":{"zip_code":"1056237","prefecture":"東京都","prefecture_kana":"トウキョウト","city":"港区","city_kana":"ミナトク","town":"愛宕愛宕グリーンヒルズＭＯＲＩタワー　３７階","town_kana":"アタゴアタゴグリーンヒルズモリタワー37カイ","prefecture_code":13},"6238":{"zip_code":"1056238","prefecture":"東京都","prefecture_kana":"トウキョウト","city":"港区","city_kana":"ミナトク","town":"愛宕愛宕グリーンヒルズＭＯＲＩタワー　３８階","town_kana":"アタゴアタゴグリーンヒルズモリタワー38カイ","prefecture_code":13},"6239":{"zip_code":"1056239","prefecture":"東京都","prefecture_kana":"トウキョウト","city":"港区","city_kana":"ミナトク","town":"愛宕愛宕グリーンヒルズＭＯＲＩタワー　３９階","town_kana":"アタゴアタゴグリーンヒルズモリタワー39カイ","prefecture_code":13},"6240":{"zip_code":"1056240","prefecture":"東京都","prefecture_kana":"トウキョウト","city":"港区","city_kana":"ミナトク","town":"愛宕愛宕グリーンヒルズＭＯＲＩタワー　４０階","town_kana":"アタゴアタゴグリーンヒルズモリタワー40カイ","prefecture_code":13},"6241":{"zip_code":"1056241","prefecture":"東京都","prefecture_kana":"トウキョウト","city":"港区","city_kana":"ミナトク","town":"愛宕愛宕グリーンヒルズＭＯＲＩタワー　４１階","town_kana":"アタゴアタゴグリーンヒルズモリタワー41カイ","prefecture_code":13},"6242":{"zip_code":"1056242","prefecture":"東京都","prefecture_kana":"トウキョウト","city":"港区","city_kana":"ミナトク","town":"愛宕愛宕グリーンヒルズＭＯＲＩタワー　４２階","town_kana":"アタゴアタゴグリーンヒルズモリタワー42カイ","prefecture_code":13},"0022":{"zip_code":"1050022","prefecture":"東京都","prefecture_kana":"トウキョウト","city":"港区","city_kana":"ミナトク","town":"海岸","town_kana":"カイガン","prefecture_code":13},"0014":{"zip_code":"1050014","prefecture":"東京都","prefecture_kana":"トウキョウト","city":"港区","city_kana":"ミナトク","town":"芝","town_kana":"シバ","prefecture_code":13},"0023":{"zip_code":"1050023","prefecture":"東京都","prefecture_kana":"トウキョウト","city":"港区","city_kana":"ミナトク","town":"芝浦","town_kana":"シバウラ","prefecture_code":13},"0011":{"zip_code":"1050011","prefecture":"東京都","prefecture_kana":"トウキョウト","city":"港区","city_kana":"ミナトク","town":"芝公園","town_kana":"シバコウエン","prefecture_code":13},"0012":{"zip_code":"1050012","prefecture":"東京都","prefecture_kana":"トウキョウト","city":"港区","city_kana":"ミナトク","town":"芝大門","town_kana":"シバダイモン","prefecture_code":13},"0004":{"zip_code":"1050004","prefecture":"東京都","prefecture_kana":"トウキョウト","city":"港区","city_kana":"ミナトク","town":"新橋","town_kana":"シンバシ","prefecture_code":13},"0001":{"zip_code":"1050001","prefecture":"東京都","prefecture_kana":"トウキョウト","city":"港区","city_kana":"ミナトク","town":"虎ノ門","town_kana":"トラノモン","prefecture_code":13},"6090":{"zip_code":"1056090","prefecture":"東京都","prefecture_kana":"トウキョウト","city":"港区","city_kana":"ミナトク","town":"虎ノ門城山トラストタワー","town_kana":"トラノモンシロヤマトラストタワー","prefecture_code":13},"6001":{"zip_code":"1056001","prefecture":"東京都","prefecture_kana":"トウキョウト","city":"港区","city_kana":"ミナトク","town":"虎ノ門城山トラストタワー　１階","town_kana":"トラノモンシロヤマトラストタワー1カイ","prefecture_code":13},"6002":{"zip_code":"1056002","prefecture":"東京都","prefecture_kana":"トウキョウト","city":"港区","city_kana":"ミナトク","town":"虎ノ門城山トラストタワー　２階","town_kana":"トラノモンシロヤマトラストタワー2カイ","prefecture_code":13},"6003":{"zip_code":"1056003","prefecture":"東京都","prefecture_kana":"トウキョウト","city":"港区","city_kana":"ミナトク","town":"虎ノ門城山トラストタワー　３階","town_kana":"トラノモンシロヤマトラストタワー3カイ","prefecture_code":13},"6004":{"zip_code":"1056004","prefecture":"東京都","prefecture_kana":"トウキョウト","city":"港区","city_kana":"ミナトク","town":"虎ノ門城山トラストタワー　４階","town_kana":"トラノモンシロヤマトラストタワー4カイ","prefecture_code":13},"6005":{"zip_code":"1056005","prefecture":"東京都","prefecture_kana":"トウキョウト","city":"港区","city_kana":"ミナトク","town":"虎ノ門城山トラストタワー　５階","town_kana":"トラノモンシロヤマトラストタワー5カイ","prefecture_code":13},"6006":{"zip_code":"1056006","prefecture":"東京都","prefecture_kana":"トウキョウト","city":"港区","city_kana":"ミナトク","town":"虎ノ門城山トラストタワー　６階","town_kana":"トラノモンシロヤマトラストタワー6カイ","prefecture_code":13},"6007":{"zip_code":"1056007","prefecture":"東京都","prefecture_kana":"トウキョウト","city":"港区","city_kana":"ミナトク","town":"虎ノ門城山トラストタワー　７階","town_kana":"トラノモンシロヤマトラストタワー7カイ","prefecture_code":13},"6008":{"zip_code":"1056008","prefecture":"東京都","prefecture_kana":"トウキョウト","city":"港区","city_kana":"ミナトク","town":"虎ノ門城山トラストタワー　８階","town_kana":"トラノモンシロヤマトラストタワー8カイ","prefecture_code":13},"6009":{"zip_code":"1056009","prefecture":"東京都","prefecture_kana":"トウキョウト","city":"港区","city_kana":"ミナトク","town":"虎ノ門城山トラストタワー　９階","town_kana":"トラノモンシロヤマトラストタワー9カイ","prefecture_code":13},"6010":{"zip_code":"1056010","prefecture":"東京都","prefecture_kana":"トウキョウト","city":"港区","city_kana":"ミナトク","town":"虎ノ門城山トラストタワー　１０階","town_kana":"トラノモンシロヤマトラストタワー10カイ","prefecture_code":13},"6011":{"zip_code":"1056011","prefecture":"東京都","prefecture_kana":"トウキョウト","city":"港区","city_kana":"ミナトク","town":"虎ノ門城山トラストタワー　１１階","town_kana":"トラノモンシロヤマトラストタワー11カイ","prefecture_code":13},"6012":{"zip_code":"1056012","prefecture":"東京都","prefecture_kana":"トウキョウト","city":"港区","city_kana":"ミナトク","town":"虎ノ門城山トラストタワー　１２階","town_kana":"トラノモンシロヤマトラストタワー12カイ","prefecture_code":13},"6013":{"zip_code":"1056013","prefecture":"東京都","prefecture_kana":"トウキョウト","city":"港区","city_kana":"ミナトク","town":"虎ノ門城山トラストタワー　１３階","town_kana":"トラノモンシロヤマトラストタワー13カイ","prefecture_code":13},"6014":{"zip_code":"1056014","prefecture":"東京都","prefecture_kana":"トウキョウト","city":"港区","city_kana":"ミナトク","town":"虎ノ門城山トラストタワー　１４階","town_kana":"トラノモンシロヤマトラストタワー14カイ","prefecture_code":13},"6015":{"zip_code":"1056015","prefecture":"東京都","prefecture_kana":"トウキョウト","city":"港区","city_kana":"ミナトク","town":"虎ノ門城山トラストタワー　１５階","town_kana":"トラノモンシロヤマトラストタワー15カイ","prefecture_code":13},"6016":{"zip_code":"1056016","prefecture":"東京都","prefecture_kana":"トウキョウト","city":"港区","city_kana":"ミナトク","town":"虎ノ門城山トラストタワー　１６階","town_kana":"トラノモンシロヤマトラストタワー16カイ","prefecture_code":13},"6017":{"zip_code":"1056017","prefecture":"東京都","prefecture_kana":"トウキョウト","city":"港区","city_kana":"ミナトク","town":"虎ノ門城山トラストタワー　１７階","town_kana":"トラノモンシロヤマトラストタワー17カイ","prefecture_code":13},"6018":{"zip_code":"1056018","prefecture":"東京都","prefecture_kana":"トウキョウト","city":"港区","city_kana":"ミナトク","town":"虎ノ門城山トラストタワー　１８階","town_kana":"トラノモンシロヤマトラストタワー18カイ","prefecture_code":13},"6019":{"zip_code":"1056019","prefecture":"東京都","prefecture_kana":"トウキョウト","city":"港区","city_kana":"ミナトク","town":"虎ノ門城山トラストタワー　１９階","town_kana":"トラノモンシロヤマトラストタワー19カイ","prefecture_code":13},"6020":{"zip_code":"1056020","prefecture":"東京都","prefecture_kana":"トウキョウト","city":"港区","city_kana":"ミナトク","town":"虎ノ門城山トラストタワー　２０階","town_kana":"トラノモンシロヤマトラストタワー20カイ","prefecture_code":13},"6021":{"zip_code":"1056021","prefecture":"東京都","prefecture_kana":"トウキョウト","city":"港区","city_kana":"ミナトク","town":"虎ノ門城山トラストタワー　２１階","town_kana":"トラノモンシロヤマトラストタワー21カイ","prefecture_code":13},"6022":{"zip_code":"1056022","prefecture":"東京都","prefecture_kana":"トウキョウト","city":"港区","city_kana":"ミナトク","town":"虎ノ門城山トラストタワー　２２階","town_kana":"トラノモンシロヤマトラストタワー22カイ","prefecture_code":13},"6023":{"zip_code":"1056023","prefecture":"東京都","prefecture_kana":"トウキョウト","city":"港区","city_kana":"ミナトク","town":"虎ノ門城山トラストタワー　２３階","town_kana":"トラノモンシロヤマトラストタワー23カイ","prefecture_code":13},"6024":{"zip_code":"1056024","prefecture":"東京都","prefecture_kana":"トウキョウト","city":"港区","city_kana":"ミナトク","town":"虎ノ門城山トラストタワー　２４階","town_kana":"トラノモンシロヤマトラストタワー24カイ","prefecture_code":13},"6025":{"zip_code":"1056025","prefecture":"東京都","prefecture_kana":"トウキョウト","city":"港区","city_kana":"ミナトク","town":"虎ノ門城山トラストタワー　２５階","town_kana":"トラノモンシロヤマトラストタワー25カイ","prefecture_code":13},"6026":{"zip_code":"1056026","prefecture":"東京都","prefecture_kana":"トウキョウト","city":"港区","city_kana":"ミナトク","town":"虎ノ門城山トラストタワー　２６階","town_kana":"トラノモンシロヤマトラストタワー26カイ","prefecture_code":13},"6027":{"zip_code":"1056027","prefecture":"東京都","prefecture_kana":"トウキョウト","city":"港区","city_kana":"ミナトク","town":"虎ノ門城山トラストタワー　２７階","town_kana":"トラノモンシロヤマトラストタワー27カイ","prefecture_code":13},"6028":{"zip_code":"1056028","prefecture":"東京都","prefecture_kana":"トウキョウト","city":"港区","city_kana":"ミナトク","town":"虎ノ門城山トラストタワー　２８階","town_kana":"トラノモンシロヤマトラストタワー28カイ","prefecture_code":13},"6029":{"zip_code":"1056029","prefecture":"東京都","prefecture_kana":"トウキョウト","city":"港区","city_kana":"ミナトク","town":"虎ノ門城山トラストタワー　２９階","town_kana":"トラノモンシロヤマトラストタワー29カイ","prefecture_code":13},"6030":{"zip_code":"1056030","prefecture":"東京都","prefecture_kana":"トウキョウト","city":"港区","city_kana":"ミナトク","town":"虎ノ門城山トラストタワー　３０階","town_kana":"トラノモンシロヤマトラストタワー30カイ","prefecture_code":13},"6031":{"zip_code":"1056031","prefecture":"東京都","prefecture_kana":"トウキョウト","city":"港区","city_kana":"ミナトク","town":"虎ノ門城山トラストタワー　３１階","town_kana":"トラノモンシロヤマトラストタワー31カイ","prefecture_code":13},"6032":{"zip_code":"1056032","prefecture":"東京都","prefecture_kana":"トウキョウト","city":"港区","city_kana":"ミナトク","town":"虎ノ門城山トラストタワー　３２階","town_kana":"トラノモンシロヤマトラストタワー32カイ","prefecture_code":13},"6033":{"zip_code":"1056033","prefecture":"東京都","prefecture_kana":"トウキョウト","city":"港区","city_kana":"ミナトク","town":"虎ノ門城山トラストタワー　３３階","town_kana":"トラノモンシロヤマトラストタワー33カイ","prefecture_code":13},"6034":{"zip_code":"1056034","prefecture":"東京都","prefecture_kana":"トウキョウト","city":"港区","city_kana":"ミナトク","town":"虎ノ門城山トラストタワー　３４階","town_kana":"トラノモンシロヤマトラストタワー34カイ","prefecture_code":13},"6035":{"zip_code":"1056035","prefecture":"東京都","prefecture_kana":"トウキョウト","city":"港区","city_kana":"ミナトク","town":"虎ノ門城山トラストタワー　３５階","town_kana":"トラノモンシロヤマトラストタワー35カイ","prefecture_code":13},"6036":{"zip_code":"1056036","prefecture":"東京都","prefecture_kana":"トウキョウト","city":"港区","city_kana":"ミナトク","town":"虎ノ門城山トラストタワー　３６階","town_kana":"トラノモンシロヤマトラストタワー36カイ","prefecture_code":13},"6037":{"zip_code":"1056037","prefecture":"東京都","prefecture_kana":"トウキョウト","city":"港区","city_kana":"ミナトク","town":"虎ノ門城山トラストタワー　３７階","town_kana":"トラノモンシロヤマトラストタワー37カイ","prefecture_code":13},"6390":{"zip_code":"1056390","prefecture":"東京都","prefecture_kana":"トウキョウト","city":"港区","city_kana":"ミナトク","town":"虎ノ門虎ノ門ヒルズ森タワー","town_kana":"トラノモントラノモンヒルズモリタワー","prefecture_code":13},"6301":{"zip_code":"1056301","prefecture":"東京都","prefecture_kana":"トウキョウト","city":"港区","city_kana":"ミナトク","town":"虎ノ門虎ノ門ヒルズ森タワー　１階","town_kana":"トラノモントラノモンヒルズモリタワー1カイ","prefecture_code":13},"6302":{"zip_code":"1056302","prefecture":"東京都","prefecture_kana":"トウキョウト","city":"港区","city_kana":"ミナトク","town":"虎ノ門虎ノ門ヒルズ森タワー　２階","town_kana":"トラノモントラノモンヒルズモリタワー2カイ","prefecture_code":13},"6303":{"zip_code":"1056303","prefecture":"東京都","prefecture_kana":"トウキョウト","city":"港区","city_kana":"ミナトク","town":"虎ノ門虎ノ門ヒルズ森タワー　３階","town_kana":"トラノモントラノモンヒルズモリタワー3カイ","prefecture_code":13},"6304":{"zip_code":"1056304","prefecture":"東京都","prefecture_kana":"トウキョウト","city":"港区","city_kana":"ミナトク","town":"虎ノ門虎ノ門ヒルズ森タワー　４階","town_kana":"トラノモントラノモンヒルズモリタワー4カイ","prefecture_code":13},"6305":{"zip_code":"1056305","prefecture":"東京都","prefecture_kana":"トウキョウト","city":"港区","city_kana":"ミナトク","town":"虎ノ門虎ノ門ヒルズ森タワー　５階","town_kana":"トラノモントラノモンヒルズモリタワー5カイ","prefecture_code":13},"6306":{"zip_code":"1056306","prefecture":"東京都","prefecture_kana":"トウキョウト","city":"港区","city_kana":"ミナトク","town":"虎ノ門虎ノ門ヒルズ森タワー　６階","town_kana":"トラノモントラノモンヒルズモリタワー6カイ","prefecture_code":13},"6307":{"zip_code":"1056307","prefecture":"東京都","prefecture_kana":"トウキョウト","city":"港区","city_kana":"ミナトク","town":"虎ノ門虎ノ門ヒルズ森タワー　７階","town_kana":"トラノモントラノモンヒルズモリタワー7カイ","prefecture_code":13},"6308":{"zip_code":"1056308","prefecture":"東京都","prefecture_kana":"トウキョウト","city":"港区","city_kana":"ミナトク","town":"虎ノ門虎ノ門ヒルズ森タワー　８階","town_kana":"トラノモントラノモンヒルズモリタワー8カイ","prefecture_code":13},"6309":{"zip_code":"1056309","prefecture":"東京都","prefecture_kana":"トウキョウト","city":"港区","city_kana":"ミナトク","town":"虎ノ門虎ノ門ヒルズ森タワー　９階","town_kana":"トラノモントラノモンヒルズモリタワー9カイ","prefecture_code":13},"6310":{"zip_code":"1056310","prefecture":"東京都","prefecture_kana":"トウキョウト","city":"港区","city_kana":"ミナトク","town":"虎ノ門虎ノ門ヒルズ森タワー　１０階","town_kana":"トラノモントラノモンヒルズモリタワー10カイ","prefecture_code":13},"6311":{"zip_code":"1056311","prefecture":"東京都","prefecture_kana":"トウキョウト","city":"港区","city_kana":"ミナトク","town":"虎ノ門虎ノ門ヒルズ森タワー　１１階","town_kana":"トラノモントラノモンヒルズモリタワー11カイ","prefecture_code":13},"6312":{"zip_code":"1056312","prefecture":"東京都","prefecture_kana":"トウキョウト","city":"港区","city_kana":"ミナトク","town":"虎ノ門虎ノ門ヒルズ森タワー　１２階","town_kana":"トラノモントラノモンヒルズモリタワー12カイ","prefecture_code":13},"6313":{"zip_code":"1056313","prefecture":"東京都","prefecture_kana":"トウキョウト","city":"港区","city_kana":"ミナトク","town":"虎ノ門虎ノ門ヒルズ森タワー　１３階","town_kana":"トラノモントラノモンヒルズモリタワー13カイ","prefecture_code":13},"6314":{"zip_code":"1056314","prefecture":"東京都","prefecture_kana":"トウキョウト","city":"港区","city_kana":"ミナトク","town":"虎ノ門虎ノ門ヒルズ森タワー　１４階","town_kana":"トラノモントラノモンヒルズモリタワー14カイ","prefecture_code":13},"6315":{"zip_code":"1056315","prefecture":"東京都","prefecture_kana":"トウキョウト","city":"港区","city_kana":"ミナトク","town":"虎ノ門虎ノ門ヒルズ森タワー　１５階","town_kana":"トラノモントラノモンヒルズモリタワー15カイ","prefecture_code":13},"6316":{"zip_code":"1056316","prefecture":"東京都","prefecture_kana":"トウキョウト","city":"港区","city_kana":"ミナトク","town":"虎ノ門虎ノ門ヒルズ森タワー　１６階","town_kana":"トラノモントラノモンヒルズモリタワー16カイ","prefecture_code":13},"6317":{"zip_code":"1056317","prefecture":"東京都","prefecture_kana":"トウキョウト","city":"港区","city_kana":"ミナトク","town":"虎ノ門虎ノ門ヒルズ森タワー　１７階","town_kana":"トラノモントラノモンヒルズモリタワー17カイ","prefecture_code":13},"6318":{"zip_code":"1056318","prefecture":"東京都","prefecture_kana":"トウキョウト","city":"港区","city_kana":"ミナトク","town":"虎ノ門虎ノ門ヒルズ森タワー　１８階","town_kana":"トラノモントラノモンヒルズモリタワー18カイ","prefecture_code":13},"6319":{"zip_code":"1056319","prefecture":"東京都","prefecture_kana":"トウキョウト","city":"港区","city_kana":"ミナトク","town":"虎ノ門虎ノ門ヒルズ森タワー　１９階","town_kana":"トラノモントラノモンヒルズモリタワー19カイ","prefecture_code":13},"6320":{"zip_code":"1056320","prefecture":"東京都","prefecture_kana":"トウキョウト","city":"港区","city_kana":"ミナトク","town":"虎ノ門虎ノ門ヒルズ森タワー　２０階","town_kana":"トラノモントラノモンヒルズモリタワー20カイ","prefecture_code":13},"6321":{"zip_code":"1056321","prefecture":"東京都","prefecture_kana":"トウキョウト","city":"港区","city_kana":"ミナトク","town":"虎ノ門虎ノ門ヒルズ森タワー　２１階","town_kana":"トラノモントラノモンヒルズモリタワー21カイ","prefecture_code":13},"6322":{"zip_code":"1056322","prefecture":"東京都","prefecture_kana":"トウキョウト","city":"港区","city_kana":"ミナトク","town":"虎ノ門虎ノ門ヒルズ森タワー　２２階","town_kana":"トラノモントラノモンヒルズモリタワー22カイ","prefecture_code":13},"6323":{"zip_code":"1056323","prefecture":"東京都","prefecture_kana":"トウキョウト","city":"港区","city_kana":"ミナトク","town":"虎ノ門虎ノ門ヒルズ森タワー　２３階","town_kana":"トラノモントラノモンヒルズモリタワー23カイ","prefecture_code":13},"6324":{"zip_code":"1056324","prefecture":"東京都","prefecture_kana":"トウキョウト","city":"港区","city_kana":"ミナトク","town":"虎ノ門虎ノ門ヒルズ森タワー　２４階","town_kana":"トラノモントラノモンヒルズモリタワー24カイ","prefecture_code":13},"6325":{"zip_code":"1056325","prefecture":"東京都","prefecture_kana":"トウキョウト","city":"港区","city_kana":"ミナトク","town":"虎ノ門虎ノ門ヒルズ森タワー　２５階","town_kana":"トラノモントラノモンヒルズモリタワー25カイ","prefecture_code":13},"6326":{"zip_code":"1056326","prefecture":"東京都","prefecture_kana":"トウキョウト","city":"港区","city_kana":"ミナトク","town":"虎ノ門虎ノ門ヒルズ森タワー　２６階","town_kana":"トラノモントラノモンヒルズモリタワー26カイ","prefecture_code":13},"6327":{"zip_code":"1056327","prefecture":"東京都","prefecture_kana":"トウキョウト","city":"港区","city_kana":"ミナトク","town":"虎ノ門虎ノ門ヒルズ森タワー　２７階","town_kana":"トラノモントラノモンヒルズモリタワー27カイ","prefecture_code":13},"6328":{"zip_code":"1056328","prefecture":"東京都","prefecture_kana":"トウキョウト","city":"港区","city_kana":"ミナトク","town":"虎ノ門虎ノ門ヒルズ森タワー　２８階","town_kana":"トラノモントラノモンヒルズモリタワー28カイ","prefecture_code":13},"6329":{"zip_code":"1056329","prefecture":"東京都","prefecture_kana":"トウキョウト","city":"港区","city_kana":"ミナトク","town":"虎ノ門虎ノ門ヒルズ森タワー　２９階","town_kana":"トラノモントラノモンヒルズモリタワー29カイ","prefecture_code":13},"6330":{"zip_code":"1056330","prefecture":"東京都","prefecture_kana":"トウキョウト","city":"港区","city_kana":"ミナトク","town":"虎ノ門虎ノ門ヒルズ森タワー　３０階","town_kana":"トラノモントラノモンヒルズモリタワー30カイ","prefecture_code":13},"6331":{"zip_code":"1056331","prefecture":"東京都","prefecture_kana":"トウキョウト","city":"港区","city_kana":"ミナトク","town":"虎ノ門虎ノ門ヒルズ森タワー　３１階","town_kana":"トラノモントラノモンヒルズモリタワー31カイ","prefecture_code":13},"6332":{"zip_code":"1056332","prefecture":"東京都","prefecture_kana":"トウキョウト","city":"港区","city_kana":"ミナトク","town":"虎ノ門虎ノ門ヒルズ森タワー　３２階","town_kana":"トラノモントラノモンヒルズモリタワー32カイ","prefecture_code":13},"6333":{"zip_code":"1056333","prefecture":"東京都","prefecture_kana":"トウキョウト","city":"港区","city_kana":"ミナトク","town":"虎ノ門虎ノ門ヒルズ森タワー　３３階","town_kana":"トラノモントラノモンヒルズモリタワー33カイ","prefecture_code":13},"6334":{"zip_code":"1056334","prefecture":"東京都","prefecture_kana":"トウキョウト","city":"港区","city_kana":"ミナトク","town":"虎ノ門虎ノ門ヒルズ森タワー　３４階","town_kana":"トラノモントラノモンヒルズモリタワー34カイ","prefecture_code":13},"6335":{"zip_code":"1056335","prefecture":"東京都","prefecture_kana":"トウキョウト","city":"港区","city_kana":"ミナトク","town":"虎ノ門虎ノ門ヒルズ森タワー　３５階","town_kana":"トラノモントラノモンヒルズモリタワー35カイ","prefecture_code":13},"6336":{"zip_code":"1056336","prefecture":"東京都","prefecture_kana":"トウキョウト","city":"港区","city_kana":"ミナトク","town":"虎ノ門虎ノ門ヒルズ森タワー　３６階","town_kana":"トラノモントラノモンヒルズモリタワー36カイ","prefecture_code":13},"0003":{"zip_code":"1050003","prefecture":"東京都","prefecture_kana":"トウキョウト","city":"港区","city_kana":"ミナトク","town":"西新橋","town_kana":"ニシシンバシ","prefecture_code":13},"0013":{"zip_code":"1050013","prefecture":"東京都","prefecture_kana":"トウキョウト","city":"港区","city_kana":"ミナトク","town":"浜松町","town_kana":"ハママツチョウ","prefecture_code":13},"6190":{"zip_code":"1056190","prefecture":"東京都","prefecture_kana":"トウキョウト","city":"港区","city_kana":"ミナトク","town":"浜松町世界貿易センタービル","town_kana":"ハママツチョウセカイボウエキセンタービル","prefecture_code":13},"6101":{"zip_code":"1056101","prefecture":"東京都","prefecture_kana":"トウキョウト","city":"港区","city_kana":"ミナトク","town":"浜松町世界貿易センタービル　１階","town_kana":"ハママツチョウセカイボウエキセンタービル1カイ","prefecture_code":13},"6102":{"zip_code":"1056102","prefecture":"東京都","prefecture_kana":"トウキョウト","city":"港区","city_kana":"ミナトク","town":"浜松町世界貿易センタービル　２階","town_kana":"ハママツチョウセカイボウエキセンタービル2カイ","prefecture_code":13},"6103":{"zip_code":"1056103","prefecture":"東京都","prefecture_kana":"トウキョウト","city":"港区","city_kana":"ミナトク","town":"浜松町世界貿易センタービル　３階","town_kana":"ハママツチョウセカイボウエキセンタービル3カイ","prefecture_code":13},"6104":{"zip_code":"1056104","prefecture":"東京都","prefecture_kana":"トウキョウト","city":"港区","city_kana":"ミナトク","town":"浜松町世界貿易センタービル　４階","town_kana":"ハママツチョウセカイボウエキセンタービル4カイ","prefecture_code":13},"6105":{"zip_code":"1056105","prefecture":"東京都","prefecture_kana":"トウキョウト","city":"港区","city_kana":"ミナトク","town":"浜松町世界貿易センタービル　５階","town_kana":"ハママツチョウセカイボウエキセンタービル5カイ","prefecture_code":13},"6106":{"zip_code":"1056106","prefecture":"東京都","prefecture_kana":"トウキョウト","city":"港区","city_kana":"ミナトク","town":"浜松町世界貿易センタービル　６階","town_kana":"ハママツチョウセカイボウエキセンタービル6カイ","prefecture_code":13},"6107":{"zip_code":"1056107","prefecture":"東京都","prefecture_kana":"トウキョウト","city":"港区","city_kana":"ミナトク","town":"浜松町世界貿易センタービル　７階","town_kana":"ハママツチョウセカイボウエキセンタービル7カイ","prefecture_code":13},"6108":{"zip_code":"1056108","prefecture":"東京都","prefecture_kana":"トウキョウト","city":"港区","city_kana":"ミナトク","town":"浜松町世界貿易センタービル　８階","town_kana":"ハママツチョウセカイボウエキセンタービル8カイ","prefecture_code":13},"6109":{"zip_code":"1056109","prefecture":"東京都","prefecture_kana":"トウキョウト","city":"港区","city_kana":"ミナトク","town":"浜松町世界貿易センタービル　９階","town_kana":"ハママツチョウセカイボウエキセンタービル9カイ","prefecture_code":13},"6110":{"zip_code":"1056110","prefecture":"東京都","prefecture_kana":"トウキョウト","city":"港区","city_kana":"ミナトク","town":"浜松町世界貿易センタービル　１０階","town_kana":"ハママツチョウセカイボウエキセンタービル10カイ","prefecture_code":13},"6111":{"zip_code":"1056111","prefecture":"東京都","prefecture_kana":"トウキョウト","city":"港区","city_kana":"ミナトク","town":"浜松町世界貿易センタービル　１１階","town_kana":"ハママツチョウセカイボウエキセンタービル11カイ","prefecture_code":13},"6112":{"zip_code":"1056112","prefecture":"東京都","prefecture_kana":"トウキョウト","city":"港区","city_kana":"ミナトク","town":"浜松町世界貿易センタービル　１２階","town_kana":"ハママツチョウセカイボウエキセンタービル12カイ","prefecture_code":13},"6113":{"zip_code":"1056113","prefecture":"東京都","prefecture_kana":"トウキョウト","city":"港区","city_kana":"ミナトク","town":"浜松町世界貿易センタービル　１３階","town_kana":"ハママツチョウセカイボウエキセンタービル13カイ","prefecture_code":13},"6114":{"zip_code":"1056114","prefecture":"東京都","prefecture_kana":"トウキョウト","city":"港区","city_kana":"ミナトク","town":"浜松町世界貿易センタービル　１４階","town_kana":"ハママツチョウセカイボウエキセンタービル14カイ","prefecture_code":13},"6115":{"zip_code":"1056115","prefecture":"東京都","prefecture_kana":"トウキョウト","city":"港区","city_kana":"ミナトク","town":"浜松町世界貿易センタービル　１５階","town_kana":"ハママツチョウセカイボウエキセンタービル15カイ","prefecture_code":13},"6116":{"zip_code":"1056116","prefecture":"東京都","prefecture_kana":"トウキョウト","city":"港区","city_kana":"ミナトク","town":"浜松町世界貿易センタービル　１６階","town_kana":"ハママツチョウセカイボウエキセンタービル16カイ","prefecture_code":13},"6117":{"zip_code":"1056117","prefecture":"東京都","prefecture_kana":"トウキョウト","city":"港区","city_kana":"ミナトク","town":"浜松町世界貿易センタービル　１７階","town_kana":"ハママツチョウセカイボウエキセンタービル17カイ","prefecture_code":13},"6118":{"zip_code":"1056118","prefecture":"東京都","prefecture_kana":"トウキョウト","city":"港区","city_kana":"ミナトク","town":"浜松町世界貿易センタービル　１８階","town_kana":"ハママツチョウセカイボウエキセンタービル18カイ","prefecture_code":13},"6119":{"zip_code":"1056119","prefecture":"東京都","prefecture_kana":"トウキョウト","city":"港区","city_kana":"ミナトク","town":"浜松町世界貿易センタービル　１９階","town_kana":"ハママツチョウセカイボウエキセンタービル19カイ","prefecture_code":13},"6120":{"zip_code":"1056120","prefecture":"東京都","prefecture_kana":"トウキョウト","city":"港区","city_kana":"ミナトク","town":"浜松町世界貿易センタービル　２０階","town_kana":"ハママツチョウセカイボウエキセンタービル20カイ","prefecture_code":13},"6121":{"zip_code":"1056121","prefecture":"東京都","prefecture_kana":"トウキョウト","city":"港区","city_kana":"ミナトク","town":"浜松町世界貿易センタービル　２１階","town_kana":"ハママツチョウセカイボウエキセンタービル21カイ","prefecture_code":13},"6122":{"zip_code":"1056122","prefecture":"東京都","prefecture_kana":"トウキョウト","city":"港区","city_kana":"ミナトク","town":"浜松町世界貿易センタービル　２２階","town_kana":"ハママツチョウセカイボウエキセンタービル22カイ","prefecture_code":13},"6123":{"zip_code":"1056123","prefecture":"東京都","prefecture_kana":"トウキョウト","city":"港区","city_kana":"ミナトク","town":"浜松町世界貿易センタービル　２３階","town_kana":"ハママツチョウセカイボウエキセンタービル23カイ","prefecture_code":13},"6124":{"zip_code":"1056124","prefecture":"東京都","prefecture_kana":"トウキョウト","city":"港区","city_kana":"ミナトク","town":"浜松町世界貿易センタービル　２４階","town_kana":"ハママツチョウセカイボウエキセンタービル24カイ","prefecture_code":13},"6125":{"zip_code":"1056125","prefecture":"東京都","prefecture_kana":"トウキョウト","city":"港区","city_kana":"ミナトク","town":"浜松町世界貿易センタービル　２５階","town_kana":"ハママツチョウセカイボウエキセンタービル25カイ","prefecture_code":13},"6126":{"zip_code":"1056126","prefecture":"東京都","prefecture_kana":"トウキョウト","city":"港区","city_kana":"ミナトク","town":"浜松町世界貿易センタービル　２６階","town_kana":"ハママツチョウセカイボウエキセンタービル26カイ","prefecture_code":13},"6127":{"zip_code":"1056127","prefecture":"東京都","prefecture_kana":"トウキョウト","city":"港区","city_kana":"ミナトク","town":"浜松町世界貿易センタービル　２７階","town_kana":"ハママツチョウセカイボウエキセンタービル27カイ","prefecture_code":13},"6128":{"zip_code":"1056128","prefecture":"東京都","prefecture_kana":"トウキョウト","city":"港区","city_kana":"ミナトク","town":"浜松町世界貿易センタービル　２８階","town_kana":"ハママツチョウセカイボウエキセンタービル28カイ","prefecture_code":13},"6129":{"zip_code":"1056129","prefecture":"東京都","prefecture_kana":"トウキョウト","city":"港区","city_kana":"ミナトク","town":"浜松町世界貿易センタービル　２９階","town_kana":"ハママツチョウセカイボウエキセンタービル29カイ","prefecture_code":13},"6130":{"zip_code":"1056130","prefecture":"東京都","prefecture_kana":"トウキョウト","city":"港区","city_kana":"ミナトク","town":"浜松町世界貿易センタービル　３０階","town_kana":"ハママツチョウセカイボウエキセンタービル30カイ","prefecture_code":13},"6131":{"zip_code":"1056131","prefecture":"東京都","prefecture_kana":"トウキョウト","city":"港区","city_kana":"ミナトク","town":"浜松町世界貿易センタービル　３１階","town_kana":"ハママツチョウセカイボウエキセンタービル31カイ","prefecture_code":13},"6132":{"zip_code":"1056132","prefecture":"東京都","prefecture_kana":"トウキョウト","city":"港区","city_kana":"ミナトク","town":"浜松町世界貿易センタービル　３２階","town_kana":"ハママツチョウセカイボウエキセンタービル32カイ","prefecture_code":13},"6133":{"zip_code":"1056133","prefecture":"東京都","prefecture_kana":"トウキョウト","city":"港区","city_kana":"ミナトク","town":"浜松町世界貿易センタービル　３３階","town_kana":"ハママツチョウセカイボウエキセンタービル33カイ","prefecture_code":13},"6134":{"zip_code":"1056134","prefecture":"東京都","prefecture_kana":"トウキョウト","city":"港区","city_kana":"ミナトク","town":"浜松町世界貿易センタービル　３４階","town_kana":"ハママツチョウセカイボウエキセンタービル34カイ","prefecture_code":13},"6135":{"zip_code":"1056135","prefecture":"東京都","prefecture_kana":"トウキョウト","city":"港区","city_kana":"ミナトク","town":"浜松町世界貿易センタービル　３５階","town_kana":"ハママツチョウセカイボウエキセンタービル35カイ","prefecture_code":13},"6136":{"zip_code":"1056136","prefecture":"東京都","prefecture_kana":"トウキョウト","city":"港区","city_kana":"ミナトク","town":"浜松町世界貿易センタービル　３６階","town_kana":"ハママツチョウセカイボウエキセンタービル36カイ","prefecture_code":13},"6137":{"zip_code":"1056137","prefecture":"東京都","prefecture_kana":"トウキョウト","city":"港区","city_kana":"ミナトク","town":"浜松町世界貿易センタービル　３７階","town_kana":"ハママツチョウセカイボウエキセンタービル37カイ","prefecture_code":13},"6138":{"zip_code":"1056138","prefecture":"東京都","prefecture_kana":"トウキョウト","city":"港区","city_kana":"ミナトク","town":"浜松町世界貿易センタービル　３８階","town_kana":"ハママツチョウセカイボウエキセンタービル38カイ","prefecture_code":13},"6139":{"zip_code":"1056139","prefecture":"東京都","prefecture_kana":"トウキョウト","city":"港区","city_kana":"ミナトク","town":"浜松町世界貿易センタービル　３９階","town_kana":"ハママツチョウセカイボウエキセンタービル39カイ","prefecture_code":13},"6140":{"zip_code":"1056140","prefecture":"東京都","prefecture_kana":"トウキョウト","city":"港区","city_kana":"ミナトク","town":"浜松町世界貿易センタービル　４０階","town_kana":"ハママツチョウセカイボウエキセンタービル40カイ","prefecture_code":13},"0021":{"zip_code":"1050021","prefecture":"東京都","prefecture_kana":"トウキョウト","city":"港区","city_kana":"ミナトク","town":"東新橋","town_kana":"ヒガシシンバシ","prefecture_code":13},"7190":{"zip_code":"1057190","prefecture":"東京都","prefecture_kana":"トウキョウト","city":"港区","city_kana":"ミナトク","town":"東新橋汐留シティセンター","town_kana":"ヒガシシンバシシオドメシティセンター","prefecture_code":13},"7101":{"zip_code":"1057101","prefecture":"東京都","prefecture_kana":"トウキョウト","city":"港区","city_kana":"ミナトク","town":"東新橋汐留シティセンター　１階","town_kana":"ヒガシシンバシシオドメシティセンター1カイ","prefecture_code":13},"7102":{"zip_code":"1057102","prefecture":"東京都","prefecture_kana":"トウキョウト","city":"港区","city_kana":"ミナトク","town":"東新橋汐留シティセンター　２階","town_kana":"ヒガシシンバシシオドメシティセンター2カイ","prefecture_code":13},"7103":{"zip_code":"1057103","prefecture":"東京都","prefecture_kana":"トウキョウト","city":"港区","city_kana":"ミナトク","town":"東新橋汐留シティセンター　３階","town_kana":"ヒガシシンバシシオドメシティセンター3カイ","prefecture_code":13},"7104":{"zip_code":"1057104","prefecture":"東京都","prefecture_kana":"トウキョウト","city":"港区","city_kana":"ミナトク","town":"東新橋汐留シティセンター　４階","town_kana":"ヒガシシンバシシオドメシティセンター4カイ","prefecture_code":13},"7105":{"zip_code":"1057105","prefecture":"東京都","prefecture_kana":"トウキョウト","city":"港区","city_kana":"ミナトク","town":"東新橋汐留シティセンター　５階","town_kana":"ヒガシシンバシシオドメシティセンター5カイ","prefecture_code":13},"7106":{"zip_code":"1057106","prefecture":"東京都","prefecture_kana":"トウキョウト","city":"港区","city_kana":"ミナトク","town":"東新橋汐留シティセンター　６階","town_kana":"ヒガシシンバシシオドメシティセンター6カイ","prefecture_code":13},"7107":{"zip_code":"1057107","prefecture":"東京都","prefecture_kana":"トウキョウト","city":"港区","city_kana":"ミナトク","town":"東新橋汐留シティセンター　７階","town_kana":"ヒガシシンバシシオドメシティセンター7カイ","prefecture_code":13},"7108":{"zip_code":"1057108","prefecture":"東京都","prefecture_kana":"トウキョウト","city":"港区","city_kana":"ミナトク","town":"東新橋汐留シティセンター　８階","town_kana":"ヒガシシンバシシオドメシティセンター8カイ","prefecture_code":13},"7109":{"zip_code":"1057109","prefecture":"東京都","prefecture_kana":"トウキョウト","city":"港区","city_kana":"ミナトク","town":"東新橋汐留シティセンター　９階","town_kana":"ヒガシシンバシシオドメシティセンター9カイ","prefecture_code":13},"7110":{"zip_code":"1057110","prefecture":"東京都","prefecture_kana":"トウキョウト","city":"港区","city_kana":"ミナトク","town":"東新橋汐留シティセンター　１０階","town_kana":"ヒガシシンバシシオドメシティセンター10カイ","prefecture_code":13},"7111":{"zip_code":"1057111","prefecture":"東京都","prefecture_kana":"トウキョウト","city":"港区","city_kana":"ミナトク","town":"東新橋汐留シティセンター　１１階","town_kana":"ヒガシシンバシシオドメシティセンター11カイ","prefecture_code":13},"7112":{"zip_code":"1057112","prefecture":"東京都","prefecture_kana":"トウキョウト","city":"港区","city_kana":"ミナトク","town":"東新橋汐留シティセンター　１２階","town_kana":"ヒガシシンバシシオドメシティセンター12カイ","prefecture_code":13},"7113":{"zip_code":"1057113","prefecture":"東京都","prefecture_kana":"トウキョウト","city":"港区","city_kana":"ミナトク","town":"東新橋汐留シティセンター　１３階","town_kana":"ヒガシシンバシシオドメシティセンター13カイ","prefecture_code":13},"7114":{"zip_code":"1057114","prefecture":"東京都","prefecture_kana":"トウキョウト","city":"港区","city_kana":"ミナトク","town":"東新橋汐留シティセンター　１４階","town_kana":"ヒガシシンバシシオドメシティセンター14カイ","prefecture_code":13},"7115":{"zip_code":"1057115","prefecture":"東京都","prefecture_kana":"トウキョウト","city":"港区","city_kana":"ミナトク","town":"東新橋汐留シティセンター　１５階","town_kana":"ヒガシシンバシシオドメシティセンター15カイ","prefecture_code":13},"7116":{"zip_code":"1057116","prefecture":"東京都","prefecture_kana":"トウキョウト","city":"港区","city_kana":"ミナトク","town":"東新橋汐留シティセンター　１６階","town_kana":"ヒガシシンバシシオドメシティセンター16カイ","prefecture_code":13},"7117":{"zip_code":"1057117","prefecture":"東京都","prefecture_kana":"トウキョウト","city":"港区","city_kana":"ミナトク","town":"東新橋汐留シティセンター　１７階","town_kana":"ヒガシシンバシシオドメシティセンター17カイ","prefecture_code":13},"7118":{"zip_code":"1057118","prefecture":"東京都","prefecture_kana":"トウキョウト","city":"港区","city_kana":"ミナトク","town":"東新橋汐留シティセンター　１８階","town_kana":"ヒガシシンバシシオドメシティセンター18カイ","prefecture_code":13},"7119":{"zip_code":"1057119","prefecture":"東京都","prefecture_kana":"トウキョウト","city":"港区","city_kana":"ミナトク","town":"東新橋汐留シティセンター　１９階","town_kana":"ヒガシシンバシシオドメシティセンター19カイ","prefecture_code":13},"7120":{"zip_code":"1057120","prefecture":"東京都","prefecture_kana":"トウキョウト","city":"港区","city_kana":"ミナトク","town":"東新橋汐留シティセンター　２０階","town_kana":"ヒガシシンバシシオドメシティセンター20カイ","prefecture_code":13},"7121":{"zip_code":"1057121","prefecture":"東京都","prefecture_kana":"トウキョウト","city":"港区","city_kana":"ミナトク","town":"東新橋汐留シティセンター　２１階","town_kana":"ヒガシシンバシシオドメシティセンター21カイ","prefecture_code":13},"7122":{"zip_code":"1057122","prefecture":"東京都","prefecture_kana":"トウキョウト","city":"港区","city_kana":"ミナトク","town":"東新橋汐留シティセンター　２２階","town_kana":"ヒガシシンバシシオドメシティセンター22カイ","prefecture_code":13},"7123":{"zip_code":"1057123","prefecture":"東京都","prefecture_kana":"トウキョウト","city":"港区","city_kana":"ミナトク","town":"東新橋汐留シティセンター　２３階","town_kana":"ヒガシシンバシシオドメシティセンター23カイ","prefecture_code":13},"7124":{"zip_code":"1057124","prefecture":"東京都","prefecture_kana":"トウキョウト","city":"港区","city_kana":"ミナトク","town":"東新橋汐留シティセンター　２４階","town_kana":"ヒガシシンバシシオドメシティセンター24カイ","prefecture_code":13},"7125":{"zip_code":"1057125","prefecture":"東京都","prefecture_kana":"トウキョウト","city":"港区","city_kana":"ミナトク","town":"東新橋汐留シティセンター　２５階","town_kana":"ヒガシシンバシシオドメシティセンター25カイ","prefecture_code":13},"7126":{"zip_code":"1057126","prefecture":"東京都","prefecture_kana":"トウキョウト","city":"港区","city_kana":"ミナトク","town":"東新橋汐留シティセンター　２６階","town_kana":"ヒガシシンバシシオドメシティセンター26カイ","prefecture_code":13},"7127":{"zip_code":"1057127","prefecture":"東京都","prefecture_kana":"トウキョウト","city":"港区","city_kana":"ミナトク","town":"東新橋汐留シティセンター　２７階","town_kana":"ヒガシシンバシシオドメシティセンター27カイ","prefecture_code":13},"7128":{"zip_code":"1057128","prefecture":"東京都","prefecture_kana":"トウキョウト","city":"港区","city_kana":"ミナトク","town":"東新橋汐留シティセンター　２８階","town_kana":"ヒガシシンバシシオドメシティセンター28カイ","prefecture_code":13},"7129":{"zip_code":"1057129","prefecture":"東京都","prefecture_kana":"トウキョウト","city":"港区","city_kana":"ミナトク","town":"東新橋汐留シティセンター　２９階","town_kana":"ヒガシシンバシシオドメシティセンター29カイ","prefecture_code":13},"7130":{"zip_code":"1057130","prefecture":"東京都","prefecture_kana":"トウキョウト","city":"港区","city_kana":"ミナトク","town":"東新橋汐留シティセンター　３０階","town_kana":"ヒガシシンバシシオドメシティセンター30カイ","prefecture_code":13},"7131":{"zip_code":"1057131","prefecture":"東京都","prefecture_kana":"トウキョウト","city":"港区","city_kana":"ミナトク","town":"東新橋汐留シティセンター　３１階","town_kana":"ヒガシシンバシシオドメシティセンター31カイ","prefecture_code":13},"7132":{"zip_code":"1057132","prefecture":"東京都","prefecture_kana":"トウキョウト","city":"港区","city_kana":"ミナトク","town":"東新橋汐留シティセンター　３２階","town_kana":"ヒガシシンバシシオドメシティセンター32カイ","prefecture_code":13},"7133":{"zip_code":"1057133","prefecture":"東京都","prefecture_kana":"トウキョウト","city":"港区","city_kana":"ミナトク","town":"東新橋汐留シティセンター　３３階","town_kana":"ヒガシシンバシシオドメシティセンター33カイ","prefecture_code":13},"7134":{"zip_code":"1057134","prefecture":"東京都","prefecture_kana":"トウキョウト","city":"港区","city_kana":"ミナトク","town":"東新橋汐留シティセンター　３４階","town_kana":"ヒガシシンバシシオドメシティセンター34カイ","prefecture_code":13},"7135":{"zip_code":"1057135","prefecture":"東京都","prefecture_kana":"トウキョウト","city":"港区","city_kana":"ミナトク","town":"東新橋汐留シティセンター　３５階","town_kana":"ヒガシシンバシシオドメシティセンター35カイ","prefecture_code":13},"7136":{"zip_code":"1057136","prefecture":"東京都","prefecture_kana":"トウキョウト","city":"港区","city_kana":"ミナトク","town":"東新橋汐留シティセンター　３６階","town_kana":"ヒガシシンバシシオドメシティセンター36カイ","prefecture_code":13},"7137":{"zip_code":"1057137","prefecture":"東京都","prefecture_kana":"トウキョウト","city":"港区","city_kana":"ミナトク","town":"東新橋汐留シティセンター　３７階","town_kana":"ヒガシシンバシシオドメシティセンター37カイ","prefecture_code":13},"7138":{"zip_code":"1057138","prefecture":"東京都","prefecture_kana":"トウキョウト","city":"港区","city_kana":"ミナトク","town":"東新橋汐留シティセンター　３８階","town_kana":"ヒガシシンバシシオドメシティセンター38カイ","prefecture_code":13},"7139":{"zip_code":"1057139","prefecture":"東京都","prefecture_kana":"トウキョウト","city":"港区","city_kana":"ミナトク","town":"東新橋汐留シティセンター　３９階","town_kana":"ヒガシシンバシシオドメシティセンター39カイ","prefecture_code":13},"7140":{"zip_code":"1057140","prefecture":"東京都","prefecture_kana":"トウキョウト","city":"港区","city_kana":"ミナトク","town":"東新橋汐留シティセンター　４０階","town_kana":"ヒガシシンバシシオドメシティセンター40カイ","prefecture_code":13},"7141":{"zip_code":"1057141","prefecture":"東京都","prefecture_kana":"トウキョウト","city":"港区","city_kana":"ミナトク","town":"東新橋汐留シティセンター　４１階","town_kana":"ヒガシシンバシシオドメシティセンター41カイ","prefecture_code":13},"7142":{"zip_code":"1057142","prefecture":"東京都","prefecture_kana":"トウキョウト","city":"港区","city_kana":"ミナトク","town":"東新橋汐留シティセンター　４２階","town_kana":"ヒガシシンバシシオドメシティセンター42カイ","prefecture_code":13},"7143":{"zip_code":"1057143","prefecture":"東京都","prefecture_kana":"トウキョウト","city":"港区","city_kana":"ミナトク","town":"東新橋汐留シティセンター　４３階","town_kana":"ヒガシシンバシシオドメシティセンター43カイ","prefecture_code":13},"7290":{"zip_code":"1057290","prefecture":"東京都","prefecture_kana":"トウキョウト","city":"港区","city_kana":"ミナトク","town":"東新橋汐留メディアタワー","town_kana":"ヒガシシンバシシオドメメディアタワー","prefecture_code":13},"7201":{"zip_code":"1057201","prefecture":"東京都","prefecture_kana":"トウキョウト","city":"港区","city_kana":"ミナトク","town":"東新橋汐留メディアタワー　１階","town_kana":"ヒガシシンバシシオドメメディアタワー1カイ","prefecture_code":13},"7202":{"zip_code":"1057202","prefecture":"東京都","prefecture_kana":"トウキョウト","city":"港区","city_kana":"ミナトク","town":"東新橋汐留メディアタワー　２階","town_kana":"ヒガシシンバシシオドメメディアタワー2カイ","prefecture_code":13},"7203":{"zip_code":"1057203","prefecture":"東京都","prefecture_kana":"トウキョウト","city":"港区","city_kana":"ミナトク","town":"東新橋汐留メディアタワー　３階","town_kana":"ヒガシシンバシシオドメメディアタワー3カイ","prefecture_code":13},"7204":{"zip_code":"1057204","prefecture":"東京都","prefecture_kana":"トウキョウト","city":"港区","city_kana":"ミナトク","town":"東新橋汐留メディアタワー　４階","town_kana":"ヒガシシンバシシオドメメディアタワー4カイ","prefecture_code":13},"7205":{"zip_code":"1057205","prefecture":"東京都","prefecture_kana":"トウキョウト","city":"港区","city_kana":"ミナトク","town":"東新橋汐留メディアタワー　５階","town_kana":"ヒガシシンバシシオドメメディアタワー5カイ","prefecture_code":13},"7206":{"zip_code":"1057206","prefecture":"東京都","prefecture_kana":"トウキョウト","city":"港区","city_kana":"ミナトク","town":"東新橋汐留メディアタワー　６階","town_kana":"ヒガシシンバシシオドメメディアタワー6カイ","prefecture_code":13},"7207":{"zip_code":"1057207","prefecture":"東京都","prefecture_kana":"トウキョウト","city":"港区","city_kana":"ミナトク","town":"東新橋汐留メディアタワー　７階","town_kana":"ヒガシシンバシシオドメメディアタワー7カイ","prefecture_code":13},"7208":{"zip_code":"1057208","prefecture":"東京都","prefecture_kana":"トウキョウト","city":"港区","city_kana":"ミナトク","town":"東新橋汐留メディアタワー　８階","town_kana":"ヒガシシンバシシオドメメディアタワー8カイ","prefecture_code":13},"7209":{"zip_code":"1057209","prefecture":"東京都","prefecture_kana":"トウキョウト","city":"港区","city_kana":"ミナトク","town":"東新橋汐留メディアタワー　９階","town_kana":"ヒガシシンバシシオドメメディアタワー9カイ","prefecture_code":13},"7210":{"zip_code":"1057210","prefecture":"東京都","prefecture_kana":"トウキョウト","city":"港区","city_kana":"ミナトク","town":"東新橋汐留メディアタワー　１０階","town_kana":"ヒガシシンバシシオドメメディアタワー10カイ","prefecture_code":13},"7211":{"zip_code":"1057211","prefecture":"東京都","prefecture_kana":"トウキョウト","city":"港区","city_kana":"ミナトク","town":"東新橋汐留メディアタワー　１１階","town_kana":"ヒガシシンバシシオドメメディアタワー11カイ","prefecture_code":13},"7212":{"zip_code":"1057212","prefecture":"東京都","prefecture_kana":"トウキョウト","city":"港区","city_kana":"ミナトク","town":"東新橋汐留メディアタワー　１２階","town_kana":"ヒガシシンバシシオドメメディアタワー12カイ","prefecture_code":13},"7213":{"zip_code":"1057213","prefecture":"東京都","prefecture_kana":"トウキョウト","city":"港区","city_kana":"ミナトク","town":"東新橋汐留メディアタワー　１３階","town_kana":"ヒガシシンバシシオドメメディアタワー13カイ","prefecture_code":13},"7214":{"zip_code":"1057214","prefecture":"東京都","prefecture_kana":"トウキョウト","city":"港区","city_kana":"ミナトク","town":"東新橋汐留メディアタワー　１４階","town_kana":"ヒガシシンバシシオドメメディアタワー14カイ","prefecture_code":13},"7215":{"zip_code":"1057215","prefecture":"東京都","prefecture_kana":"トウキョウト","city":"港区","city_kana":"ミナトク","town":"東新橋汐留メディアタワー　１５階","town_kana":"ヒガシシンバシシオドメメディアタワー15カイ","prefecture_code":13},"7216":{"zip_code":"1057216","prefecture":"東京都","prefecture_kana":"トウキョウト","city":"港区","city_kana":"ミナトク","town":"東新橋汐留メディアタワー　１６階","town_kana":"ヒガシシンバシシオドメメディアタワー16カイ","prefecture_code":13},"7217":{"zip_code":"1057217","prefecture":"東京都","prefecture_kana":"トウキョウト","city":"港区","city_kana":"ミナトク","town":"東新橋汐留メディアタワー　１７階","town_kana":"ヒガシシンバシシオドメメディアタワー17カイ","prefecture_code":13},"7218":{"zip_code":"1057218","prefecture":"東京都","prefecture_kana":"トウキョウト","city":"港区","city_kana":"ミナトク","town":"東新橋汐留メディアタワー　１８階","town_kana":"ヒガシシンバシシオドメメディアタワー18カイ","prefecture_code":13},"7219":{"zip_code":"1057219","prefecture":"東京都","prefecture_kana":"トウキョウト","city":"港区","city_kana":"ミナトク","town":"東新橋汐留メディアタワー　１９階","town_kana":"ヒガシシンバシシオドメメディアタワー19カイ","prefecture_code":13},"7220":{"zip_code":"1057220","prefecture":"東京都","prefecture_kana":"トウキョウト","city":"港区","city_kana":"ミナトク","town":"東新橋汐留メディアタワー　２０階","town_kana":"ヒガシシンバシシオドメメディアタワー20カイ","prefecture_code":13},"7221":{"zip_code":"1057221","prefecture":"東京都","prefecture_kana":"トウキョウト","city":"港区","city_kana":"ミナトク","town":"東新橋汐留メディアタワー　２１階","town_kana":"ヒガシシンバシシオドメメディアタワー21カイ","prefecture_code":13},"7222":{"zip_code":"1057222","prefecture":"東京都","prefecture_kana":"トウキョウト","city":"港区","city_kana":"ミナトク","town":"東新橋汐留メディアタワー　２２階","town_kana":"ヒガシシンバシシオドメメディアタワー22カイ","prefecture_code":13},"7223":{"zip_code":"1057223","prefecture":"東京都","prefecture_kana":"トウキョウト","city":"港区","city_kana":"ミナトク","town":"東新橋汐留メディアタワー　２３階","town_kana":"ヒガシシンバシシオドメメディアタワー23カイ","prefecture_code":13},"7224":{"zip_code":"1057224","prefecture":"東京都","prefecture_kana":"トウキョウト","city":"港区","city_kana":"ミナトク","town":"東新橋汐留メディアタワー　２４階","town_kana":"ヒガシシンバシシオドメメディアタワー24カイ","prefecture_code":13},"7225":{"zip_code":"1057225","prefecture":"東京都","prefecture_kana":"トウキョウト","city":"港区","city_kana":"ミナトク","town":"東新橋汐留メディアタワー　２５階","town_kana":"ヒガシシンバシシオドメメディアタワー25カイ","prefecture_code":13},"7226":{"zip_code":"1057226","prefecture":"東京都","prefecture_kana":"トウキョウト","city":"港区","city_kana":"ミナトク","town":"東新橋汐留メディアタワー　２６階","town_kana":"ヒガシシンバシシオドメメディアタワー26カイ","prefecture_code":13},"7227":{"zip_code":"1057227","prefecture":"東京都","prefecture_kana":"トウキョウト","city":"港区","city_kana":"ミナトク","town":"東新橋汐留メディアタワー　２７階","town_kana":"ヒガシシンバシシオドメメディアタワー27カイ","prefecture_code":13},"7228":{"zip_code":"1057228","prefecture":"東京都","prefecture_kana":"トウキョウト","city":"港区","city_kana":"ミナトク","town":"東新橋汐留メディアタワー　２８階","town_kana":"ヒガシシンバシシオドメメディアタワー28カイ","prefecture_code":13},"7229":{"zip_code":"1057229","prefecture":"東京都","prefecture_kana":"トウキョウト","city":"港区","city_kana":"ミナトク","town":"東新橋汐留メディアタワー　２９階","town_kana":"ヒガシシンバシシオドメメディアタワー29カイ","prefecture_code":13},"7230":{"zip_code":"1057230","prefecture":"東京都","prefecture_kana":"トウキョウト","city":"港区","city_kana":"ミナトク","town":"東新橋汐留メディアタワー　３０階","town_kana":"ヒガシシンバシシオドメメディアタワー30カイ","prefecture_code":13},"7231":{"zip_code":"1057231","prefecture":"東京都","prefecture_kana":"トウキョウト","city":"港区","city_kana":"ミナトク","town":"東新橋汐留メディアタワー　３１階","town_kana":"ヒガシシンバシシオドメメディアタワー31カイ","prefecture_code":13},"7232":{"zip_code":"1057232","prefecture":"東京都","prefecture_kana":"トウキョウト","city":"港区","city_kana":"ミナトク","town":"東新橋汐留メディアタワー　３２階","town_kana":"ヒガシシンバシシオドメメディアタワー32カイ","prefecture_code":13},"7233":{"zip_code":"1057233","prefecture":"東京都","prefecture_kana":"トウキョウト","city":"港区","city_kana":"ミナトク","town":"東新橋汐留メディアタワー　３３階","town_kana":"ヒガシシンバシシオドメメディアタワー33カイ","prefecture_code":13},"7234":{"zip_code":"1057234","prefecture":"東京都","prefecture_kana":"トウキョウト","city":"港区","city_kana":"ミナトク","town":"東新橋汐留メディアタワー　３４階","town_kana":"ヒガシシンバシシオドメメディアタワー34カイ","prefecture_code":13},"7090":{"zip_code":"1057090","prefecture":"東京都","prefecture_kana":"トウキョウト","city":"港区","city_kana":"ミナトク","town":"東新橋電通本社ビル","town_kana":"ヒガシシンバシデンツウホンシャビル","prefecture_code":13},"7001":{"zip_code":"1057001","prefecture":"東京都","prefecture_kana":"トウキョウト","city":"港区","city_kana":"ミナトク","town":"東新橋電通本社ビル　１階","town_kana":"ヒガシシンバシデンツウホンシャビル1カイ","prefecture_code":13},"7002":{"zip_code":"1057002","prefecture":"東京都","prefecture_kana":"トウキョウト","city":"港区","city_kana":"ミナトク","town":"東新橋電通本社ビル　２階","town_kana":"ヒガシシンバシデンツウホンシャビル2カイ","prefecture_code":13},"7003":{"zip_code":"1057003","prefecture":"東京都","prefecture_kana":"トウキョウト","city":"港区","city_kana":"ミナトク","town":"東新橋電通本社ビル　３階","town_kana":"ヒガシシンバシデンツウホンシャビル3カイ","prefecture_code":13},"7004":{"zip_code":"1057004","prefecture":"東京都","prefecture_kana":"トウキョウト","city":"港区","city_kana":"ミナトク","town":"東新橋電通本社ビル　４階","town_kana":"ヒガシシンバシデンツウホンシャビル4カイ","prefecture_code":13},"7005":{"zip_code":"1057005","prefecture":"東京都","prefecture_kana":"トウキョウト","city":"港区","city_kana":"ミナトク","town":"東新橋電通本社ビル　５階","town_kana":"ヒガシシンバシデンツウホンシャビル5カイ","prefecture_code":13},"7006":{"zip_code":"1057006","prefecture":"東京都","prefecture_kana":"トウキョウト","city":"港区","city_kana":"ミナトク","town":"東新橋電通本社ビル　６階","town_kana":"ヒガシシンバシデンツウホンシャビル6カイ","prefecture_code":13},"7007":{"zip_code":"1057007","prefecture":"東京都","prefecture_kana":"トウキョウト","city":"港区","city_kana":"ミナトク","town":"東新橋電通本社ビル　７階","town_kana":"ヒガシシンバシデンツウホンシャビル7カイ","prefecture_code":13},"7008":{"zip_code":"1057008","prefecture":"東京都","prefecture_kana":"トウキョウト","city":"港区","city_kana":"ミナトク","town":"東新橋電通本社ビル　８階","town_kana":"ヒガシシンバシデンツウホンシャビル8カイ","prefecture_code":13},"7009":{"zip_code":"1057009","prefecture":"東京都","prefecture_kana":"トウキョウト","city":"港区","city_kana":"ミナトク","town":"東新橋電通本社ビル　９階","town_kana":"ヒガシシンバシデンツウホンシャビル9カイ","prefecture_code":13},"7010":{"zip_code":"1057010","prefecture":"東京都","prefecture_kana":"トウキョウト","city":"港区","city_kana":"ミナトク","town":"東新橋電通本社ビル　１０階","town_kana":"ヒガシシンバシデンツウホンシャビル10カイ","prefecture_code":13},"7011":{"zip_code":"1057011","prefecture":"東京都","prefecture_kana":"トウキョウト","city":"港区","city_kana":"ミナトク","town":"東新橋電通本社ビル　１１階","town_kana":"ヒガシシンバシデンツウホンシャビル11カイ","prefecture_code":13},"7012":{"zip_code":"1057012","prefecture":"東京都","prefecture_kana":"トウキョウト","city":"港区","city_kana":"ミナトク","town":"東新橋電通本社ビル　１２階","town_kana":"ヒガシシンバシデンツウホンシャビル12カイ","prefecture_code":13},"7013":{"zip_code":"1057013","prefecture":"東京都","prefecture_kana":"トウキョウト","city":"港区","city_kana":"ミナトク","town":"東新橋電通本社ビル　１３階","town_kana":"ヒガシシンバシデンツウホンシャビル13カイ","prefecture_code":13},"7014":{"zip_code":"1057014","prefecture":"東京都","prefecture_kana":"トウキョウト","city":"港区","city_kana":"ミナトク","town":"東新橋電通本社ビル　１４階","town_kana":"ヒガシシンバシデンツウホンシャビル14カイ","prefecture_code":13},"7015":{"zip_code":"1057015","prefecture":"東京都","prefecture_kana":"トウキョウト","city":"港区","city_kana":"ミナトク","town":"東新橋電通本社ビル　１５階","town_kana":"ヒガシシンバシデンツウホンシャビル15カイ","prefecture_code":13},"7016":{"zip_code":"1057016","prefecture":"東京都","prefecture_kana":"トウキョウト","city":"港区","city_kana":"ミナトク","town":"東新橋電通本社ビル　１６階","town_kana":"ヒガシシンバシデンツウホンシャビル16カイ","prefecture_code":13},"7017":{"zip_code":"1057017","prefecture":"東京都","prefecture_kana":"トウキョウト","city":"港区","city_kana":"ミナトク","town":"東新橋電通本社ビル　１７階","town_kana":"ヒガシシンバシデンツウホンシャビル17カイ","prefecture_code":13},"7018":{"zip_code":"1057018","prefecture":"東京都","prefecture_kana":"トウキョウト","city":"港区","city_kana":"ミナトク","town":"東新橋電通本社ビル　１８階","town_kana":"ヒガシシンバシデンツウホンシャビル18カイ","prefecture_code":13},"7019":{"zip_code":"1057019","prefecture":"東京都","prefecture_kana":"トウキョウト","city":"港区","city_kana":"ミナトク","town":"東新橋電通本社ビル　１９階","town_kana":"ヒガシシンバシデンツウホンシャビル19カイ","prefecture_code":13},"7020":{"zip_code":"1057020","prefecture":"東京都","prefecture_kana":"トウキョウト","city":"港区","city_kana":"ミナトク","town":"東新橋電通本社ビル　２０階","town_kana":"ヒガシシンバシデンツウホンシャビル20カイ","prefecture_code":13},"7021":{"zip_code":"1057021","prefecture":"東京都","prefecture_kana":"トウキョウト","city":"港区","city_kana":"ミナトク","town":"東新橋電通本社ビル　２１階","town_kana":"ヒガシシンバシデンツウホンシャビル21カイ","prefecture_code":13},"7022":{"zip_code":"1057022","prefecture":"東京都","prefecture_kana":"トウキョウト","city":"港区","city_kana":"ミナトク","town":"東新橋電通本社ビル　２２階","town_kana":"ヒガシシンバシデンツウホンシャビル22カイ","prefecture_code":13},"7023":{"zip_code":"1057023","prefecture":"東京都","prefecture_kana":"トウキョウト","city":"港区","city_kana":"ミナトク","town":"東新橋電通本社ビル　２３階","town_kana":"ヒガシシンバシデンツウホンシャビル23カイ","prefecture_code":13},"7024":{"zip_code":"1057024","prefecture":"東京都","prefecture_kana":"トウキョウト","city":"港区","city_kana":"ミナトク","town":"東新橋電通本社ビル　２４階","town_kana":"ヒガシシンバシデンツウホンシャビル24カイ","prefecture_code":13},"7025":{"zip_code":"1057025","prefecture":"東京都","prefecture_kana":"トウキョウト","city":"港区","city_kana":"ミナトク","town":"東新橋電通本社ビル　２５階","town_kana":"ヒガシシンバシデンツウホンシャビル25カイ","prefecture_code":13},"7026":{"zip_code":"1057026","prefecture":"東京都","prefecture_kana":"トウキョウト","city":"港区","city_kana":"ミナトク","town":"東新橋電通本社ビル　２６階","town_kana":"ヒガシシンバシデンツウホンシャビル26カイ","prefecture_code":13},"7027":{"zip_code":"1057027","prefecture":"東京都","prefecture_kana":"トウキョウト","city":"港区","city_kana":"ミナトク","town":"東新橋電通本社ビル　２７階","town_kana":"ヒガシシンバシデンツウホンシャビル27カイ","prefecture_code":13},"7028":{"zip_code":"1057028","prefecture":"東京都","prefecture_kana":"トウキョウト","city":"港区","city_kana":"ミナトク","town":"東新橋電通本社ビル　２８階","town_kana":"ヒガシシンバシデンツウホンシャビル28カイ","prefecture_code":13},"7029":{"zip_code":"1057029","prefecture":"東京都","prefecture_kana":"トウキョウト","city":"港区","city_kana":"ミナトク","town":"東新橋電通本社ビル　２９階","town_kana":"ヒガシシンバシデンツウホンシャビル29カイ","prefecture_code":13},"7030":{"zip_code":"1057030","prefecture":"東京都","prefecture_kana":"トウキョウト","city":"港区","city_kana":"ミナトク","town":"東新橋電通本社ビル　３０階","town_kana":"ヒガシシンバシデンツウホンシャビル30カイ","prefecture_code":13},"7031":{"zip_code":"1057031","prefecture":"東京都","prefecture_kana":"トウキョウト","city":"港区","city_kana":"ミナトク","town":"東新橋電通本社ビル　３１階","town_kana":"ヒガシシンバシデンツウホンシャビル31カイ","prefecture_code":13},"7032":{"zip_code":"1057032","prefecture":"東京都","prefecture_kana":"トウキョウト","city":"港区","city_kana":"ミナトク","town":"東新橋電通本社ビル　３２階","town_kana":"ヒガシシンバシデンツウホンシャビル32カイ","prefecture_code":13},"7033":{"zip_code":"1057033","prefecture":"東京都","prefecture_kana":"トウキョウト","city":"港区","city_kana":"ミナトク","town":"東新橋電通本社ビル　３３階","town_kana":"ヒガシシンバシデンツウホンシャビル33カイ","prefecture_code":13},"7034":{"zip_code":"1057034","prefecture":"東京都","prefecture_kana":"トウキョウト","city":"港区","city_kana":"ミナトク","town":"東新橋電通本社ビル　３４階","town_kana":"ヒガシシンバシデンツウホンシャビル34カイ","prefecture_code":13},"7035":{"zip_code":"1057035","prefecture":"東京都","prefecture_kana":"トウキョウト","city":"港区","city_kana":"ミナトク","town":"東新橋電通本社ビル　３５階","town_kana":"ヒガシシンバシデンツウホンシャビル35カイ","prefecture_code":13},"7036":{"zip_code":"1057036","prefecture":"東京都","prefecture_kana":"トウキョウト","city":"港区","city_kana":"ミナトク","town":"東新橋電通本社ビル　３６階","town_kana":"ヒガシシンバシデンツウホンシャビル36カイ","prefecture_code":13},"7037":{"zip_code":"1057037","prefecture":"東京都","prefecture_kana":"トウキョウト","city":"港区","city_kana":"ミナトク","town":"東新橋電通本社ビル　３７階","town_kana":"ヒガシシンバシデンツウホンシャビル37カイ","prefecture_code":13},"7038":{"zip_code":"1057038","prefecture":"東京都","prefecture_kana":"トウキョウト","city":"港区","city_kana":"ミナトク","town":"東新橋電通本社ビル　３８階","town_kana":"ヒガシシンバシデンツウホンシャビル38カイ","prefecture_code":13},"7039":{"zip_code":"1057039","prefecture":"東京都","prefecture_kana":"トウキョウト","city":"港区","city_kana":"ミナトク","town":"東新橋電通本社ビル　３９階","town_kana":"ヒガシシンバシデンツウホンシャビル39カイ","prefecture_code":13},"7040":{"zip_code":"1057040","prefecture":"東京都","prefecture_kana":"トウキョウト","city":"港区","city_kana":"ミナトク","town":"東新橋電通本社ビル　４０階","town_kana":"ヒガシシンバシデンツウホンシャビル40カイ","prefecture_code":13},"7041":{"zip_code":"1057041","prefecture":"東京都","prefecture_kana":"トウキョウト","city":"港区","city_kana":"ミナトク","town":"東新橋電通本社ビル　４１階","town_kana":"ヒガシシンバシデンツウホンシャビル41カイ","prefecture_code":13},"7042":{"zip_code":"1057042","prefecture":"東京都","prefecture_kana":"トウキョウト","city":"港区","city_kana":"ミナトク","town":"東新橋電通本社ビル　４２階","town_kana":"ヒガシシンバシデンツウホンシャビル42カイ","prefecture_code":13},"7043":{"zip_code":"1057043","prefecture":"東京都","prefecture_kana":"トウキョウト","city":"港区","city_kana":"ミナトク","town":"東新橋電通本社ビル　４３階","town_kana":"ヒガシシンバシデンツウホンシャビル43カイ","prefecture_code":13},"7044":{"zip_code":"1057044","prefecture":"東京都","prefecture_kana":"トウキョウト","city":"港区","city_kana":"ミナトク","town":"東新橋電通本社ビル　４４階","town_kana":"ヒガシシンバシデンツウホンシャビル44カイ","prefecture_code":13},"7045":{"zip_code":"1057045","prefecture":"東京都","prefecture_kana":"トウキョウト","city":"港区","city_kana":"ミナトク","town":"東新橋電通本社ビル　４５階","town_kana":"ヒガシシンバシデンツウホンシャビル45カイ","prefecture_code":13},"7046":{"zip_code":"1057046","prefecture":"東京都","prefecture_kana":"トウキョウト","city":"港区","city_kana":"ミナトク","town":"東新橋電通本社ビル　４６階","town_kana":"ヒガシシンバシデンツウホンシャビル46カイ","prefecture_code":13},"7047":{"zip_code":"1057047","prefecture":"東京都","prefecture_kana":"トウキョウト","city":"港区","city_kana":"ミナトク","town":"東新橋電通本社ビル　４７階","town_kana":"ヒガシシンバシデンツウホンシャビル47カイ","prefecture_code":13},"7390":{"zip_code":"1057390","prefecture":"東京都","prefecture_kana":"トウキョウト","city":"港区","city_kana":"ミナトク","town":"東新橋東京汐留ビルディング","town_kana":"ヒガシシンバシトウキョウシオドメビルディング","prefecture_code":13},"7301":{"zip_code":"1057301","prefecture":"東京都","prefecture_kana":"トウキョウト","city":"港区","city_kana":"ミナトク","town":"東新橋東京汐留ビルディング　１階","town_kana":"ヒガシシンバシトウキョウシオドメビルディング1カイ","prefecture_code":13},"7302":{"zip_code":"1057302","prefecture":"東京都","prefecture_kana":"トウキョウト","city":"港区","city_kana":"ミナトク","town":"東新橋東京汐留ビルディング　２階","town_kana":"ヒガシシンバシトウキョウシオドメビルディング2カイ","prefecture_code":13},"7303":{"zip_code":"1057303","prefecture":"東京都","prefecture_kana":"トウキョウト","city":"港区","city_kana":"ミナトク","town":"東新橋東京汐留ビルディング　３階","town_kana":"ヒガシシンバシトウキョウシオドメビルディング3カイ","prefecture_code":13},"7304":{"zip_code":"1057304","prefecture":"東京都","prefecture_kana":"トウキョウト","city":"港区","city_kana":"ミナトク","town":"東新橋東京汐留ビルディング　４階","town_kana":"ヒガシシンバシトウキョウシオドメビルディング4カイ","prefecture_code":13},"7305":{"zip_code":"1057305","prefecture":"東京都","prefecture_kana":"トウキョウト","city":"港区","city_kana":"ミナトク","town":"東新橋東京汐留ビルディング　５階","town_kana":"ヒガシシンバシトウキョウシオドメビルディング5カイ","prefecture_code":13},"7306":{"zip_code":"1057306","prefecture":"東京都","prefecture_kana":"トウキョウト","city":"港区","city_kana":"ミナトク","town":"東新橋東京汐留ビルディング　６階","town_kana":"ヒガシシンバシトウキョウシオドメビルディング6カイ","prefecture_code":13},"7307":{"zip_code":"1057307","prefecture":"東京都","prefecture_kana":"トウキョウト","city":"港区","city_kana":"ミナトク","town":"東新橋東京汐留ビルディング　７階","town_kana":"ヒガシシンバシトウキョウシオドメビルディング7カイ","prefecture_code":13},"7308":{"zip_code":"1057308","prefecture":"東京都","prefecture_kana":"トウキョウト","city":"港区","city_kana":"ミナトク","town":"東新橋東京汐留ビルディング　８階","town_kana":"ヒガシシンバシトウキョウシオドメビルディング8カイ","prefecture_code":13},"7309":{"zip_code":"1057309","prefecture":"東京都","prefecture_kana":"トウキョウト","city":"港区","city_kana":"ミナトク","town":"東新橋東京汐留ビルディング　９階","town_kana":"ヒガシシンバシトウキョウシオドメビルディング9カイ","prefecture_code":13},"7310":{"zip_code":"1057310","prefecture":"東京都","prefecture_kana":"トウキョウト","city":"港区","city_kana":"ミナトク","town":"東新橋東京汐留ビルディング　１０階","town_kana":"ヒガシシンバシトウキョウシオドメビルディング10カイ","prefecture_code":13},"7311":{"zip_code":"1057311","prefecture":"東京都","prefecture_kana":"トウキョウト","city":"港区","city_kana":"ミナトク","town":"東新橋東京汐留ビルディング　１１階","town_kana":"ヒガシシンバシトウキョウシオドメビルディング11カイ","prefecture_code":13},"7312":{"zip_code":"1057312","prefecture":"東京都","prefecture_kana":"トウキョウト","city":"港区","city_kana":"ミナトク","town":"東新橋東京汐留ビルディング　１２階","town_kana":"ヒガシシンバシトウキョウシオドメビルディング12カイ","prefecture_code":13},"7313":{"zip_code":"1057313","prefecture":"東京都","prefecture_kana":"トウキョウト","city":"港区","city_kana":"ミナトク","town":"東新橋東京汐留ビルディング　１３階","town_kana":"ヒガシシンバシトウキョウシオドメビルディング13カイ","prefecture_code":13},"7314":{"zip_code":"1057314","prefecture":"東京都","prefecture_kana":"トウキョウト","city":"港区","city_kana":"ミナトク","town":"東新橋東京汐留ビルディング　１４階","town_kana":"ヒガシシンバシトウキョウシオドメビルディング14カイ","prefecture_code":13},"7315":{"zip_code":"1057315","prefecture":"東京都","prefecture_kana":"トウキョウト","city":"港区","city_kana":"ミナトク","town":"東新橋東京汐留ビルディング　１５階","town_kana":"ヒガシシンバシトウキョウシオドメビルディング15カイ","prefecture_code":13},"7316":{"zip_code":"1057316","prefecture":"東京都","prefecture_kana":"トウキョウト","city":"港区","city_kana":"ミナトク","town":"東新橋東京汐留ビルディング　１６階","town_kana":"ヒガシシンバシトウキョウシオドメビルディング16カイ","prefecture_code":13},"7317":{"zip_code":"1057317","prefecture":"東京都","prefecture_kana":"トウキョウト","city":"港区","city_kana":"ミナトク","town":"東新橋東京汐留ビルディング　１７階","town_kana":"ヒガシシンバシトウキョウシオドメビルディング17カイ","prefecture_code":13},"7318":{"zip_code":"1057318","prefecture":"東京都","prefecture_kana":"トウキョウト","city":"港区","city_kana":"ミナトク","town":"東新橋東京汐留ビルディング　１８階","town_kana":"ヒガシシンバシトウキョウシオドメビルディング18カイ","prefecture_code":13},"7319":{"zip_code":"1057319","prefecture":"東京都","prefecture_kana":"トウキョウト","city":"港区","city_kana":"ミナトク","town":"東新橋東京汐留ビルディング　１９階","town_kana":"ヒガシシンバシトウキョウシオドメビルディング19カイ","prefecture_code":13},"7320":{"zip_code":"1057320","prefecture":"東京都","prefecture_kana":"トウキョウト","city":"港区","city_kana":"ミナトク","town":"東新橋東京汐留ビルディング　２０階","town_kana":"ヒガシシンバシトウキョウシオドメビルディング20カイ","prefecture_code":13},"7321":{"zip_code":"1057321","prefecture":"東京都","prefecture_kana":"トウキョウト","city":"港区","city_kana":"ミナトク","town":"東新橋東京汐留ビルディング　２１階","town_kana":"ヒガシシンバシトウキョウシオドメビルディング21カイ","prefecture_code":13},"7322":{"zip_code":"1057322","prefecture":"東京都","prefecture_kana":"トウキョウト","city":"港区","city_kana":"ミナトク","town":"東新橋東京汐留ビルディング　２２階","town_kana":"ヒガシシンバシトウキョウシオドメビルディング22カイ","prefecture_code":13},"7323":{"zip_code":"1057323","prefecture":"東京都","prefecture_kana":"トウキョウト","city":"港区","city_kana":"ミナトク","town":"東新橋東京汐留ビルディング　２３階","town_kana":"ヒガシシンバシトウキョウシオドメビルディング23カイ","prefecture_code":13},"7324":{"zip_code":"1057324","prefecture":"東京都","prefecture_kana":"トウキョウト","city":"港区","city_kana":"ミナトク","town":"東新橋東京汐留ビルディング　２４階","town_kana":"ヒガシシンバシトウキョウシオドメビルディング24カイ","prefecture_code":13},"7325":{"zip_code":"1057325","prefecture":"東京都","prefecture_kana":"トウキョウト","city":"港区","city_kana":"ミナトク","town":"東新橋東京汐留ビルディング　２５階","town_kana":"ヒガシシンバシトウキョウシオドメビルディング25カイ","prefecture_code":13},"7326":{"zip_code":"1057326","prefecture":"東京都","prefecture_kana":"トウキョウト","city":"港区","city_kana":"ミナトク","town":"東新橋東京汐留ビルディング　２６階","town_kana":"ヒガシシンバシトウキョウシオドメビルディング26カイ","prefecture_code":13},"7327":{"zip_code":"1057327","prefecture":"東京都","prefecture_kana":"トウキョウト","city":"港区","city_kana":"ミナトク","town":"東新橋東京汐留ビルディング　２７階","town_kana":"ヒガシシンバシトウキョウシオドメビルディング27カイ","prefecture_code":13},"7328":{"zip_code":"1057328","prefecture":"東京都","prefecture_kana":"トウキョウト","city":"港区","city_kana":"ミナトク","town":"東新橋東京汐留ビルディング　２８階","town_kana":"ヒガシシンバシトウキョウシオドメビルディング28カイ","prefecture_code":13},"7329":{"zip_code":"1057329","prefecture":"東京都","prefecture_kana":"トウキョウト","city":"港区","city_kana":"ミナトク","town":"東新橋東京汐留ビルディング　２９階","town_kana":"ヒガシシンバシトウキョウシオドメビルディング29カイ","prefecture_code":13},"7330":{"zip_code":"1057330","prefecture":"東京都","prefecture_kana":"トウキョウト","city":"港区","city_kana":"ミナトク","town":"東新橋東京汐留ビルディング　３０階","town_kana":"ヒガシシンバシトウキョウシオドメビルディング30カイ","prefecture_code":13},"7331":{"zip_code":"1057331","prefecture":"東京都","prefecture_kana":"トウキョウト","city":"港区","city_kana":"ミナトク","town":"東新橋東京汐留ビルディング　３１階","town_kana":"ヒガシシンバシトウキョウシオドメビルディング31カイ","prefecture_code":13},"7332":{"zip_code":"1057332","prefecture":"東京都","prefecture_kana":"トウキョウト","city":"港区","city_kana":"ミナトク","town":"東新橋東京汐留ビルディング　３２階","town_kana":"ヒガシシンバシトウキョウシオドメビルディング32カイ","prefecture_code":13},"7333":{"zip_code":"1057333","prefecture":"東京都","prefecture_kana":"トウキョウト","city":"港区","city_kana":"ミナトク","town":"東新橋東京汐留ビルディング　３３階","town_kana":"ヒガシシンバシトウキョウシオドメビルディング33カイ","prefecture_code":13},"7334":{"zip_code":"1057334","prefecture":"東京都","prefecture_kana":"トウキョウト","city":"港区","city_kana":"ミナトク","town":"東新橋東京汐留ビルディング　３４階","town_kana":"ヒガシシンバシトウキョウシオドメビルディング34カイ","prefecture_code":13},"7335":{"zip_code":"1057335","prefecture":"東京都","prefecture_kana":"トウキョウト","city":"港区","city_kana":"ミナトク","town":"東新橋東京汐留ビルディング　３５階","town_kana":"ヒガシシンバシトウキョウシオドメビルディング35カイ","prefecture_code":13},"7336":{"zip_code":"1057336","prefecture":"東京都","prefecture_kana":"トウキョウト","city":"港区","city_kana":"ミナトク","town":"東新橋東京汐留ビルディング　３６階","town_kana":"ヒガシシンバシトウキョウシオドメビルディング36カイ","prefecture_code":13},"7337":{"zip_code":"1057337","prefecture":"東京都","prefecture_kana":"トウキョウト","city":"港区","city_kana":"ミナトク","town":"東新橋東京汐留ビルディング　３７階","town_kana":"ヒガシシンバシトウキョウシオドメビルディング37カイ","prefecture_code":13},"7490":{"zip_code":"1057490","prefecture":"東京都","prefecture_kana":"トウキョウト","city":"港区","city_kana":"ミナトク","town":"東新橋日本テレビタワー","town_kana":"ヒガシシンバシニホンテレビタワー","prefecture_code":13},"7401":{"zip_code":"1057401","prefecture":"東京都","prefecture_kana":"トウキョウト","city":"港区","city_kana":"ミナトク","town":"東新橋日本テレビタワー　１階","town_kana":"ヒガシシンバシニホンテレビタワー1カイ","prefecture_code":13},"7402":{"zip_code":"1057402","prefecture":"東京都","prefecture_kana":"トウキョウト","city":"港区","city_kana":"ミナトク","town":"東新橋日本テレビタワー　２階","town_kana":"ヒガシシンバシニホンテレビタワー2カイ","prefecture_code":13},"7403":{"zip_code":"1057403","prefecture":"東京都","prefecture_kana":"トウキョウト","city":"港区","city_kana":"ミナトク","town":"東新橋日本テレビタワー　３階","town_kana":"ヒガシシンバシニホンテレビタワー3カイ","prefecture_code":13},"7404":{"zip_code":"1057404","prefecture":"東京都","prefecture_kana":"トウキョウト","city":"港区","city_kana":"ミナトク","town":"東新橋日本テレビタワー　４階","town_kana":"ヒガシシンバシニホンテレビタワー4カイ","prefecture_code":13},"7405":{"zip_code":"1057405","prefecture":"東京都","prefecture_kana":"トウキョウト","city":"港区","city_kana":"ミナトク","town":"東新橋日本テレビタワー　５階","town_kana":"ヒガシシンバシニホンテレビタワー5カイ","prefecture_code":13},"7406":{"zip_code":"1057406","prefecture":"東京都","prefecture_kana":"トウキョウト","city":"港区","city_kana":"ミナトク","town":"東新橋日本テレビタワー　６階","town_kana":"ヒガシシンバシニホンテレビタワー6カイ","prefecture_code":13},"7407":{"zip_code":"1057407","prefecture":"東京都","prefecture_kana":"トウキョウト","city":"港区","city_kana":"ミナトク","town":"東新橋日本テレビタワー　７階","town_kana":"ヒガシシンバシニホンテレビタワー7カイ","prefecture_code":13},"7408":{"zip_code":"1057408","prefecture":"東京都","prefecture_kana":"トウキョウト","city":"港区","city_kana":"ミナトク","town":"東新橋日本テレビタワー　８階","town_kana":"ヒガシシンバシニホンテレビタワー8カイ","prefecture_code":13},"7409":{"zip_code":"1057409","prefecture":"東京都","prefecture_kana":"トウキョウト","city":"港区","city_kana":"ミナトク","town":"東新橋日本テレビタワー　９階","town_kana":"ヒガシシンバシニホンテレビタワー9カイ","prefecture_code":13},"7410":{"zip_code":"1057410","prefecture":"東京都","prefecture_kana":"トウキョウト","city":"港区","city_kana":"ミナトク","town":"東新橋日本テレビタワー　１０階","town_kana":"ヒガシシンバシニホンテレビタワー10カイ","prefecture_code":13},"7411":{"zip_code":"1057411","prefecture":"東京都","prefecture_kana":"トウキョウト","city":"港区","city_kana":"ミナトク","town":"東新橋日本テレビタワー　１１階","town_kana":"ヒガシシンバシニホンテレビタワー11カイ","prefecture_code":13},"7412":{"zip_code":"1057412","prefecture":"東京都","prefecture_kana":"トウキョウト","city":"港区","city_kana":"ミナトク","town":"東新橋日本テレビタワー　１２階","town_kana":"ヒガシシンバシニホンテレビタワー12カイ","prefecture_code":13},"7413":{"zip_code":"1057413","prefecture":"東京都","prefecture_kana":"トウキョウト","city":"港区","city_kana":"ミナトク","town":"東新橋日本テレビタワー　１３階","town_kana":"ヒガシシンバシニホンテレビタワー13カイ","prefecture_code":13},"7414":{"zip_code":"1057414","prefecture":"東京都","prefecture_kana":"トウキョウト","city":"港区","city_kana":"ミナトク","town":"東新橋日本テレビタワー　１４階","town_kana":"ヒガシシンバシニホンテレビタワー14カイ","prefecture_code":13},"7415":{"zip_code":"1057415","prefecture":"東京都","prefecture_kana":"トウキョウト","city":"港区","city_kana":"ミナトク","town":"東新橋日本テレビタワー　１５階","town_kana":"ヒガシシンバシニホンテレビタワー15カイ","prefecture_code":13},"7416":{"zip_code":"1057416","prefecture":"東京都","prefecture_kana":"トウキョウト","city":"港区","city_kana":"ミナトク","town":"東新橋日本テレビタワー　１６階","town_kana":"ヒガシシンバシニホンテレビタワー16カイ","prefecture_code":13},"7417":{"zip_code":"1057417","prefecture":"東京都","prefecture_kana":"トウキョウト","city":"港区","city_kana":"ミナトク","town":"東新橋日本テレビタワー　１７階","town_kana":"ヒガシシンバシニホンテレビタワー17カイ","prefecture_code":13},"7418":{"zip_code":"1057418","prefecture":"東京都","prefecture_kana":"トウキョウト","city":"港区","city_kana":"ミナトク","town":"東新橋日本テレビタワー　１８階","town_kana":"ヒガシシンバシニホンテレビタワー18カイ","prefecture_code":13},"7419":{"zip_code":"1057419","prefecture":"東京都","prefecture_kana":"トウキョウト","city":"港区","city_kana":"ミナトク","town":"東新橋日本テレビタワー　１９階","town_kana":"ヒガシシンバシニホンテレビタワー19カイ","prefecture_code":13},"7420":{"zip_code":"1057420","prefecture":"東京都","prefecture_kana":"トウキョウト","city":"港区","city_kana":"ミナトク","town":"東新橋日本テレビタワー　２０階","town_kana":"ヒガシシンバシニホンテレビタワー20カイ","prefecture_code":13},"7421":{"zip_code":"1057421","prefecture":"東京都","prefecture_kana":"トウキョウト","city":"港区","city_kana":"ミナトク","town":"東新橋日本テレビタワー　２１階","town_kana":"ヒガシシンバシニホンテレビタワー21カイ","prefecture_code":13},"7422":{"zip_code":"1057422","prefecture":"東京都","prefecture_kana":"トウキョウト","city":"港区","city_kana":"ミナトク","town":"東新橋日本テレビタワー　２２階","town_kana":"ヒガシシンバシニホンテレビタワー22カイ","prefecture_code":13},"7423":{"zip_code":"1057423","prefecture":"東京都","prefecture_kana":"トウキョウト","city":"港区","city_kana":"ミナトク","town":"東新橋日本テレビタワー　２３階","town_kana":"ヒガシシンバシニホンテレビタワー23カイ","prefecture_code":13},"7424":{"zip_code":"1057424","prefecture":"東京都","prefecture_kana":"トウキョウト","city":"港区","city_kana":"ミナトク","town":"東新橋日本テレビタワー　２４階","town_kana":"ヒガシシンバシニホンテレビタワー24カイ","prefecture_code":13},"7425":{"zip_code":"1057425","prefecture":"東京都","prefecture_kana":"トウキョウト","city":"港区","city_kana":"ミナトク","town":"東新橋日本テレビタワー　２５階","town_kana":"ヒガシシンバシニホンテレビタワー25カイ","prefecture_code":13},"7426":{"zip_code":"1057426","prefecture":"東京都","prefecture_kana":"トウキョウト","city":"港区","city_kana":"ミナトク","town":"東新橋日本テレビタワー　２６階","town_kana":"ヒガシシンバシニホンテレビタワー26カイ","prefecture_code":13},"7427":{"zip_code":"1057427","prefecture":"東京都","prefecture_kana":"トウキョウト","city":"港区","city_kana":"ミナトク","town":"東新橋日本テレビタワー　２７階","town_kana":"ヒガシシンバシニホンテレビタワー27カイ","prefecture_code":13},"7428":{"zip_code":"1057428","prefecture":"東京都","prefecture_kana":"トウキョウト","city":"港区","city_kana":"ミナトク","town":"東新橋日本テレビタワー　２８階","town_kana":"ヒガシシンバシニホンテレビタワー28カイ","prefecture_code":13},"7429":{"zip_code":"1057429","prefecture":"東京都","prefecture_kana":"トウキョウト","city":"港区","city_kana":"ミナトク","town":"東新橋日本テレビタワー　２９階","town_kana":"ヒガシシンバシニホンテレビタワー29カイ","prefecture_code":13},"7430":{"zip_code":"1057430","prefecture":"東京都","prefecture_kana":"トウキョウト","city":"港区","city_kana":"ミナトク","town":"東新橋日本テレビタワー　３０階","town_kana":"ヒガシシンバシニホンテレビタワー30カイ","prefecture_code":13},"7431":{"zip_code":"1057431","prefecture":"東京都","prefecture_kana":"トウキョウト","city":"港区","city_kana":"ミナトク","town":"東新橋日本テレビタワー　３１階","town_kana":"ヒガシシンバシニホンテレビタワー31カイ","prefecture_code":13},"7432":{"zip_code":"1057432","prefecture":"東京都","prefecture_kana":"トウキョウト","city":"港区","city_kana":"ミナトク","town":"東新橋日本テレビタワー　３２階","town_kana":"ヒガシシンバシニホンテレビタワー32カイ","prefecture_code":13},"8002":{"zip_code":"1058002","prefecture":"東京都","city":"港区","town":"浜松町","prefecture_code":13},"8403":{"zip_code":"1058403","prefecture":"東京都","city":"港区","town":"虎ノ門","prefecture_code":13},"8550":{"zip_code":"1058550","prefecture":"東京都","city":"港区","town":"浜松町","prefecture_code":13},"8446":{"zip_code":"1058446","prefecture":"東京都","city":"港区","town":"西新橋","prefecture_code":13},"8485":{"zip_code":"1058485","prefecture":"東京都","city":"港区","town":"海岸","prefecture_code":13},"8666":{"zip_code":"1058666","prefecture":"東京都","city":"港区","town":"新橋","prefecture_code":13},"8430":{"zip_code":"1058430","prefecture":"東京都","city":"港区","town":"虎ノ門","prefecture_code":13},"8488":{"zip_code":"1058488","prefecture":"東京都","city":"港区","town":"西新橋","prefecture_code":13},"8458":{"zip_code":"1058458","prefecture":"東京都","city":"港区","town":"西新橋","prefecture_code":13},"8449":{"zip_code":"1058449","prefecture":"東京都","city":"港区","town":"芝浦","prefecture_code":13},"8537":{"zip_code":"1058537","prefecture":"東京都","city":"港区","town":"浜松町","prefecture_code":13},"8535":{"zip_code":"1058535","prefecture":"東京都","city":"港区","town":"海岸","prefecture_code":13},"8585":{"zip_code":"1058585","prefecture":"東京都","city":"港区","town":"芝大門","prefecture_code":13},"8654":{"zip_code":"1058654","prefecture":"東京都","city":"港区","town":"新橋","prefecture_code":13},"8677":{"zip_code":"1058677","prefecture":"東京都","city":"港区","town":"新橋","prefecture_code":13},"8584":{"zip_code":"1058584","prefecture":"東京都","city":"港区","town":"浜松町","prefecture_code":13},"8556":{"zip_code":"1058556","prefecture":"東京都","city":"港区","town":"芝大門","prefecture_code":13},"8460":{"zip_code":"1058460","prefecture":"東京都","city":"港区","town":"虎ノ門","prefecture_code":13},"8529":{"zip_code":"1058529","prefecture":"東京都","city":"港区","town":"虎ノ門","prefecture_code":13},"8589":{"zip_code":"1058589","prefecture":"東京都","city":"港区","town":"芝","prefecture_code":13},"8085":{"zip_code":"1058085","prefecture":"東京都","city":"港区","town":"虎ノ門","prefecture_code":13},"8615":{"zip_code":"1058615","prefecture":"東京都","city":"港区","town":"新橋","prefecture_code":13},"8005":{"zip_code":"1058005","prefecture":"東京都","city":"港区","town":"芝浦","prefecture_code":13},"8639":{"zip_code":"1058639","prefecture":"東京都","city":"港区","town":"虎ノ門","prefecture_code":13},"8634":{"zip_code":"1058634","prefecture":"東京都","city":"港区","town":"芝浦","prefecture_code":13},"8568":{"zip_code":"1058568","prefecture":"東京都","city":"港区","town":"芝公園","prefecture_code":13},"8543":{"zip_code":"1058543","prefecture":"東京都","city":"港区","town":"浜松町","prefecture_code":13},"8680":{"zip_code":"1058680","prefecture":"東京都","city":"港区","town":"虎ノ門","prefecture_code":13},"8557":{"zip_code":"1058557","prefecture":"東京都","city":"港区","town":"西新橋","prefecture_code":13},"8330":{"zip_code":"1058330","prefecture":"東京都","city":"港区","town":"海岸","prefecture_code":13},"8583":{"zip_code":"1058583","prefecture":"東京都","city":"港区","town":"新橋","prefecture_code":13},"8405":{"zip_code":"1058405","prefecture":"東京都","city":"港区","town":"虎ノ門","prefecture_code":13},"8455":{"zip_code":"1058455","prefecture":"東京都","city":"港区","town":"虎ノ門","prefecture_code":13},"8473":{"zip_code":"1058473","prefecture":"東京都","city":"港区","town":"虎ノ門","prefecture_code":13},"8687":{"zip_code":"1058687","prefecture":"東京都","city":"港区","town":"新橋","prefecture_code":13},"8603":{"zip_code":"1058603","prefecture":"東京都","city":"港区","town":"海岸","prefecture_code":13},"8626":{"zip_code":"1058626","prefecture":"東京都","city":"港区","town":"海岸","prefecture_code":13},"8320":{"zip_code":"1058320","prefecture":"東京都","city":"港区","town":"虎ノ門","prefecture_code":13},"8468":{"zip_code":"1058468","prefecture":"東京都","city":"港区","town":"浜松町","prefecture_code":13},"8642":{"zip_code":"1058642","prefecture":"東京都","city":"港区","town":"東新橋","prefecture_code":13},"8670":{"zip_code":"1058670","prefecture":"東京都","city":"港区","town":"新橋","prefecture_code":13},"8310":{"zip_code":"1058310","prefecture":"東京都","city":"港区","town":"東新橋","prefecture_code":13},"8688":{"zip_code":"1058688","prefecture":"東京都","city":"港区","town":"虎ノ門","prefecture_code":13},"8335":{"zip_code":"1058335","prefecture":"東京都","city":"港区","town":"芝","prefecture_code":13},"8407":{"zip_code":"1058407","prefecture":"東京都","city":"港区","town":"虎ノ門","prefecture_code":13},"6050":{"zip_code":"1056050","prefecture":"東京都","city":"港区","town":"虎ノ門","prefecture_code":13},"8415":{"zip_code":"1058415","prefecture":"東京都","city":"港区","town":"虎ノ門","prefecture_code":13},"7077":{"zip_code":"1057077","prefecture":"東京都","city":"港区","town":"東新橋","prefecture_code":13},"8678":{"zip_code":"1058678","prefecture":"東京都","city":"港区","town":"新橋","prefecture_code":13},"8001":{"zip_code":"1058001","prefecture":"東京都","city":"港区","town":"芝浦","prefecture_code":13},"8055":{"zip_code":"1058055","prefecture":"東京都","city":"港区","town":"芝大門","prefecture_code":13},"8429":{"zip_code":"1058429","prefecture":"東京都","city":"港区","town":"西新橋","prefecture_code":13},"8448":[{"zip_code":"1058448","prefecture":"東京都","city":"港区","town":"西新橋","prefecture_code":13},{"zip_code":"1058448","prefecture":"東京都","city":"港区","town":"西新橋","prefecture_code":13}],"8565":{"zip_code":"1058565","prefecture":"東京都","city":"港区","town":"虎ノ門","prefecture_code":13},"8436":{"zip_code":"1058436","prefecture":"東京都","city":"港区","town":"虎ノ門","prefecture_code":13},"8618":{"zip_code":"1058618","prefecture":"東京都","city":"港区","town":"東新橋","prefecture_code":13},"8534":{"zip_code":"1058534","prefecture":"東京都","city":"港区","town":"虎ノ門","prefecture_code":13},"8606":{"zip_code":"1058606","prefecture":"東京都","city":"港区","town":"新橋","prefecture_code":13},"8502":{"zip_code":"1058502","prefecture":"東京都","city":"港区","town":"虎ノ門","prefecture_code":13},"8545":{"zip_code":"1058545","prefecture":"東京都","city":"港区","town":"芝","prefecture_code":13},"8507":{"zip_code":"1058507","prefecture":"東京都","city":"港区","town":"芝","prefecture_code":13},"8580":{"zip_code":"1058580","prefecture":"東京都","city":"港区","town":"芝","prefecture_code":13},"8039":{"zip_code":"1058039","prefecture":"東京都","city":"港区","town":"西新橋","prefecture_code":13},"8717":{"zip_code":"1058717","prefecture":"東京都","city":"港区","town":"西新橋","prefecture_code":13},"8070":{"zip_code":"1058070","prefecture":"東京都","city":"港区","town":"芝浦","prefecture_code":13},"8576":{"zip_code":"1058576","prefecture":"東京都","city":"港区","town":"海岸","prefecture_code":13},"8416":{"zip_code":"1058416","prefecture":"東京都","city":"港区","town":"虎ノ門","prefecture_code":13},"8487":{"zip_code":"1058487","prefecture":"東京都","city":"港区","town":"虎ノ門","prefecture_code":13},"8611":{"zip_code":"1058611","prefecture":"東京都","city":"港区","town":"新橋","prefecture_code":13},"8660":{"zip_code":"1058660","prefecture":"東京都","city":"港区","town":"東新橋","prefecture_code":13},"8575":{"zip_code":"1058575","prefecture":"東京都","city":"港区","town":"芝浦","prefecture_code":13},"8008":{"zip_code":"1058008","prefecture":"東京都","city":"港区","town":"芝","prefecture_code":13},"8333":{"zip_code":"1058333","prefecture":"東京都","city":"港区","town":"東新橋","prefecture_code":13},"8315":{"zip_code":"1058315","prefecture":"東京都","city":"港区","town":"海岸","prefecture_code":13},"8483":{"zip_code":"1058483","prefecture":"東京都","city":"港区","town":"虎ノ門","prefecture_code":13},"8461":{"zip_code":"1058461","prefecture":"東京都","city":"港区","town":"西新橋","prefecture_code":13},"8088":{"zip_code":"1058088","prefecture":"東京都","city":"港区","town":"芝公園","prefecture_code":13},"8701":{"zip_code":"1058701","prefecture":"東京都","city":"港区","town":"芝公園","prefecture_code":13},"8702":{"zip_code":"1058702","prefecture":"東京都","city":"港区","town":"芝公園","prefecture_code":13},"8428":{"zip_code":"1058428","prefecture":"東京都","city":"港区","town":"西新橋","prefecture_code":13},"8604":{"zip_code":"1058604","prefecture":"東京都","city":"港区","town":"新橋","prefecture_code":13},"8588":{"zip_code":"1058588","prefecture":"東京都","city":"港区","town":"芝大門","prefecture_code":13},"8452":{"zip_code":"1058452","prefecture":"東京都","city":"港区","town":"虎ノ門","prefecture_code":13},"8465":{"zip_code":"1058465","prefecture":"東京都","city":"港区","town":"虎ノ門","prefecture_code":13},"8447":{"zip_code":"1058447","prefecture":"東京都","city":"港区","town":"虎ノ門","prefecture_code":13},"8524":{"zip_code":"1058524","prefecture":"東京都","city":"港区","town":"虎ノ門","prefecture_code":13},"8323":{"zip_code":"1058323","prefecture":"東京都","city":"港区","town":"芝浦","prefecture_code":13},"8302":{"zip_code":"1058302","prefecture":"東京都","city":"港区","town":"芝浦","prefecture_code":13},"8528":{"zip_code":"1058528","prefecture":"東京都","city":"港区","town":"芝浦","prefecture_code":13},"8303":{"zip_code":"1058303","prefecture":"東京都","city":"港区","town":"芝浦","prefecture_code":13},"8314":{"zip_code":"1058314","prefecture":"東京都","city":"港区","town":"芝浦","prefecture_code":13},"8331":{"zip_code":"1058331","prefecture":"東京都","city":"港区","town":"芝浦","prefecture_code":13},"8325":{"zip_code":"1058325","prefecture":"東京都","city":"港区","town":"芝浦","prefecture_code":13},"8304":{"zip_code":"1058304","prefecture":"東京都","city":"港区","town":"芝浦","prefecture_code":13},"8470":{"zip_code":"1058470","prefecture":"東京都","city":"港区","town":"虎ノ門","prefecture_code":13},"8482":{"zip_code":"1058482","prefecture":"東京都","city":"港区","town":"虎ノ門","prefecture_code":13},"8472":{"zip_code":"1058472","prefecture":"東京都","city":"港区","town":"愛宕","prefecture_code":13},"8441":{"zip_code":"1058441","prefecture":"東京都","city":"港区","town":"芝大門","prefecture_code":13},"8525":{"zip_code":"1058525","prefecture":"東京都","city":"港区","town":"海岸","prefecture_code":13},"8530":{"zip_code":"1058530","prefecture":"東京都","city":"港区","town":"芝大門","prefecture_code":13},"8522":{"zip_code":"1058522","prefecture":"東京都","city":"港区","town":"芝公園","prefecture_code":13},"8689":{"zip_code":"1058689","prefecture":"東京都","city":"港区","town":"芝大門","prefecture_code":13},"8432":{"zip_code":"1058432","prefecture":"東京都","city":"港区","town":"芝公園","prefecture_code":13},"8518":{"zip_code":"1058518","prefecture":"東京都","city":"港区","town":"芝大門","prefecture_code":13},"8424":{"zip_code":"1058424","prefecture":"東京都","city":"港区","town":"虎ノ門","prefecture_code":13},"8412":{"zip_code":"1058412","prefecture":"東京都","city":"港区","town":"西新橋","prefecture_code":13},"8640":{"zip_code":"1058640","prefecture":"東京都","city":"港区","town":"東新橋","prefecture_code":13},"8554":{"zip_code":"1058554","prefecture":"東京都","city":"港区","town":"浜松町","prefecture_code":13},"8716":{"zip_code":"1058716","prefecture":"東京都","city":"港区","town":"新橋","prefecture_code":13},"8509":{"zip_code":"1058509","prefecture":"東京都","city":"港区","town":"芝公園","prefecture_code":13},"8469":{"zip_code":"1058469","prefecture":"東京都","city":"港区","town":"芝浦","prefecture_code":13},"8423":{"zip_code":"1058423","prefecture":"東京都","city":"港区","town":"虎ノ門","prefecture_code":13},"8450":{"zip_code":"1058450","prefecture":"東京都","city":"港区","town":"虎ノ門","prefecture_code":13},"8559":{"zip_code":"1058559","prefecture":"東京都","city":"港区","town":"虎ノ門","prefecture_code":13},"8020":{"zip_code":"1058020","prefecture":"東京都","city":"港区","town":"虎ノ門","prefecture_code":13},"8523":{"zip_code":"1058523","prefecture":"東京都","city":"港区","town":"海岸","prefecture_code":13},"8544":{"zip_code":"1058544","prefecture":"東京都","city":"港区","town":"芝","prefecture_code":13},"8515":{"zip_code":"1058515","prefecture":"東京都","city":"港区","town":"芝","prefecture_code":13},"8621":{"zip_code":"1058621","prefecture":"東京都","city":"港区","town":"新橋","prefecture_code":13},"8610":{"zip_code":"1058610","prefecture":"東京都","city":"港区","town":"東新橋","prefecture_code":13},"8665":{"zip_code":"1058665","prefecture":"東京都","city":"港区","town":"新橋","prefecture_code":13},"8420":{"zip_code":"1058420","prefecture":"東京都","city":"港区","town":"西新橋","prefecture_code":13},"8313":{"zip_code":"1058313","prefecture":"東京都","city":"港区","town":"東新橋","prefecture_code":13},"8613":{"zip_code":"1058613","prefecture":"東京都","city":"港区","town":"東新橋","prefecture_code":13},"8307":{"zip_code":"1058307","prefecture":"東京都","city":"港区","town":"海岸","prefecture_code":13},"8305":{"zip_code":"1058305","prefecture":"東京都","city":"港区","town":"海岸","prefecture_code":13},"8306":{"zip_code":"1058306","prefecture":"東京都","city":"港区","town":"海岸","prefecture_code":13},"8419":{"zip_code":"1058419","prefecture":"東京都","city":"港区","town":"西新橋","prefecture_code":13},"8551":{"zip_code":"1058551","prefecture":"東京都","city":"港区","town":"西新橋","prefecture_code":13},"8527":{"zip_code":"1058527","prefecture":"東京都","city":"港区","town":"海岸","prefecture_code":13},"8558":{"zip_code":"1058558","prefecture":"東京都","city":"港区","town":"芝公園","prefecture_code":13},"8471":{"zip_code":"1058471","prefecture":"東京都","city":"港区","town":"西新橋","prefecture_code":13},"8440":{"zip_code":"1058440","prefecture":"東京都","city":"港区","town":"新橋","prefecture_code":13},"8402":{"zip_code":"1058402","prefecture":"東京都","city":"港区","town":"西新橋","prefecture_code":13},"8511":{"zip_code":"1058511","prefecture":"東京都","city":"港区","town":"芝公園","prefecture_code":13},"8560":{"zip_code":"1058560","prefecture":"東京都","city":"港区","town":"芝公園","prefecture_code":13},"8563":{"zip_code":"1058563","prefecture":"東京都","city":"港区","town":"芝公園","prefecture_code":13},"8623":{"zip_code":"1058623","prefecture":"東京都","city":"港区","town":"芝","prefecture_code":13},"8311":{"zip_code":"1058311","prefecture":"東京都","city":"港区","town":"東新橋","prefecture_code":13},"8312":{"zip_code":"1058312","prefecture":"東京都","city":"港区","town":"東新橋","prefecture_code":13},"8077":{"zip_code":"1058077","prefecture":"東京都","city":"港区","town":"芝公園","prefecture_code":13},"8445":{"zip_code":"1058445","prefecture":"東京都","city":"港区","town":"虎ノ門","prefecture_code":13},"8453":{"zip_code":"1058453","prefecture":"東京都","city":"港区","town":"虎ノ門","prefecture_code":13},"8434":{"zip_code":"1058434","prefecture":"東京都","city":"港区","town":"西新橋","prefecture_code":13},"8010":{"zip_code":"1058010","prefecture":"東京都","city":"港区","town":"西新橋","prefecture_code":13},"8486":{"zip_code":"1058486","prefecture":"東京都","city":"港区","town":"虎ノ門","prefecture_code":13},"8401":{"zip_code":"1058401","prefecture":"東京都","city":"港区","town":"虎ノ門","prefecture_code":13},"8555":{"zip_code":"1058555","prefecture":"東京都","city":"港区","town":"芝大門","prefecture_code":13},"8567":{"zip_code":"1058567","prefecture":"東京都","city":"港区","town":"虎ノ門","prefecture_code":13},"8411":{"zip_code":"1058411","prefecture":"東京都","city":"港区","town":"西新橋","prefecture_code":13},"8338":{"zip_code":"1058338","prefecture":"東京都","city":"港区","town":"海岸","prefecture_code":13},"8676":{"zip_code":"1058676","prefecture":"東京都","city":"港区","town":"西新橋","prefecture_code":13},"8322":{"zip_code":"1058322","prefecture":"東京都","city":"港区","town":"東新橋","prefecture_code":13},"8540":{"zip_code":"1058540","prefecture":"東京都","city":"港区","town":"芝","prefecture_code":13},"8456":{"zip_code":"1058456","prefecture":"東京都","city":"港区","town":"虎ノ門","prefecture_code":13},"8617":{"zip_code":"1058617","prefecture":"東京都","city":"港区","town":"新橋","prefecture_code":13},"8788":{"zip_code":"1058788","prefecture":"東京都","city":"港区","town":"虎ノ門","prefecture_code":13},"8408":{"zip_code":"1058408","prefecture":"東京都","city":"港区","town":"西新橋","prefecture_code":13},"8521":{"zip_code":"1058521","prefecture":"東京都","city":"港区","town":"芝大門","prefecture_code":13},"8508":{"zip_code":"1058508","prefecture":"東京都","city":"港区","town":"芝公園","prefecture_code":13},"8422":{"zip_code":"1058422","prefecture":"東京都","city":"港区","town":"虎ノ門","prefecture_code":13},"7444":{"zip_code":"1057444","prefecture":"東京都","city":"港区","town":"東新橋","prefecture_code":13},"8457":{"zip_code":"1058457","prefecture":"東京都","city":"港区","town":"虎ノ門","prefecture_code":13},"8578":{"zip_code":"1058578","prefecture":"東京都","city":"港区","town":"芝","prefecture_code":13},"8579":{"zip_code":"1058579","prefecture":"東京都","city":"港区","town":"浜松町","prefecture_code":13},"8301":{"zip_code":"1058301","prefecture":"東京都","city":"港区","town":"東新橋","prefecture_code":13},"8581":{"zip_code":"1058581","prefecture":"東京都","city":"港区","town":"芝公園","prefecture_code":13},"8433":{"zip_code":"1058433","prefecture":"東京都","city":"港区","town":"西新橋","prefecture_code":13},"8410":{"zip_code":"1058410","prefecture":"東京都","city":"港区","town":"西新橋","prefecture_code":13},"8712":{"zip_code":"1058712","prefecture":"東京都","city":"港区","town":"西新橋","prefecture_code":13},"8614":{"zip_code":"1058614","prefecture":"東京都","city":"港区","town":"芝浦","prefecture_code":13},"8413":{"zip_code":"1058413","prefecture":"東京都","city":"港区","town":"西新橋","prefecture_code":13},"8644":{"zip_code":"1058644","prefecture":"東京都","city":"港区","town":"東新橋","prefecture_code":13},"8668":{"zip_code":"1058668","prefecture":"東京都","city":"港区","town":"芝浦","prefecture_code":13},"8630":{"zip_code":"1058630","prefecture":"東京都","city":"港区","town":"新橋","prefecture_code":13},"8435":{"zip_code":"1058435","prefecture":"東京都","city":"港区","town":"虎ノ門","prefecture_code":13},"8553":{"zip_code":"1058553","prefecture":"東京都","city":"港区","town":"芝","prefecture_code":13},"8484":{"zip_code":"1058484","prefecture":"東京都","city":"港区","town":"芝大門","prefecture_code":13},"8011":{"zip_code":"1058011","prefecture":"東京都","city":"港区","town":"海岸","prefecture_code":13},"8574":{"zip_code":"1058574","prefecture":"東京都","city":"港区","town":"芝","prefecture_code":13},"8464":{"zip_code":"1058464","prefecture":"東京都","city":"港区","town":"西新橋","prefecture_code":13},"8427":{"zip_code":"1058427","prefecture":"東京都","city":"港区","town":"西新橋","prefecture_code":13},"8546":{"zip_code":"1058546","prefecture":"東京都","city":"港区","town":"芝","prefecture_code":13},"8501":{"zip_code":"1058501","prefecture":"東京都","city":"港区","town":"虎ノ門","prefecture_code":13},"8516":{"zip_code":"1058516","prefecture":"東京都","city":"港区","town":"芝浦","prefecture_code":13},"8437":{"zip_code":"1058437","prefecture":"東京都","city":"港区","town":"虎ノ門","prefecture_code":13},"8510":{"zip_code":"1058510","prefecture":"東京都","city":"港区","town":"芝","prefecture_code":13},"8582":{"zip_code":"1058582","prefecture":"東京都","city":"港区","town":"芝公園","prefecture_code":13},"8517":{"zip_code":"1058517","prefecture":"東京都","city":"港区","town":"芝浦","prefecture_code":13},"8451":{"zip_code":"1058451","prefecture":"東京都","city":"港区","town":"虎ノ門","prefecture_code":13},"8686":{"zip_code":"1058686","prefecture":"東京都","city":"港区","town":"新橋","prefecture_code":13},"8577":{"zip_code":"1058577","prefecture":"東京都","city":"港区","town":"新橋","prefecture_code":13},"8608":{"zip_code":"1058608","prefecture":"東京都","city":"港区","town":"新橋","prefecture_code":13},"8685":{"zip_code":"1058685","prefecture":"東京都","city":"港区","town":"新橋","prefecture_code":13},"8503":{"zip_code":"1058503","prefecture":"東京都","city":"港区","town":"芝","prefecture_code":13},"8414":{"zip_code":"1058414","prefecture":"東京都","city":"港区","town":"虎ノ門","prefecture_code":13},"8512":{"zip_code":"1058512","prefecture":"東京都","city":"港区","town":"芝公園","prefecture_code":13},"8711":{"zip_code":"1058711","prefecture":"東京都","city":"品川区","town":"大崎","prefecture_code":13},"8707":{"zip_code":"1058707","prefecture":"東京都","city":"江戸川区","town":"春江町","prefecture_code":13}}