{"0000":{"zip_code":"1100000","prefecture":"東京都","prefecture_kana":"トウキョウト","city":"台東区","city_kana":"タイトウク","town":"","town_kana":"","prefecture_code":13},"0006":{"zip_code":"1100006","prefecture":"東京都","prefecture_kana":"トウキョウト","city":"台東区","city_kana":"タイトウク","town":"秋葉原","town_kana":"アキハバラ","prefecture_code":13},"0008":{"zip_code":"1100008","prefecture":"東京都","prefecture_kana":"トウキョウト","city":"台東区","city_kana":"タイトウク","town":"池之端","town_kana":"イケノハタ","prefecture_code":13},"0013":{"zip_code":"1100013","prefecture":"東京都","prefecture_kana":"トウキョウト","city":"台東区","city_kana":"タイトウク","town":"入谷","town_kana":"イリヤ","prefecture_code":13},"0005":{"zip_code":"1100005","prefecture":"東京都","prefecture_kana":"トウキョウト","city":"台東区","city_kana":"タイトウク","town":"上野","town_kana":"ウエノ","prefecture_code":13},"0007":{"zip_code":"1100007","prefecture":"東京都","prefecture_kana":"トウキョウト","city":"台東区","city_kana":"タイトウク","town":"上野公園","town_kana":"ウエノコウエン","prefecture_code":13},"0002":{"zip_code":"1100002","prefecture":"東京都","prefecture_kana":"トウキョウト","city":"台東区","city_kana":"タイトウク","town":"上野桜木","town_kana":"ウエノサクラギ","prefecture_code":13},"0014":{"zip_code":"1100014","prefecture":"東京都","prefecture_kana":"トウキョウト","city":"台東区","city_kana":"タイトウク","town":"北上野","town_kana":"キタウエノ","prefecture_code":13},"0004":{"zip_code":"1100004","prefecture":"東京都","prefecture_kana":"トウキョウト","city":"台東区","city_kana":"タイトウク","town":"下谷","town_kana":"シタヤ","prefecture_code":13},"0016":{"zip_code":"1100016","prefecture":"東京都","prefecture_kana":"トウキョウト","city":"台東区","city_kana":"タイトウク","town":"台東","town_kana":"タイトウ","prefecture_code":13},"0003":{"zip_code":"1100003","prefecture":"東京都","prefecture_kana":"トウキョウト","city":"台東区","city_kana":"タイトウク","town":"根岸","town_kana":"ネギシ","prefecture_code":13},"0015":{"zip_code":"1100015","prefecture":"東京都","prefecture_kana":"トウキョウト","city":"台東区","city_kana":"タイトウク","town":"東上野","town_kana":"ヒガシウエノ","prefecture_code":13},"0011":{"zip_code":"1100011","prefecture":"東京都","prefecture_kana":"トウキョウト","city":"台東区","city_kana":"タイトウク","town":"三ノ輪","town_kana":"ミノワ","prefecture_code":13},"0001":{"zip_code":"1100001","prefecture":"東京都","prefecture_kana":"トウキョウト","city":"台東区","city_kana":"タイトウク","town":"谷中","town_kana":"ヤナカ","prefecture_code":13},"0012":{"zip_code":"1100012","prefecture":"東京都","prefecture_kana":"トウキョウト","city":"台東区","city_kana":"タイトウク","town":"竜泉","town_kana":"リュウセン","prefecture_code":13},"8524":{"zip_code":"1108524","prefecture":"東京都","city":"台東区","town":"上野","prefecture_code":13},"8680":{"zip_code":"1108680","prefecture":"東京都","city":"台東区","town":"入谷","prefecture_code":13},"8541":{"zip_code":"1108541","prefecture":"東京都","city":"台東区","town":"上野","prefecture_code":13},"8540":{"zip_code":"1108540","prefecture":"東京都","city":"台東区","town":"東上野","prefecture_code":13},"8626":{"zip_code":"1108626","prefecture":"東京都","city":"台東区","town":"東上野","prefecture_code":13},"8559":{"zip_code":"1108559","prefecture":"東京都","city":"台東区","town":"台東","prefecture_code":13},"8619":{"zip_code":"1108619","prefecture":"東京都","city":"台東区","town":"東上野","prefecture_code":13},"8609":{"zip_code":"1108609","prefecture":"東京都","city":"台東区","town":"東上野","prefecture_code":13},"8408":{"zip_code":"1108408","prefecture":"東京都","city":"台東区","town":"台東","prefecture_code":13},"8536":{"zip_code":"1108536","prefecture":"東京都","city":"台東区","town":"東上野","prefecture_code":13},"8654":{"zip_code":"1108654","prefecture":"東京都","city":"台東区","town":"台東","prefecture_code":13},"8558":{"zip_code":"1108558","prefecture":"東京都","city":"台東区","town":"台東","prefecture_code":13},"8539":{"zip_code":"1108539","prefecture":"東京都","city":"台東区","town":"上野","prefecture_code":13},"8807":{"zip_code":"1108807","prefecture":"東京都","city":"台東区","town":"竜泉","prefecture_code":13},"8625":{"zip_code":"1108625","prefecture":"東京都","city":"台東区","town":"東上野","prefecture_code":13},"8733":{"zip_code":"1108733","prefecture":"東京都","city":"台東区","town":"東上野","prefecture_code":13},"8621":{"zip_code":"1108621","prefecture":"東京都","city":"台東区","town":"北上野","prefecture_code":13},"8510":{"zip_code":"1108510","prefecture":"東京都","city":"台東区","town":"上野","prefecture_code":13},"8675":{"zip_code":"1108675","prefecture":"東京都","city":"台東区","town":"下谷","prefecture_code":13},"8548":{"zip_code":"1108548","prefecture":"東京都","city":"台東区","town":"上野","prefecture_code":13},"8533":{"zip_code":"1108533","prefecture":"東京都","city":"台東区","town":"上野","prefecture_code":13},"8669":{"zip_code":"1108669","prefecture":"東京都","city":"台東区","town":"根岸","prefecture_code":13},"8583":{"zip_code":"1108583","prefecture":"東京都","city":"台東区","town":"台東","prefecture_code":13},"8665":{"zip_code":"1108665","prefecture":"東京都","city":"台東区","town":"根岸","prefecture_code":13},"8531":{"zip_code":"1108531","prefecture":"東京都","city":"台東区","town":"上野","prefecture_code":13},"8511":{"zip_code":"1108511","prefecture":"東京都","city":"台東区","town":"上野","prefecture_code":13},"8721":{"zip_code":"1108721","prefecture":"東京都","city":"台東区","town":"秋葉原","prefecture_code":13},"8578":{"zip_code":"1108578","prefecture":"東京都","city":"台東区","town":"東上野","prefecture_code":13},"8546":{"zip_code":"1108546","prefecture":"東京都","city":"台東区","town":"上野","prefecture_code":13},"8516":{"zip_code":"1108516","prefecture":"東京都","city":"台東区","town":"台東","prefecture_code":13},"8530":{"zip_code":"1108530","prefecture":"東京都","city":"台東区","town":"上野","prefecture_code":13},"8584":{"zip_code":"1108584","prefecture":"東京都","city":"台東区","town":"台東","prefecture_code":13},"8532":{"zip_code":"1108532","prefecture":"東京都","city":"台東区","town":"上野","prefecture_code":13},"8505":{"zip_code":"1108505","prefecture":"東京都","city":"台東区","town":"上野","prefecture_code":13},"8503":{"zip_code":"1108503","prefecture":"東京都","city":"台東区","town":"上野","prefecture_code":13},"8502":{"zip_code":"1108502","prefecture":"東京都","city":"台東区","town":"上野","prefecture_code":13},"8681":{"zip_code":"1108681","prefecture":"東京都","city":"台東区","town":"入谷","prefecture_code":13},"8513":{"zip_code":"1108513","prefecture":"東京都","city":"台東区","town":"上野","prefecture_code":13},"8522":{"zip_code":"1108522","prefecture":"東京都","city":"台東区","town":"上野","prefecture_code":13},"8507":{"zip_code":"1108507","prefecture":"東京都","city":"台東区","town":"上野","prefecture_code":13},"8520":{"zip_code":"1108520","prefecture":"東京都","city":"台東区","town":"東上野","prefecture_code":13},"8543":{"zip_code":"1108543","prefecture":"東京都","city":"台東区","town":"上野","prefecture_code":13},"8631":{"zip_code":"1108631","prefecture":"東京都","city":"台東区","town":"東上野","prefecture_code":13},"8588":{"zip_code":"1108588","prefecture":"東京都","city":"台東区","town":"台東","prefecture_code":13},"8642":{"zip_code":"1108642","prefecture":"東京都","city":"台東区","town":"東上野","prefecture_code":13},"8662":{"zip_code":"1108662","prefecture":"東京都","city":"台東区","town":"根岸","prefecture_code":13},"8610":{"zip_code":"1108610","prefecture":"東京都","city":"台東区","town":"東上野","prefecture_code":13},"8630":{"zip_code":"1108630","prefecture":"東京都","city":"台東区","town":"東上野","prefecture_code":13},"8602":{"zip_code":"1108602","prefecture":"東京都","city":"台東区","town":"東上野","prefecture_code":13},"8678":{"zip_code":"1108678","prefecture":"東京都","city":"台東区","town":"下谷","prefecture_code":13},"8677":{"zip_code":"1108677","prefecture":"東京都","city":"台東区","town":"下谷","prefecture_code":13},"8550":{"zip_code":"1108550","prefecture":"東京都","city":"台東区","town":"台東","prefecture_code":13},"8555":{"zip_code":"1108555","prefecture":"東京都","city":"台東区","town":"台東","prefecture_code":13},"8534":{"zip_code":"1108534","prefecture":"東京都","city":"台東区","town":"上野","prefecture_code":13},"8676":{"zip_code":"1108676","prefecture":"東京都","city":"台東区","town":"下谷","prefecture_code":13},"8687":{"zip_code":"1108687","prefecture":"東京都","city":"台東区","town":"入谷","prefecture_code":13},"8645":{"zip_code":"1108645","prefecture":"東京都","city":"台東区","town":"東上野","prefecture_code":13},"8567":{"zip_code":"1108567","prefecture":"東京都","city":"台東区","town":"台東","prefecture_code":13},"8723":{"zip_code":"1108723","prefecture":"東京都","city":"台東区","town":"秋葉原","prefecture_code":13},"8576":{"zip_code":"1108576","prefecture":"東京都","city":"台東区","town":"上野","prefecture_code":13},"8620":{"zip_code":"1108620","prefecture":"東京都","city":"台東区","town":"東上野","prefecture_code":13},"8638":{"zip_code":"1108638","prefecture":"東京都","city":"台東区","town":"東上野","prefecture_code":13},"8618":{"zip_code":"1108618","prefecture":"東京都","city":"台東区","town":"東上野","prefecture_code":13},"8613":{"zip_code":"1108613","prefecture":"東京都","city":"台東区","town":"台東","prefecture_code":13},"8537":{"zip_code":"1108537","prefecture":"東京都","city":"台東区","town":"上野","prefecture_code":13},"8715":{"zip_code":"1108715","prefecture":"東京都","city":"台東区","town":"上野公園","prefecture_code":13},"8722":{"zip_code":"1108722","prefecture":"東京都","city":"台東区","town":"秋葉原","prefecture_code":13},"8745":{"zip_code":"1108745","prefecture":"東京都","city":"台東区","town":"上野","prefecture_code":13},"8628":{"zip_code":"1108628","prefecture":"東京都","city":"台東区","town":"東上野","prefecture_code":13},"8515":{"zip_code":"1108515","prefecture":"東京都","city":"台東区","town":"上野","prefecture_code":13},"8635":{"zip_code":"1108635","prefecture":"東京都","city":"台東区","town":"東上野","prefecture_code":13},"8577":{"zip_code":"1108577","prefecture":"東京都","city":"台東区","town":"台東","prefecture_code":13},"8714":{"zip_code":"1108714","prefecture":"東京都","city":"台東区","town":"上野公園","prefecture_code":13},"8712":{"zip_code":"1108712","prefecture":"東京都","city":"台東区","town":"上野公園","prefecture_code":13},"8614":{"zip_code":"1108614","prefecture":"東京都","city":"台東区","town":"東上野","prefecture_code":13},"8615":{"zip_code":"1108615","prefecture":"東京都","city":"台東区","town":"東上野","prefecture_code":13},"8716":{"zip_code":"1108716","prefecture":"東京都","city":"台東区","town":"上野公園","prefecture_code":13},"8561":{"zip_code":"1108561","prefecture":"東京都","city":"台東区","town":"台東","prefecture_code":13},"8725":{"zip_code":"1108725","prefecture":"東京都","city":"台東区","town":"秋葉原","prefecture_code":13},"8586":{"zip_code":"1108586","prefecture":"東京都","city":"台東区","town":"台東","prefecture_code":13},"8685":{"zip_code":"1108685","prefecture":"東京都","city":"台東区","town":"入谷","prefecture_code":13},"8605":{"zip_code":"1108605","prefecture":"東京都","city":"台東区","town":"上野","prefecture_code":13},"8560":{"zip_code":"1108560","prefecture":"東京都","city":"台東区","town":"台東","prefecture_code":13},"8713":{"zip_code":"1108713","prefecture":"東京都","city":"台東区","town":"上野公園","prefecture_code":13},"8736":{"zip_code":"1108736","prefecture":"東京都","city":"台東区","town":"上野","prefecture_code":13},"8660":{"zip_code":"1108660","prefecture":"東京都","city":"台東区","town":"池之端","prefecture_code":13},"8686":{"zip_code":"1108686","prefecture":"東京都","city":"台東区","town":"入谷","prefecture_code":13},"8653":{"zip_code":"1108653","prefecture":"東京都","city":"台東区","town":"下谷","prefecture_code":13},"8706":{"zip_code":"1108706","prefecture":"東京都","city":"台東区","town":"池之端","prefecture_code":13},"8708":{"zip_code":"1108708","prefecture":"東京都","city":"台東区","town":"東上野","prefecture_code":13},"8562":{"zip_code":"1108562","prefecture":"東京都","city":"台東区","town":"台東","prefecture_code":13},"8501":{"zip_code":"1108501","prefecture":"東京都","city":"台東区","town":"上野","prefecture_code":13},"8509":{"zip_code":"1108509","prefecture":"東京都","city":"台東区","town":"上野","prefecture_code":13},"8517":{"zip_code":"1108517","prefecture":"東京都","city":"台東区","town":"上野","prefecture_code":13},"8565":{"zip_code":"1108565","prefecture":"東京都","city":"台東区","town":"上野","prefecture_code":13},"8641":{"zip_code":"1108641","prefecture":"東京都","city":"台東区","town":"東上野","prefecture_code":13},"8566":{"zip_code":"1108566","prefecture":"東京都","city":"台東区","town":"台東","prefecture_code":13},"8622":{"zip_code":"1108622","prefecture":"東京都","city":"台東区","town":"東上野","prefecture_code":13},"8673":{"zip_code":"1108673","prefecture":"東京都","city":"台東区","town":"下谷","prefecture_code":13},"8575":{"zip_code":"1108575","prefecture":"東京都","city":"台東区","town":"台東","prefecture_code":13},"8644":{"zip_code":"1108644","prefecture":"東京都","city":"台東区","town":"上野","prefecture_code":13},"8582":{"zip_code":"1108582","prefecture":"東京都","city":"台東区","town":"台東","prefecture_code":13},"8780":{"zip_code":"1108780","prefecture":"東京都","city":"台東区","town":"下谷","prefecture_code":13},"8782":{"zip_code":"1108782","prefecture":"東京都","city":"台東区","town":"池之端","prefecture_code":13},"8787":{"zip_code":"1108787","prefecture":"東京都","city":"台東区","town":"上野","prefecture_code":13}}