{"0032":{"zip_code":"1110032","prefecture":"東京都","prefecture_kana":"トウキョウト","city":"台東区","city_kana":"タイトウク","town":"浅草","town_kana":"アサクサ","prefecture_code":13},"0053":{"zip_code":"1110053","prefecture":"東京都","prefecture_kana":"トウキョウト","city":"台東区","city_kana":"タイトウク","town":"浅草橋","town_kana":"アサクサバシ","prefecture_code":13},"0024":{"zip_code":"1110024","prefecture":"東京都","prefecture_kana":"トウキョウト","city":"台東区","city_kana":"タイトウク","town":"今戸","town_kana":"イマド","prefecture_code":13},"0034":{"zip_code":"1110034","prefecture":"東京都","prefecture_kana":"トウキョウト","city":"台東区","city_kana":"タイトウク","town":"雷門","town_kana":"カミナリモン","prefecture_code":13},"0022":{"zip_code":"1110022","prefecture":"東京都","prefecture_kana":"トウキョウト","city":"台東区","city_kana":"タイトウク","town":"清川","town_kana":"キヨカワ","prefecture_code":13},"0051":{"zip_code":"1110051","prefecture":"東京都","prefecture_kana":"トウキョウト","city":"台東区","city_kana":"タイトウク","town":"蔵前","town_kana":"クラマエ","prefecture_code":13},"0056":{"zip_code":"1110056","prefecture":"東京都","prefecture_kana":"トウキョウト","city":"台東区","city_kana":"タイトウク","town":"小島","town_kana":"コジマ","prefecture_code":13},"0042":{"zip_code":"1110042","prefecture":"東京都","prefecture_kana":"トウキョウト","city":"台東区","city_kana":"タイトウク","town":"寿","town_kana":"コトブキ","prefecture_code":13},"0043":{"zip_code":"1110043","prefecture":"東京都","prefecture_kana":"トウキョウト","city":"台東区","city_kana":"タイトウク","town":"駒形","town_kana":"コマガタ","prefecture_code":13},"0031":{"zip_code":"1110031","prefecture":"東京都","prefecture_kana":"トウキョウト","city":"台東区","city_kana":"タイトウク","town":"千束","town_kana":"センゾク","prefecture_code":13},"0054":{"zip_code":"1110054","prefecture":"東京都","prefecture_kana":"トウキョウト","city":"台東区","city_kana":"タイトウク","town":"鳥越","town_kana":"トリゴエ","prefecture_code":13},"0035":{"zip_code":"1110035","prefecture":"東京都","prefecture_kana":"トウキョウト","city":"台東区","city_kana":"タイトウク","town":"西浅草","town_kana":"ニシアサクサ","prefecture_code":13},"0021":{"zip_code":"1110021","prefecture":"東京都","prefecture_kana":"トウキョウト","city":"台東区","city_kana":"タイトウク","town":"日本堤","town_kana":"ニホンヅツミ","prefecture_code":13},"0023":{"zip_code":"1110023","prefecture":"東京都","prefecture_kana":"トウキョウト","city":"台東区","city_kana":"タイトウク","town":"橋場","town_kana":"ハシバ","prefecture_code":13},"0033":{"zip_code":"1110033","prefecture":"東京都","prefecture_kana":"トウキョウト","city":"台東区","city_kana":"タイトウク","town":"花川戸","town_kana":"ハナカワド","prefecture_code":13},"0025":{"zip_code":"1110025","prefecture":"東京都","prefecture_kana":"トウキョウト","city":"台東区","city_kana":"タイトウク","town":"東浅草","town_kana":"ヒガシアサクサ","prefecture_code":13},"0036":{"zip_code":"1110036","prefecture":"東京都","prefecture_kana":"トウキョウト","city":"台東区","city_kana":"タイトウク","town":"松が谷","town_kana":"マツガヤ","prefecture_code":13},"0055":{"zip_code":"1110055","prefecture":"東京都","prefecture_kana":"トウキョウト","city":"台東区","city_kana":"タイトウク","town":"三筋","town_kana":"ミスジ","prefecture_code":13},"0041":{"zip_code":"1110041","prefecture":"東京都","prefecture_kana":"トウキョウト","city":"台東区","city_kana":"タイトウク","town":"元浅草","town_kana":"モトアサクサ","prefecture_code":13},"0052":{"zip_code":"1110052","prefecture":"東京都","prefecture_kana":"トウキョウト","city":"台東区","city_kana":"タイトウク","town":"柳橋","town_kana":"ヤナギバシ","prefecture_code":13},"8707":{"zip_code":"1118707","prefecture":"東京都","city":"台東区","town":"台東","prefecture_code":13},"8633":{"zip_code":"1118633","prefecture":"東京都","city":"台東区","town":"寿","prefecture_code":13},"8501":{"zip_code":"1118501","prefecture":"東京都","city":"台東区","town":"浅草","prefecture_code":13},"8602":{"zip_code":"1118602","prefecture":"東京都","city":"台東区","town":"蔵前","prefecture_code":13},"8765":{"zip_code":"1118765","prefecture":"東京都","city":"台東区","town":"西浅草","prefecture_code":13},"8655":{"zip_code":"1118655","prefecture":"東京都","city":"台東区","town":"駒形","prefecture_code":13},"8656":{"zip_code":"1118656","prefecture":"東京都","city":"台東区","town":"元浅草","prefecture_code":13},"8585":{"zip_code":"1118585","prefecture":"東京都","city":"台東区","town":"浅草橋","prefecture_code":13},"8502":{"zip_code":"1118502","prefecture":"東京都","city":"台東区","town":"西浅草","prefecture_code":13},"8637":{"zip_code":"1118637","prefecture":"東京都","city":"台東区","town":"柳橋","prefecture_code":13},"8507":{"zip_code":"1118507","prefecture":"東京都","city":"台東区","town":"浅草橋","prefecture_code":13},"8612":{"zip_code":"1118612","prefecture":"東京都","city":"台東区","town":"浅草橋","prefecture_code":13},"8618":{"zip_code":"1118618","prefecture":"東京都","city":"台東区","town":"駒形","prefecture_code":13},"8676":{"zip_code":"1118676","prefecture":"東京都","city":"台東区","town":"雷門","prefecture_code":13},"8640":{"zip_code":"1118640","prefecture":"東京都","city":"台東区","town":"浅草橋","prefecture_code":13},"8580":{"zip_code":"1118580","prefecture":"東京都","city":"台東区","town":"寿","prefecture_code":13},"8555":{"zip_code":"1118555","prefecture":"東京都","city":"台東区","town":"駒形","prefecture_code":13},"8681":{"zip_code":"1118681","prefecture":"東京都","city":"台東区","town":"駒形","prefecture_code":13},"8561":{"zip_code":"1118561","prefecture":"東京都","city":"台東区","town":"浅草橋","prefecture_code":13},"8543":{"zip_code":"1118543","prefecture":"東京都","city":"台東区","town":"柳橋","prefecture_code":13},"8620":{"zip_code":"1118620","prefecture":"東京都","city":"台東区","town":"浅草橋","prefecture_code":13},"8567":{"zip_code":"1118567","prefecture":"東京都","city":"台東区","town":"西浅草","prefecture_code":13},"8610":{"zip_code":"1118610","prefecture":"東京都","city":"台東区","town":"寿","prefecture_code":13},"8539":{"zip_code":"1118539","prefecture":"東京都","city":"台東区","town":"寿","prefecture_code":13},"8686":{"zip_code":"1118686","prefecture":"東京都","city":"台東区","town":"寿","prefecture_code":13},"8721":{"zip_code":"1118721","prefecture":"東京都","city":"台東区","town":"寿","prefecture_code":13},"8556":{"zip_code":"1118556","prefecture":"東京都","city":"台東区","town":"浅草橋","prefecture_code":13},"8510":{"zip_code":"1118510","prefecture":"東京都","city":"台東区","town":"柳橋","prefecture_code":13},"8588":{"zip_code":"1118588","prefecture":"東京都","city":"台東区","town":"西浅草","prefecture_code":13},"8755":{"zip_code":"1118755","prefecture":"東京都","city":"台東区","town":"蔵前","prefecture_code":13},"8642":{"zip_code":"1118642","prefecture":"東京都","city":"台東区","town":"浅草","prefecture_code":13},"8611":{"zip_code":"1118611","prefecture":"東京都","city":"台東区","town":"柳橋","prefecture_code":13},"8531":{"zip_code":"1118531","prefecture":"東京都","city":"台東区","town":"浅草橋","prefecture_code":13},"8711":{"zip_code":"1118711","prefecture":"東京都","city":"台東区","town":"浅草","prefecture_code":13},"8533":{"zip_code":"1118533","prefecture":"東京都","city":"台東区","town":"浅草橋","prefecture_code":13},"8081":{"zip_code":"1118081","prefecture":"東京都","city":"台東区","town":"駒形","prefecture_code":13},"8525":{"zip_code":"1118525","prefecture":"東京都","city":"台東区","town":"浅草橋","prefecture_code":13},"8608":{"zip_code":"1118608","prefecture":"東京都","city":"台東区","town":"寿","prefecture_code":13},"8678":{"zip_code":"1118678","prefecture":"東京都","city":"台東区","town":"蔵前","prefecture_code":13},"8661":{"zip_code":"1118661","prefecture":"東京都","city":"台東区","town":"柳橋","prefecture_code":13},"8518":{"zip_code":"1118518","prefecture":"東京都","city":"台東区","town":"蔵前","prefecture_code":13},"8688":{"zip_code":"1118688","prefecture":"東京都","city":"台東区","town":"寿","prefecture_code":13},"8515":{"zip_code":"1118515","prefecture":"東京都","city":"台東区","town":"浅草橋","prefecture_code":13},"8615":{"zip_code":"1118615","prefecture":"東京都","city":"台東区","town":"寿","prefecture_code":13},"8532":{"zip_code":"1118532","prefecture":"東京都","city":"台東区","town":"西浅草","prefecture_code":13},"8551":{"zip_code":"1118551","prefecture":"東京都","city":"台東区","town":"浅草橋","prefecture_code":13},"8639":{"zip_code":"1118639","prefecture":"東京都","city":"台東区","town":"元浅草","prefecture_code":13},"8677":{"zip_code":"1118677","prefecture":"東京都","city":"台東区","town":"元浅草","prefecture_code":13},"8534":{"zip_code":"1118534","prefecture":"東京都","city":"台東区","town":"今戸","prefecture_code":13},"8621":{"zip_code":"1118621","prefecture":"東京都","city":"台東区","town":"西浅草","prefecture_code":13},"8511":{"zip_code":"1118511","prefecture":"東京都","city":"台東区","town":"元浅草","prefecture_code":13},"8701":{"zip_code":"1118701","prefecture":"東京都","city":"台東区","town":"浅草","prefecture_code":13},"8683":{"zip_code":"1118683","prefecture":"東京都","city":"台東区","town":"雷門","prefecture_code":13},"8530":{"zip_code":"1118530","prefecture":"東京都","city":"台東区","town":"雷門","prefecture_code":13},"8606":{"zip_code":"1118606","prefecture":"東京都","city":"台東区","town":"雷門","prefecture_code":13},"8535":{"zip_code":"1118535","prefecture":"東京都","city":"台東区","town":"浅草","prefecture_code":13},"8521":{"zip_code":"1118521","prefecture":"東京都","city":"台東区","town":"柳橋","prefecture_code":13},"8630":{"zip_code":"1118630","prefecture":"東京都","city":"台東区","town":"蔵前","prefecture_code":13},"8577":{"zip_code":"1118577","prefecture":"東京都","city":"台東区","town":"浅草橋","prefecture_code":13},"8508":{"zip_code":"1118508","prefecture":"東京都","city":"台東区","town":"松が谷","prefecture_code":13},"8798":{"zip_code":"1118798","prefecture":"東京都","city":"台東区","town":"西浅草","prefecture_code":13},"8506":{"zip_code":"1118506","prefecture":"東京都","city":"台東区","town":"元浅草","prefecture_code":13},"8625":{"zip_code":"1118625","prefecture":"東京都","city":"台東区","town":"柳橋","prefecture_code":13},"8631":{"zip_code":"1118631","prefecture":"東京都","city":"台東区","town":"西浅草","prefecture_code":13},"8522":{"zip_code":"1118522","prefecture":"東京都","city":"台東区","town":"元浅草","prefecture_code":13},"8708":{"zip_code":"1118708","prefecture":"東京都","city":"台東区","town":"雷門","prefecture_code":13},"8505":{"zip_code":"1118505","prefecture":"東京都","city":"台東区","town":"浅草橋","prefecture_code":13},"8558":{"zip_code":"1118558","prefecture":"東京都","city":"台東区","town":"松が谷","prefecture_code":13},"8605":{"zip_code":"1118605","prefecture":"東京都","city":"台東区","town":"蔵前","prefecture_code":13},"8566":{"zip_code":"1118566","prefecture":"東京都","city":"台東区","town":"元浅草","prefecture_code":13},"8512":{"zip_code":"1118512","prefecture":"東京都","city":"台東区","town":"浅草","prefecture_code":13},"8560":{"zip_code":"1118560","prefecture":"東京都","city":"台東区","town":"花川戸","prefecture_code":13},"8622":{"zip_code":"1118622","prefecture":"東京都","city":"台東区","town":"浅草","prefecture_code":13},"8650":{"zip_code":"1118650","prefecture":"東京都","city":"台東区","town":"駒形","prefecture_code":13},"8575":{"zip_code":"1118575","prefecture":"東京都","city":"台東区","town":"駒形","prefecture_code":13},"8648":{"zip_code":"1118648","prefecture":"東京都","city":"台東区","town":"浅草橋","prefecture_code":13},"8628":{"zip_code":"1118628","prefecture":"東京都","city":"台東区","town":"松が谷","prefecture_code":13},"8710":{"zip_code":"1118710","prefecture":"東京都","city":"台東区","town":"寿","prefecture_code":13},"8666":{"zip_code":"1118666","prefecture":"東京都","city":"台東区","town":"浅草","prefecture_code":13}}