{"0000":{"zip_code":"1120000","prefecture":"東京都","prefecture_kana":"トウキョウト","city":"文京区","city_kana":"ブンキョウク","town":"","town_kana":"","prefecture_code":13},"0012":{"zip_code":"1120012","prefecture":"東京都","prefecture_kana":"トウキョウト","city":"文京区","city_kana":"ブンキョウク","town":"大塚","town_kana":"オオツカ","prefecture_code":13},"0013":{"zip_code":"1120013","prefecture":"東京都","prefecture_kana":"トウキョウト","city":"文京区","city_kana":"ブンキョウク","town":"音羽","town_kana":"オトワ","prefecture_code":13},"0003":{"zip_code":"1120003","prefecture":"東京都","prefecture_kana":"トウキョウト","city":"文京区","city_kana":"ブンキョウク","town":"春日","town_kana":"カスガ","prefecture_code":13},"0002":{"zip_code":"1120002","prefecture":"東京都","prefecture_kana":"トウキョウト","city":"文京区","city_kana":"ブンキョウク","town":"小石川","town_kana":"コイシカワ","prefecture_code":13},"0004":{"zip_code":"1120004","prefecture":"東京都","prefecture_kana":"トウキョウト","city":"文京区","city_kana":"ブンキョウク","town":"後楽","town_kana":"コウラク","prefecture_code":13},"0006":{"zip_code":"1120006","prefecture":"東京都","prefecture_kana":"トウキョウト","city":"文京区","city_kana":"ブンキョウク","town":"小日向","town_kana":"コヒナタ","prefecture_code":13},"0005":{"zip_code":"1120005","prefecture":"東京都","prefecture_kana":"トウキョウト","city":"文京区","city_kana":"ブンキョウク","town":"水道","town_kana":"スイドウ","prefecture_code":13},"0014":{"zip_code":"1120014","prefecture":"東京都","prefecture_kana":"トウキョウト","city":"文京区","city_kana":"ブンキョウク","town":"関口","town_kana":"セキグチ","prefecture_code":13},"0011":{"zip_code":"1120011","prefecture":"東京都","prefecture_kana":"トウキョウト","city":"文京区","city_kana":"ブンキョウク","town":"千石","town_kana":"センゴク","prefecture_code":13},"0001":{"zip_code":"1120001","prefecture":"東京都","prefecture_kana":"トウキョウト","city":"文京区","city_kana":"ブンキョウク","town":"白山","town_kana":"ハクサン","prefecture_code":13},"0015":{"zip_code":"1120015","prefecture":"東京都","prefecture_kana":"トウキョウト","city":"文京区","city_kana":"ブンキョウク","town":"目白台","town_kana":"メジロダイ","prefecture_code":13},"8702":{"zip_code":"1128702","prefecture":"東京都","city":"新宿区","town":"山吹町","prefecture_code":13},"8573":{"zip_code":"1128573","prefecture":"東京都","city":"文京区","town":"後楽","prefecture_code":13},"8632":{"zip_code":"1128632","prefecture":"東京都","city":"文京区","town":"大塚","prefecture_code":13},"8607":{"zip_code":"1128607","prefecture":"東京都","city":"文京区","town":"白山","prefecture_code":13},"8622":{"zip_code":"1128622","prefecture":"東京都","city":"文京区","town":"千石","prefecture_code":13},"8687":{"zip_code":"1128687","prefecture":"東京都","city":"文京区","town":"大塚","prefecture_code":13},"8560":{"zip_code":"1128560","prefecture":"東京都","city":"文京区","town":"後楽","prefecture_code":13},"8677":[{"zip_code":"1128677","prefecture":"東京都","city":"文京区","town":"関口","prefecture_code":13},{"zip_code":"1128677","prefecture":"東京都","city":"文京区","town":"関口","prefecture_code":13},{"zip_code":"1128677","prefecture":"東京都","city":"文京区","town":"関口","prefecture_code":13},{"zip_code":"1128677","prefecture":"東京都","city":"文京区","town":"関口","prefecture_code":13}],"8610":{"zip_code":"1128610","prefecture":"東京都","city":"文京区","town":"大塚","prefecture_code":13},"8644":{"zip_code":"1128644","prefecture":"東京都","city":"文京区","town":"大塚","prefecture_code":13},"8657":{"zip_code":"1128657","prefecture":"東京都","city":"文京区","town":"音羽","prefecture_code":13},"8566":{"zip_code":"1128566","prefecture":"東京都","city":"文京区","town":"後楽","prefecture_code":13},"8524":{"zip_code":"1128524","prefecture":"東京都","city":"文京区","town":"小石川","prefecture_code":13},"8668":{"zip_code":"1128668","prefecture":"東京都","city":"文京区","town":"関口","prefecture_code":13},"8556":{"zip_code":"1128556","prefecture":"東京都","city":"文京区","town":"春日","prefecture_code":13},"8651":{"zip_code":"1128651","prefecture":"東京都","city":"文京区","town":"音羽","prefecture_code":13},"8508":{"zip_code":"1128508","prefecture":"東京都","city":"文京区","town":"小石川","prefecture_code":13},"8538":{"zip_code":"1128538","prefecture":"東京都","city":"文京区","town":"小石川","prefecture_code":13},"8653":{"zip_code":"1128653","prefecture":"東京都","city":"文京区","town":"音羽","prefecture_code":13},"8514":{"zip_code":"1128514","prefecture":"東京都","city":"文京区","town":"小石川","prefecture_code":13},"8633":{"zip_code":"1128633","prefecture":"東京都","city":"文京区","town":"大塚","prefecture_code":13},"8675":{"zip_code":"1128675","prefecture":"東京都","city":"文京区","town":"関口","prefecture_code":13},"8690":{"zip_code":"1128690","prefecture":"東京都","city":"文京区","town":"関口","prefecture_code":13},"8541":{"zip_code":"1128541","prefecture":"東京都","city":"文京区","town":"春日","prefecture_code":13},"8540":{"zip_code":"1128540","prefecture":"東京都","city":"文京区","town":"水道","prefecture_code":13},"8512":{"zip_code":"1128512","prefecture":"東京都","city":"文京区","town":"小石川","prefecture_code":13},"8733":{"zip_code":"1128733","prefecture":"東京都","city":"文京区","town":"後楽","prefecture_code":13},"8685":{"zip_code":"1128685","prefecture":"東京都","city":"文京区","town":"目白台","prefecture_code":13},"8575":{"zip_code":"1128575","prefecture":"東京都","city":"文京区","town":"後楽","prefecture_code":13},"8684":{"zip_code":"1128684","prefecture":"東京都","city":"文京区","town":"目白台","prefecture_code":13},"8138":{"zip_code":"1128138","prefecture":"東京都","city":"文京区","town":"小日向","prefecture_code":13},"8655":{"zip_code":"1128655","prefecture":"東京都","city":"文京区","town":"音羽","prefecture_code":13},"8635":{"zip_code":"1128635","prefecture":"東京都","city":"文京区","town":"大塚","prefecture_code":13},"8580":{"zip_code":"1128580","prefecture":"東京都","city":"文京区","town":"後楽","prefecture_code":13},"8583":{"zip_code":"1128583","prefecture":"東京都","city":"文京区","town":"後楽","prefecture_code":13},"8516":{"zip_code":"1128516","prefecture":"東京都","city":"文京区","town":"小石川","prefecture_code":13},"8618":{"zip_code":"1128618","prefecture":"東京都","city":"文京区","town":"千石","prefecture_code":13},"8683":{"zip_code":"1128683","prefecture":"東京都","city":"文京区","town":"目白台","prefecture_code":13},"8629":{"zip_code":"1128629","prefecture":"東京都","city":"文京区","town":"大塚","prefecture_code":13},"8585":{"zip_code":"1128585","prefecture":"東京都","city":"文京区","town":"小日向","prefecture_code":13},"8625":{"zip_code":"1128625","prefecture":"東京都","city":"文京区","town":"大塚","prefecture_code":13},"8502":{"zip_code":"1128502","prefecture":"東京都","city":"文京区","town":"小石川","prefecture_code":13},"8501":{"zip_code":"1128501","prefecture":"東京都","city":"文京区","town":"小石川","prefecture_code":13},"8710":{"zip_code":"1128710","prefecture":"東京都","city":"文京区","town":"白山","prefecture_code":13},"8612":{"zip_code":"1128612","prefecture":"東京都","city":"文京区","town":"白山","prefecture_code":13},"8558":{"zip_code":"1128558","prefecture":"東京都","city":"文京区","town":"春日","prefecture_code":13},"8604":{"zip_code":"1128604","prefecture":"東京都","city":"文京区","town":"白山","prefecture_code":13},"8652":{"zip_code":"1128652","prefecture":"東京都","city":"文京区","town":"音羽","prefecture_code":13},"8662":{"zip_code":"1128662","prefecture":"東京都","city":"文京区","town":"音羽","prefecture_code":13},"8576":{"zip_code":"1128576","prefecture":"東京都","city":"文京区","town":"後楽","prefecture_code":13},"8611":{"zip_code":"1128611","prefecture":"東京都","city":"文京区","town":"白山","prefecture_code":13},"8506":{"zip_code":"1128506","prefecture":"東京都","city":"文京区","town":"小石川","prefecture_code":13},"8619":{"zip_code":"1128619","prefecture":"東京都","city":"文京区","town":"千石","prefecture_code":13},"8574":{"zip_code":"1128574","prefecture":"東京都","city":"文京区","town":"後楽","prefecture_code":13},"8670":{"zip_code":"1128670","prefecture":"東京都","city":"文京区","town":"関口","prefecture_code":13},"8671":{"zip_code":"1128671","prefecture":"東京都","city":"文京区","town":"後楽","prefecture_code":13},"8642":{"zip_code":"1128642","prefecture":"東京都","city":"文京区","town":"大塚","prefecture_code":13},"8533":{"zip_code":"1128533","prefecture":"東京都","city":"文京区","town":"水道","prefecture_code":13},"8660":{"zip_code":"1128660","prefecture":"東京都","city":"文京区","town":"音羽","prefecture_code":13},"8627":{"zip_code":"1128627","prefecture":"東京都","city":"文京区","town":"大塚","prefecture_code":13},"8569":{"zip_code":"1128569","prefecture":"東京都","city":"文京区","town":"後楽","prefecture_code":13},"8650":{"zip_code":"1128650","prefecture":"東京都","city":"文京区","town":"大塚","prefecture_code":13},"8601":{"zip_code":"1128601","prefecture":"東京都","city":"文京区","town":"白山","prefecture_code":13},"8528":{"zip_code":"1128528","prefecture":"東京都","city":"文京区","town":"小石川","prefecture_code":13},"8551":{"zip_code":"1128551","prefecture":"東京都","city":"文京区","town":"春日","prefecture_code":13},"8630":{"zip_code":"1128630","prefecture":"東京都","city":"文京区","town":"小日向","prefecture_code":13},"8550":{"zip_code":"1128550","prefecture":"東京都","city":"文京区","town":"春日","prefecture_code":13},"8562":{"zip_code":"1128562","prefecture":"東京都","city":"文京区","town":"後楽","prefecture_code":13},"8606":{"zip_code":"1128606","prefecture":"東京都","city":"文京区","town":"白山","prefecture_code":13},"8531":{"zip_code":"1128531","prefecture":"東京都","city":"文京区","town":"水道","prefecture_code":13},"8570":{"zip_code":"1128570","prefecture":"東京都","city":"文京区","town":"後楽","prefecture_code":13},"8663":{"zip_code":"1128663","prefecture":"東京都","city":"文京区","town":"関口","prefecture_code":13},"8505":{"zip_code":"1128505","prefecture":"東京都","city":"文京区","town":"小石川","prefecture_code":13},"8681":{"zip_code":"1128681","prefecture":"東京都","city":"文京区","town":"目白台","prefecture_code":13},"8678":{"zip_code":"1128678","prefecture":"東京都","city":"文京区","town":"関口","prefecture_code":13},"8548":{"zip_code":"1128548","prefecture":"東京都","city":"文京区","town":"春日","prefecture_code":13},"8563":{"zip_code":"1128563","prefecture":"東京都","city":"文京区","town":"後楽","prefecture_code":13},"8664":{"zip_code":"1128664","prefecture":"東京都","city":"文京区","town":"関口","prefecture_code":13},"8680":{"zip_code":"1128680","prefecture":"東京都","city":"文京区","town":"関口","prefecture_code":13},"8620":{"zip_code":"1128620","prefecture":"東京都","city":"文京区","town":"千石","prefecture_code":13},"8555":{"zip_code":"1128555","prefecture":"東京都","city":"文京区","town":"春日","prefecture_code":13},"8654":{"zip_code":"1128654","prefecture":"東京都","city":"文京区","town":"音羽","prefecture_code":13},"8688":{"zip_code":"1128688","prefecture":"東京都","city":"文京区","town":"目白台","prefecture_code":13},"8634":{"zip_code":"1128634","prefecture":"東京都","city":"文京区","town":"大塚","prefecture_code":13},"8511":{"zip_code":"1128511","prefecture":"東京都","city":"文京区","town":"小石川","prefecture_code":13},"8557":{"zip_code":"1128557","prefecture":"東京都","city":"文京区","town":"春日","prefecture_code":13},"8509":{"zip_code":"1128509","prefecture":"東京都","city":"文京区","town":"小石川","prefecture_code":13},"8682":{"zip_code":"1128682","prefecture":"東京都","city":"文京区","town":"目白台","prefecture_code":13},"8001":{"zip_code":"1128001","prefecture":"東京都","city":"文京区","town":"音羽","prefecture_code":13},"8088":{"zip_code":"1128088","prefecture":"東京都","city":"文京区","town":"小石川","prefecture_code":13},"8011":{"zip_code":"1128011","prefecture":"東京都","city":"文京区","town":"音羽","prefecture_code":13},"8701":{"zip_code":"1128701","prefecture":"東京都","city":"文京区","town":"後楽","prefecture_code":13}}