{"0022":{"zip_code":"1130022","prefecture":"東京都","prefecture_kana":"トウキョウト","city":"文京区","city_kana":"ブンキョウク","town":"千駄木","town_kana":"センダギ","prefecture_code":13},"0024":{"zip_code":"1130024","prefecture":"東京都","prefecture_kana":"トウキョウト","city":"文京区","city_kana":"ブンキョウク","town":"西片","town_kana":"ニシカタ","prefecture_code":13},"0031":{"zip_code":"1130031","prefecture":"東京都","prefecture_kana":"トウキョウト","city":"文京区","city_kana":"ブンキョウク","town":"根津","town_kana":"ネヅ","prefecture_code":13},"0001":{"zip_code":"1130001","prefecture":"東京都","prefecture_kana":"トウキョウト","city":"文京区","city_kana":"ブンキョウク","town":"白山","town_kana":"ハクサン","prefecture_code":13},"0021":{"zip_code":"1130021","prefecture":"東京都","prefecture_kana":"トウキョウト","city":"文京区","city_kana":"ブンキョウク","town":"本駒込","town_kana":"ホンコマゴメ","prefecture_code":13},"0033":{"zip_code":"1130033","prefecture":"東京都","prefecture_kana":"トウキョウト","city":"文京区","city_kana":"ブンキョウク","town":"本郷","town_kana":"ホンゴウ","prefecture_code":13},"0023":{"zip_code":"1130023","prefecture":"東京都","prefecture_kana":"トウキョウト","city":"文京区","city_kana":"ブンキョウク","town":"向丘","town_kana":"ムコウガオカ","prefecture_code":13},"0032":{"zip_code":"1130032","prefecture":"東京都","prefecture_kana":"トウキョウト","city":"文京区","city_kana":"ブンキョウク","town":"弥生","town_kana":"ヤヨイ","prefecture_code":13},"0034":{"zip_code":"1130034","prefecture":"東京都","prefecture_kana":"トウキョウト","city":"文京区","city_kana":"ブンキョウク","town":"湯島","town_kana":"ユシマ","prefecture_code":13},"8422":{"zip_code":"1138422","prefecture":"東京都","city":"文京区","town":"本郷","prefecture_code":13},"8719":{"zip_code":"1138719","prefecture":"東京都","city":"文京区","town":"本郷","prefecture_code":13},"8612":{"zip_code":"1138612","prefecture":"東京都","city":"文京区","town":"本駒込","prefecture_code":13},"8408":{"zip_code":"1138408","prefecture":"東京都","city":"文京区","town":"本郷","prefecture_code":13},"8484":{"zip_code":"1138484","prefecture":"東京都","city":"文京区","town":"本郷","prefecture_code":13},"8608":{"zip_code":"1138608","prefecture":"東京都","city":"文京区","town":"向丘","prefecture_code":13},"8504":{"zip_code":"1138504","prefecture":"東京都","city":"文京区","town":"本郷","prefecture_code":13},"8505":{"zip_code":"1138505","prefecture":"東京都","city":"文京区","town":"本郷","prefecture_code":13},"8503":{"zip_code":"1138503","prefecture":"東京都","city":"文京区","town":"本郷","prefecture_code":13},"8650":{"zip_code":"1138650","prefecture":"東京都","city":"文京区","town":"本駒込","prefecture_code":13},"8633":{"zip_code":"1138633","prefecture":"東京都","city":"文京区","town":"本駒込","prefecture_code":13},"8525":{"zip_code":"1138525","prefecture":"東京都","city":"文京区","town":"湯島","prefecture_code":13},"8536":{"zip_code":"1138536","prefecture":"東京都","city":"文京区","town":"湯島","prefecture_code":13},"8556":{"zip_code":"1138556","prefecture":"東京都","city":"文京区","town":"湯島","prefecture_code":13},"8524":{"zip_code":"1138524","prefecture":"東京都","city":"文京区","town":"本郷","prefecture_code":13},"8534":{"zip_code":"1138534","prefecture":"東京都","city":"文京区","town":"本郷","prefecture_code":13},"8402":{"zip_code":"1138402","prefecture":"東京都","city":"文京区","town":"本郷","prefecture_code":13},"8477":{"zip_code":"1138477","prefecture":"東京都","city":"文京区","town":"湯島","prefecture_code":13},"8479":{"zip_code":"1138479","prefecture":"東京都","city":"文京区","town":"本郷","prefecture_code":13},"8501":{"zip_code":"1138501","prefecture":"東京都","city":"文京区","town":"湯島","prefecture_code":13},"8638":{"zip_code":"1138638","prefecture":"東京都","city":"文京区","town":"本駒込","prefecture_code":13},"8564":{"zip_code":"1138564","prefecture":"東京都","city":"文京区","town":"湯島","prefecture_code":13},"8563":{"zip_code":"1138563","prefecture":"東京都","city":"文京区","town":"湯島","prefecture_code":13},"8541":{"zip_code":"1138541","prefecture":"東京都","city":"文京区","town":"湯島","prefecture_code":13},"8474":{"zip_code":"1138474","prefecture":"東京都","city":"文京区","town":"本郷","prefecture_code":13},"8450":{"zip_code":"1138450","prefecture":"東京都","city":"文京区","town":"本郷","prefecture_code":13},"8562":{"zip_code":"1138562","prefecture":"東京都","city":"文京区","town":"湯島","prefecture_code":13},"8521":{"zip_code":"1138521","prefecture":"東京都","city":"文京区","town":"湯島","prefecture_code":13},"8410":{"zip_code":"1138410","prefecture":"東京都","city":"文京区","town":"本郷","prefecture_code":13},"8538":{"zip_code":"1138538","prefecture":"東京都","city":"文京区","town":"湯島","prefecture_code":13},"8686":{"zip_code":"1138686","prefecture":"東京都","city":"文京区","town":"本駒込","prefecture_code":13},"8611":{"zip_code":"1138611","prefecture":"東京都","city":"文京区","town":"本駒込","prefecture_code":13},"8561":{"zip_code":"1138561","prefecture":"東京都","city":"文京区","town":"湯島","prefecture_code":13},"8560":{"zip_code":"1138560","prefecture":"東京都","city":"文京区","town":"湯島","prefecture_code":13},"8423":{"zip_code":"1138423","prefecture":"東京都","city":"文京区","town":"本郷","prefecture_code":13},"8604":{"zip_code":"1138604","prefecture":"東京都","city":"文京区","town":"千駄木","prefecture_code":13},"8601":{"zip_code":"1138601","prefecture":"東京都","city":"文京区","town":"本駒込","prefecture_code":13},"8662":{"zip_code":"1138662","prefecture":"東京都","city":"文京区","town":"本駒込","prefecture_code":13},"8464":{"zip_code":"1138464","prefecture":"東京都","city":"文京区","town":"湯島","prefecture_code":13},"8517":{"zip_code":"1138517","prefecture":"東京都","city":"文京区","town":"本郷","prefecture_code":13},"8418":{"zip_code":"1138418","prefecture":"東京都","city":"文京区","town":"本郷","prefecture_code":13},"8509":{"zip_code":"1138509","prefecture":"東京都","city":"文京区","town":"本郷","prefecture_code":13},"8434":{"zip_code":"1138434","prefecture":"東京都","city":"文京区","town":"本郷","prefecture_code":13},"8311":{"zip_code":"1138311","prefecture":"東京都","city":"文京区","town":"本郷","prefecture_code":13},"8553":{"zip_code":"1138553","prefecture":"東京都","city":"文京区","town":"湯島","prefecture_code":13},"8530":{"zip_code":"1138530","prefecture":"東京都","city":"文京区","town":"湯島","prefecture_code":13},"8433":{"zip_code":"1138433","prefecture":"東京都","city":"文京区","town":"本郷","prefecture_code":13},"8421":{"zip_code":"1138421","prefecture":"東京都","city":"文京区","town":"本郷","prefecture_code":13},"8431":{"zip_code":"1138431","prefecture":"東京都","city":"文京区","town":"本郷","prefecture_code":13},"8462":{"zip_code":"1138462","prefecture":"東京都","city":"文京区","town":"湯島","prefecture_code":13},"8465":{"zip_code":"1138465","prefecture":"東京都","city":"文京区","town":"湯島","prefecture_code":13},"8404":{"zip_code":"1138404","prefecture":"東京都","city":"文京区","town":"本郷","prefecture_code":13},"8519":{"zip_code":"1138519","prefecture":"東京都","city":"文京区","town":"湯島","prefecture_code":13},"8549":{"zip_code":"1138549","prefecture":"東京都","city":"文京区","town":"湯島","prefecture_code":13},"8510":{"zip_code":"1138510","prefecture":"東京都","city":"文京区","town":"湯島","prefecture_code":13},"8520":[{"zip_code":"1138520","prefecture":"東京都","city":"文京区","town":"本郷","prefecture_code":13},{"zip_code":"1138520","prefecture":"東京都","city":"文京区","town":"湯島","prefecture_code":13}],"8546":{"zip_code":"1138546","prefecture":"東京都","city":"文京区","town":"本郷","prefecture_code":13},"8471":{"zip_code":"1138471","prefecture":"東京都","city":"文京区","town":"本郷","prefecture_code":13},"8656":{"zip_code":"1138656","prefecture":"東京都","city":"文京区","town":"本郷","prefecture_code":13},"8658":{"zip_code":"1138658","prefecture":"東京都","city":"文京区","town":"弥生","prefecture_code":13},"8657":{"zip_code":"1138657","prefecture":"東京都","city":"文京区","town":"弥生","prefecture_code":13},"8654":{"zip_code":"1138654","prefecture":"東京都","city":"文京区","town":"本郷","prefecture_code":13},"8655":{"zip_code":"1138655","prefecture":"東京都","city":"文京区","town":"本郷","prefecture_code":13},"8555":{"zip_code":"1138555","prefecture":"東京都","city":"文京区","town":"湯島","prefecture_code":13},"8566":{"zip_code":"1138566","prefecture":"東京都","city":"文京区","town":"湯島","prefecture_code":13},"8456":{"zip_code":"1138456","prefecture":"東京都","city":"文京区","town":"本郷","prefecture_code":13},"8513":{"zip_code":"1138513","prefecture":"東京都","city":"文京区","town":"湯島","prefecture_code":13},"8435":{"zip_code":"1138435","prefecture":"東京都","city":"文京区","town":"本郷","prefecture_code":13},"8663":{"zip_code":"1138663","prefecture":"東京都","city":"文京区","town":"本駒込","prefecture_code":13},"8602":{"zip_code":"1138602","prefecture":"東京都","city":"文京区","town":"千駄木","prefecture_code":13},"8603":{"zip_code":"1138603","prefecture":"東京都","city":"文京区","town":"千駄木","prefecture_code":13},"8507":{"zip_code":"1138507","prefecture":"東京都","city":"文京区","town":"湯島","prefecture_code":13},"8610":{"zip_code":"1138610","prefecture":"東京都","city":"文京区","town":"本駒込","prefecture_code":13},"8463":{"zip_code":"1138463","prefecture":"東京都","city":"文京区","town":"湯島","prefecture_code":13},"8441":{"zip_code":"1138441","prefecture":"東京都","city":"文京区","town":"湯島","prefecture_code":13},"8661":{"zip_code":"1138661","prefecture":"東京都","city":"文京区","town":"本駒込","prefecture_code":13},"8415":{"zip_code":"1138415","prefecture":"東京都","city":"文京区","town":"本郷","prefecture_code":13},"8401":{"zip_code":"1138401","prefecture":"東京都","city":"文京区","town":"本郷","prefecture_code":13},"8420":{"zip_code":"1138420","prefecture":"東京都","city":"文京区","town":"本郷","prefecture_code":13},"8483":{"zip_code":"1138483","prefecture":"東京都","city":"文京区","town":"本郷","prefecture_code":13},"8570":{"zip_code":"1138570","prefecture":"東京都","city":"文京区","town":"湯島","prefecture_code":13},"8444":{"zip_code":"1138444","prefecture":"東京都","city":"文京区","town":"本郷","prefecture_code":13},"8535":{"zip_code":"1138535","prefecture":"東京都","city":"文京区","town":"西片","prefecture_code":13},"8660":{"zip_code":"1138660","prefecture":"東京都","city":"文京区","town":"本駒込","prefecture_code":13},"8459":{"zip_code":"1138459","prefecture":"東京都","city":"文京区","town":"西片","prefecture_code":13},"8413":{"zip_code":"1138413","prefecture":"東京都","city":"文京区","town":"本郷","prefecture_code":13},"8412":{"zip_code":"1138412","prefecture":"東京都","city":"文京区","town":"本郷","prefecture_code":13},"8411":{"zip_code":"1138411","prefecture":"東京都","city":"文京区","town":"本郷","prefecture_code":13},"8451":{"zip_code":"1138451","prefecture":"東京都","city":"文京区","town":"本郷","prefecture_code":13},"8543":{"zip_code":"1138543","prefecture":"東京都","city":"文京区","town":"湯島","prefecture_code":13},"8488":{"zip_code":"1138488","prefecture":"東京都","city":"文京区","town":"本郷","prefecture_code":13},"8466":{"zip_code":"1138466","prefecture":"東京都","city":"文京区","town":"向丘","prefecture_code":13},"8551":{"zip_code":"1138551","prefecture":"東京都","city":"文京区","town":"湯島","prefecture_code":13},"8448":{"zip_code":"1138448","prefecture":"東京都","city":"文京区","town":"本郷","prefecture_code":13},"8681":{"zip_code":"1138681","prefecture":"東京都","city":"文京区","town":"湯島","prefecture_code":13},"8701":{"zip_code":"1138701","prefecture":"東京都","city":"文京区","town":"湯島","prefecture_code":13},"8711":{"zip_code":"1138711","prefecture":"東京都","city":"文京区","town":"本郷","prefecture_code":13},"8712":{"zip_code":"1138712","prefecture":"東京都","city":"文京区","town":"本郷","prefecture_code":13}}