{"0000":{"zip_code":"1160000","prefecture":"東京都","prefecture_kana":"トウキョウト","city":"荒川区","city_kana":"アラカワク","town":"","town_kana":"","prefecture_code":13},"0002":{"zip_code":"1160002","prefecture":"東京都","prefecture_kana":"トウキョウト","city":"荒川区","city_kana":"アラカワク","town":"荒川","town_kana":"アラカワ","prefecture_code":13},"0011":{"zip_code":"1160011","prefecture":"東京都","prefecture_kana":"トウキョウト","city":"荒川区","city_kana":"アラカワク","town":"西尾久","town_kana":"ニシオグ","prefecture_code":13},"0013":{"zip_code":"1160013","prefecture":"東京都","prefecture_kana":"トウキョウト","city":"荒川区","city_kana":"アラカワク","town":"西日暮里","town_kana":"ニシニッポリ","prefecture_code":13},"0012":{"zip_code":"1160012","prefecture":"東京都","prefecture_kana":"トウキョウト","city":"荒川区","city_kana":"アラカワク","town":"東尾久","town_kana":"ヒガシオグ","prefecture_code":13},"0014":{"zip_code":"1160014","prefecture":"東京都","prefecture_kana":"トウキョウト","city":"荒川区","city_kana":"アラカワク","town":"東日暮里","town_kana":"ヒガシニッポリ","prefecture_code":13},"0001":{"zip_code":"1160001","prefecture":"東京都","prefecture_kana":"トウキョウト","city":"荒川区","city_kana":"アラカワク","town":"町屋","town_kana":"マチヤ","prefecture_code":13},"0003":{"zip_code":"1160003","prefecture":"東京都","prefecture_kana":"トウキョウト","city":"荒川区","city_kana":"アラカワク","town":"南千住","town_kana":"ミナミセンジュ","prefecture_code":13},"8540":{"zip_code":"1168540","prefecture":"東京都","city":"荒川区","town":"西日暮里","prefecture_code":13},"8507":{"zip_code":"1168507","prefecture":"東京都","city":"荒川区","town":"荒川","prefecture_code":13},"8502":{"zip_code":"1168502","prefecture":"東京都","city":"荒川区","town":"荒川","prefecture_code":13},"8501":{"zip_code":"1168501","prefecture":"東京都","city":"荒川区","town":"荒川","prefecture_code":13},"8588":{"zip_code":"1168588","prefecture":"東京都","city":"荒川区","town":"西日暮里","prefecture_code":13},"8586":{"zip_code":"1168586","prefecture":"東京都","city":"荒川区","town":"西日暮里","prefecture_code":13},"8585":{"zip_code":"1168585","prefecture":"東京都","city":"荒川区","town":"西日暮里","prefecture_code":13},"8543":{"zip_code":"1168543","prefecture":"東京都","city":"荒川区","town":"東日暮里","prefecture_code":13},"8541":{"zip_code":"1168541","prefecture":"東京都","city":"荒川区","town":"西日暮里","prefecture_code":13},"8584":{"zip_code":"1168584","prefecture":"東京都","city":"荒川区","town":"西日暮里","prefecture_code":13},"8562":{"zip_code":"1168562","prefecture":"東京都","city":"荒川区","town":"西尾久","prefecture_code":13},"8554":{"zip_code":"1168554","prefecture":"東京都","city":"荒川区","town":"東尾久","prefecture_code":13},"8571":{"zip_code":"1168571","prefecture":"東京都","city":"荒川区","town":"東日暮里","prefecture_code":13},"8537":{"zip_code":"1168537","prefecture":"東京都","city":"荒川区","town":"東日暮里","prefecture_code":13},"8544":{"zip_code":"1168544","prefecture":"東京都","city":"荒川区","town":"西日暮里","prefecture_code":13},"8581":{"zip_code":"1168581","prefecture":"東京都","city":"荒川区","town":"西日暮里","prefecture_code":13},"8532":{"zip_code":"1168532","prefecture":"東京都","city":"荒川区","town":"東日暮里","prefecture_code":13},"8580":{"zip_code":"1168580","prefecture":"東京都","city":"荒川区","town":"西日暮里","prefecture_code":13},"8546":{"zip_code":"1168546","prefecture":"東京都","city":"荒川区","town":"西日暮里","prefecture_code":13},"8503":{"zip_code":"1168503","prefecture":"東京都","city":"荒川区","town":"荒川","prefecture_code":13},"8508":{"zip_code":"1168508","prefecture":"東京都","city":"荒川区","town":"荒川","prefecture_code":13},"8587":{"zip_code":"1168587","prefecture":"東京都","city":"荒川区","town":"西日暮里","prefecture_code":13},"8524":{"zip_code":"1168524","prefecture":"東京都","city":"荒川区","town":"南千住","prefecture_code":13},"8556":{"zip_code":"1168556","prefecture":"東京都","city":"荒川区","town":"西日暮里","prefecture_code":13},"8549":{"zip_code":"1168549","prefecture":"東京都","city":"荒川区","town":"西日暮里","prefecture_code":13},"8548":{"zip_code":"1168548","prefecture":"東京都","city":"荒川区","town":"西日暮里","prefecture_code":13},"8522":{"zip_code":"1168522","prefecture":"東京都","city":"荒川区","town":"南千住","prefecture_code":13},"8533":{"zip_code":"1168533","prefecture":"東京都","city":"荒川区","town":"東日暮里","prefecture_code":13},"8567":{"zip_code":"1168567","prefecture":"東京都","city":"荒川区","town":"西尾久","prefecture_code":13},"8550":{"zip_code":"1168550","prefecture":"東京都","city":"荒川区","town":"東尾久","prefecture_code":13},"8521":{"zip_code":"1168521","prefecture":"東京都","city":"荒川区","town":"南千住","prefecture_code":13},"8551":{"zip_code":"1168551","prefecture":"東京都","city":"荒川区","town":"東尾久","prefecture_code":13},"8523":{"zip_code":"1168523","prefecture":"東京都","city":"荒川区","town":"南千住","prefecture_code":13},"8611":{"zip_code":"1168611","prefecture":"東京都","city":"荒川区","town":"南千住","prefecture_code":13},"8552":{"zip_code":"1168552","prefecture":"東京都","city":"荒川区","town":"荒川","prefecture_code":13},"8561":{"zip_code":"1168561","prefecture":"東京都","city":"荒川区","town":"西尾久","prefecture_code":13},"8505":{"zip_code":"1168505","prefecture":"東京都","city":"荒川区","town":"荒川","prefecture_code":13}}