{"0000":{"zip_code":"1200000","prefecture":"東京都","prefecture_kana":"トウキョウト","city":"足立区","city_kana":"アダチク","town":"","town_kana":"","prefecture_code":13},"0012":{"zip_code":"1200012","prefecture":"東京都","prefecture_kana":"トウキョウト","city":"足立区","city_kana":"アダチク","town":"青井","town_kana":"アオイ","prefecture_code":13},"0015":{"zip_code":"1200015","prefecture":"東京都","prefecture_kana":"トウキョウト","city":"足立区","city_kana":"アダチク","town":"足立","town_kana":"アダチ","prefecture_code":13},"0005":{"zip_code":"1200005","prefecture":"東京都","prefecture_kana":"トウキョウト","city":"足立区","city_kana":"アダチク","town":"綾瀬","town_kana":"アヤセ","prefecture_code":13},"0001":{"zip_code":"1200001","prefecture":"東京都","prefecture_kana":"トウキョウト","city":"足立区","city_kana":"アダチク","town":"大谷田","town_kana":"オオヤタ","prefecture_code":13},"0046":{"zip_code":"1200046","prefecture":"東京都","prefecture_kana":"トウキョウト","city":"足立区","city_kana":"アダチク","town":"小台","town_kana":"オダイ","prefecture_code":13},"0013":{"zip_code":"1200013","prefecture":"東京都","prefecture_kana":"トウキョウト","city":"足立区","city_kana":"アダチク","town":"弘道","town_kana":"コウドウ","prefecture_code":13},"0034":{"zip_code":"1200034","prefecture":"東京都","prefecture_kana":"トウキョウト","city":"足立区","city_kana":"アダチク","town":"千住","town_kana":"センジュ","prefecture_code":13},"0023":{"zip_code":"1200023","prefecture":"東京都","prefecture_kana":"トウキョウト","city":"足立区","city_kana":"アダチク","town":"千住曙町","town_kana":"センジュアケボノチョウ","prefecture_code":13},"0026":{"zip_code":"1200026","prefecture":"東京都","prefecture_kana":"トウキョウト","city":"足立区","city_kana":"アダチク","town":"千住旭町","town_kana":"センジュアサヒチョウ","prefecture_code":13},"0025":{"zip_code":"1200025","prefecture":"東京都","prefecture_kana":"トウキョウト","city":"足立区","city_kana":"アダチク","town":"千住東","town_kana":"センジュアズマ","prefecture_code":13},"0031":{"zip_code":"1200031","prefecture":"東京都","prefecture_kana":"トウキョウト","city":"足立区","city_kana":"アダチク","town":"千住大川町","town_kana":"センジュオオカワチョウ","prefecture_code":13},"0037":{"zip_code":"1200037","prefecture":"東京都","prefecture_kana":"トウキョウト","city":"足立区","city_kana":"アダチク","town":"千住河原町","town_kana":"センジュカワラチョウ","prefecture_code":13},"0033":{"zip_code":"1200033","prefecture":"東京都","prefecture_kana":"トウキョウト","city":"足立区","city_kana":"アダチク","town":"千住寿町","town_kana":"センジュコトブキチョウ","prefecture_code":13},"0045":{"zip_code":"1200045","prefecture":"東京都","prefecture_kana":"トウキョウト","city":"足立区","city_kana":"アダチク","town":"千住桜木","town_kana":"センジュサクラギ","prefecture_code":13},"0024":{"zip_code":"1200024","prefecture":"東京都","prefecture_kana":"トウキョウト","city":"足立区","city_kana":"アダチク","town":"千住関屋町","town_kana":"センジュセキヤチョウ","prefecture_code":13},"0042":{"zip_code":"1200042","prefecture":"東京都","prefecture_kana":"トウキョウト","city":"足立区","city_kana":"アダチク","town":"千住龍田町","town_kana":"センジュタツタチョウ","prefecture_code":13},"0035":{"zip_code":"1200035","prefecture":"東京都","prefecture_kana":"トウキョウト","city":"足立区","city_kana":"アダチク","town":"千住中居町","town_kana":"センジュナカイチョウ","prefecture_code":13},"0036":{"zip_code":"1200036","prefecture":"東京都","prefecture_kana":"トウキョウト","city":"足立区","city_kana":"アダチク","town":"千住仲町","town_kana":"センジュナカチョウ","prefecture_code":13},"0038":{"zip_code":"1200038","prefecture":"東京都","prefecture_kana":"トウキョウト","city":"足立区","city_kana":"アダチク","town":"千住橋戸町","town_kana":"センジュハシドチョウ","prefecture_code":13},"0044":{"zip_code":"1200044","prefecture":"東京都","prefecture_kana":"トウキョウト","city":"足立区","city_kana":"アダチク","town":"千住緑町","town_kana":"センジュミドリチョウ","prefecture_code":13},"0043":{"zip_code":"1200043","prefecture":"東京都","prefecture_kana":"トウキョウト","city":"足立区","city_kana":"アダチク","town":"千住宮元町","town_kana":"センジュミヤモトチョウ","prefecture_code":13},"0041":{"zip_code":"1200041","prefecture":"東京都","prefecture_kana":"トウキョウト","city":"足立区","city_kana":"アダチク","town":"千住元町","town_kana":"センジュモトマチ","prefecture_code":13},"0032":{"zip_code":"1200032","prefecture":"東京都","prefecture_kana":"トウキョウト","city":"足立区","city_kana":"アダチク","town":"千住柳町","town_kana":"センジュヤナギチョウ","prefecture_code":13},"0011":{"zip_code":"1200011","prefecture":"東京都","prefecture_kana":"トウキョウト","city":"足立区","city_kana":"アダチク","town":"中央本町","town_kana":"チュウオウホンチョウ","prefecture_code":13},"0003":{"zip_code":"1200003","prefecture":"東京都","prefecture_kana":"トウキョウト","city":"足立区","city_kana":"アダチク","town":"東和","town_kana":"トウワ","prefecture_code":13},"0002":{"zip_code":"1200002","prefecture":"東京都","prefecture_kana":"トウキョウト","city":"足立区","city_kana":"アダチク","town":"中川","town_kana":"ナカガワ","prefecture_code":13},"0014":{"zip_code":"1200014","prefecture":"東京都","prefecture_kana":"トウキョウト","city":"足立区","city_kana":"アダチク","town":"西綾瀬","town_kana":"ニシアヤセ","prefecture_code":13},"0004":{"zip_code":"1200004","prefecture":"東京都","prefecture_kana":"トウキョウト","city":"足立区","city_kana":"アダチク","town":"東綾瀬","town_kana":"ヒガシアヤセ","prefecture_code":13},"0021":{"zip_code":"1200021","prefecture":"東京都","prefecture_kana":"トウキョウト","city":"足立区","city_kana":"アダチク","town":"日ノ出町","town_kana":"ヒノデチョウ","prefecture_code":13},"0047":{"zip_code":"1200047","prefecture":"東京都","prefecture_kana":"トウキョウト","city":"足立区","city_kana":"アダチク","town":"宮城","town_kana":"ミヤギ","prefecture_code":13},"0006":{"zip_code":"1200006","prefecture":"東京都","prefecture_kana":"トウキョウト","city":"足立区","city_kana":"アダチク","town":"谷中","town_kana":"ヤナカ","prefecture_code":13},"0022":{"zip_code":"1200022","prefecture":"東京都","prefecture_kana":"トウキョウト","city":"足立区","city_kana":"アダチク","town":"柳原","town_kana":"ヤナギハラ","prefecture_code":13},"8501":{"zip_code":"1208501","prefecture":"東京都","city":"足立区","town":"千住","prefecture_code":13},"8510":{"zip_code":"1208510","prefecture":"東京都","city":"足立区","town":"中央本町","prefecture_code":13},"8512":{"zip_code":"1208512","prefecture":"東京都","city":"足立区","town":"中央本町","prefecture_code":13},"8530":{"zip_code":"1208530","prefecture":"東京都","city":"足立区","town":"千住","prefecture_code":13},"8520":{"zip_code":"1208520","prefecture":"東京都","city":"足立区","town":"千住旭町","prefecture_code":13},"8528":{"zip_code":"1208528","prefecture":"東京都","city":"足立区","town":"小台","prefecture_code":13},"8534":{"zip_code":"1208534","prefecture":"東京都","city":"足立区","town":"千住東","prefecture_code":13},"8581":{"zip_code":"1208581","prefecture":"東京都","city":"足立区","town":"西綾瀬","prefecture_code":13},"8577":{"zip_code":"1208577","prefecture":"東京都","city":"足立区","town":"綾瀬","prefecture_code":13},"8526":{"zip_code":"1208526","prefecture":"東京都","city":"足立区","town":"小台","prefecture_code":13},"8601":{"zip_code":"1208601","prefecture":"東京都","city":"足立区","town":"千住緑町","prefecture_code":13},"8602":{"zip_code":"1208602","prefecture":"東京都","city":"足立区","town":"千住緑町","prefecture_code":13},"8544":{"zip_code":"1208544","prefecture":"東京都","city":"足立区","town":"千住中居町","prefecture_code":13},"8536":{"zip_code":"1208536","prefecture":"東京都","city":"足立区","town":"千住関屋町","prefecture_code":13},"8553":{"zip_code":"1208553","prefecture":"東京都","city":"足立区","town":"千住橋戸町","prefecture_code":13},"8554":{"zip_code":"1208554","prefecture":"東京都","city":"足立区","town":"千住旭町","prefecture_code":13},"8551":{"zip_code":"1208551","prefecture":"東京都","city":"足立区","town":"千住旭町","prefecture_code":13},"8539":{"zip_code":"1208539","prefecture":"東京都","city":"足立区","town":"千住宮元町","prefecture_code":13},"8575":{"zip_code":"1208575","prefecture":"東京都","city":"足立区","town":"綾瀬","prefecture_code":13},"8555":{"zip_code":"1208555","prefecture":"東京都","city":"足立区","town":"千住橋戸町","prefecture_code":13},"8570":{"zip_code":"1208570","prefecture":"東京都","city":"足立区","town":"千住仲町","prefecture_code":13},"8556":{"zip_code":"1208556","prefecture":"東京都","city":"足立区","town":"千住橋戸町","prefecture_code":13},"8558":{"zip_code":"1208558","prefecture":"東京都","city":"足立区","town":"千住橋戸町","prefecture_code":13},"8550":{"zip_code":"1208550","prefecture":"東京都","city":"足立区","town":"千住橋戸町","prefecture_code":13},"8507":{"zip_code":"1208507","prefecture":"東京都","city":"足立区","town":"千住桜木","prefecture_code":13},"8508":{"zip_code":"1208508","prefecture":"東京都","city":"足立区","town":"千住","prefecture_code":13}}