{"0012":{"zip_code":"1210012","prefecture":"東京都","prefecture_kana":"トウキョウト","city":"足立区","city_kana":"アダチク","town":"青井","town_kana":"アオイ","prefecture_code":13},"0823":{"zip_code":"1210823","prefecture":"東京都","prefecture_kana":"トウキョウト","city":"足立区","city_kana":"アダチク","town":"伊興","town_kana":"イコウ","prefecture_code":13},"0807":{"zip_code":"1210807","prefecture":"東京都","prefecture_kana":"トウキョウト","city":"足立区","city_kana":"アダチク","town":"伊興本町","town_kana":"イコウホンチョウ","prefecture_code":13},"0836":{"zip_code":"1210836","prefecture":"東京都","prefecture_kana":"トウキョウト","city":"足立区","city_kana":"アダチク","town":"入谷","town_kana":"イリヤ","prefecture_code":13},"0834":{"zip_code":"1210834","prefecture":"東京都","prefecture_kana":"トウキョウト","city":"足立区","city_kana":"アダチク","town":"入谷町","town_kana":"イリヤマチ","prefecture_code":13},"0816":{"zip_code":"1210816","prefecture":"東京都","prefecture_kana":"トウキョウト","city":"足立区","city_kana":"アダチク","town":"梅島","town_kana":"ウメジマ","prefecture_code":13},"0055":{"zip_code":"1210055","prefecture":"東京都","prefecture_kana":"トウキョウト","city":"足立区","city_kana":"アダチク","town":"加平","town_kana":"カヘイ","prefecture_code":13},"0056":{"zip_code":"1210056","prefecture":"東京都","prefecture_kana":"トウキョウト","city":"足立区","city_kana":"アダチク","town":"北加平町","town_kana":"キタカヘイチョウ","prefecture_code":13},"0833":{"zip_code":"1210833","prefecture":"東京都","prefecture_kana":"トウキョウト","city":"足立区","city_kana":"アダチク","town":"古千谷","town_kana":"コヂヤ","prefecture_code":13},"0832":{"zip_code":"1210832","prefecture":"東京都","prefecture_kana":"トウキョウト","city":"足立区","city_kana":"アダチク","town":"古千谷本町","town_kana":"コヂヤホンチョウ","prefecture_code":13},"0053":{"zip_code":"1210053","prefecture":"東京都","prefecture_kana":"トウキョウト","city":"足立区","city_kana":"アダチク","town":"佐野","town_kana":"サノ","prefecture_code":13},"0815":{"zip_code":"1210815","prefecture":"東京都","prefecture_kana":"トウキョウト","city":"足立区","city_kana":"アダチク","town":"島根","town_kana":"シマネ","prefecture_code":13},"0051":{"zip_code":"1210051","prefecture":"東京都","prefecture_kana":"トウキョウト","city":"足立区","city_kana":"アダチク","town":"神明","town_kana":"シンメイ","prefecture_code":13},"0057":{"zip_code":"1210057","prefecture":"東京都","prefecture_kana":"トウキョウト","city":"足立区","city_kana":"アダチク","town":"神明南","town_kana":"シンメイミナミ","prefecture_code":13},"0813":{"zip_code":"1210813","prefecture":"東京都","prefecture_kana":"トウキョウト","city":"足立区","city_kana":"アダチク","town":"竹の塚","town_kana":"タケノツカ","prefecture_code":13},"0054":{"zip_code":"1210054","prefecture":"東京都","prefecture_kana":"トウキョウト","city":"足立区","city_kana":"アダチク","town":"辰沼","town_kana":"タツヌマ","prefecture_code":13},"0011":{"zip_code":"1210011","prefecture":"東京都","prefecture_kana":"トウキョウト","city":"足立区","city_kana":"アダチク","town":"中央本町","town_kana":"チュウオウホンチョウ","prefecture_code":13},"0831":{"zip_code":"1210831","prefecture":"東京都","prefecture_kana":"トウキョウト","city":"足立区","city_kana":"アダチク","town":"舎人","town_kana":"トネリ","prefecture_code":13},"0837":{"zip_code":"1210837","prefecture":"東京都","prefecture_kana":"トウキョウト","city":"足立区","city_kana":"アダチク","town":"舎人公園","town_kana":"トネリコウエン","prefecture_code":13},"0835":{"zip_code":"1210835","prefecture":"東京都","prefecture_kana":"トウキョウト","city":"足立区","city_kana":"アダチク","town":"舎人町","town_kana":"トネリマチ","prefecture_code":13},"0824":{"zip_code":"1210824","prefecture":"東京都","prefecture_kana":"トウキョウト","city":"足立区","city_kana":"アダチク","town":"西伊興","town_kana":"ニシイコウ","prefecture_code":13},"0825":{"zip_code":"1210825","prefecture":"東京都","prefecture_kana":"トウキョウト","city":"足立区","city_kana":"アダチク","town":"西伊興町","town_kana":"ニシイコウチョウ","prefecture_code":13},"0074":{"zip_code":"1210074","prefecture":"東京都","prefecture_kana":"トウキョウト","city":"足立区","city_kana":"アダチク","town":"西加平","town_kana":"ニシカヘイ","prefecture_code":13},"0822":{"zip_code":"1210822","prefecture":"東京都","prefecture_kana":"トウキョウト","city":"足立区","city_kana":"アダチク","town":"西竹の塚","town_kana":"ニシタケノツカ","prefecture_code":13},"0812":{"zip_code":"1210812","prefecture":"東京都","prefecture_kana":"トウキョウト","city":"足立区","city_kana":"アダチク","town":"西保木間","town_kana":"ニシホキマ","prefecture_code":13},"0061":{"zip_code":"1210061","prefecture":"東京都","prefecture_kana":"トウキョウト","city":"足立区","city_kana":"アダチク","town":"花畑","town_kana":"ハナハタ","prefecture_code":13},"0801":{"zip_code":"1210801","prefecture":"東京都","prefecture_kana":"トウキョウト","city":"足立区","city_kana":"アダチク","town":"東伊興","town_kana":"ヒガシイコウ","prefecture_code":13},"0063":{"zip_code":"1210063","prefecture":"東京都","prefecture_kana":"トウキョウト","city":"足立区","city_kana":"アダチク","town":"東保木間","town_kana":"ヒガシホキマ","prefecture_code":13},"0071":{"zip_code":"1210071","prefecture":"東京都","prefecture_kana":"トウキョウト","city":"足立区","city_kana":"アダチク","town":"東六月町","town_kana":"ヒガシロクガツチョウ","prefecture_code":13},"0075":{"zip_code":"1210075","prefecture":"東京都","prefecture_kana":"トウキョウト","city":"足立区","city_kana":"アダチク","town":"一ツ家","town_kana":"ヒトツヤ","prefecture_code":13},"0076":{"zip_code":"1210076","prefecture":"東京都","prefecture_kana":"トウキョウト","city":"足立区","city_kana":"アダチク","town":"平野","town_kana":"ヒラノ","prefecture_code":13},"0064":{"zip_code":"1210064","prefecture":"東京都","prefecture_kana":"トウキョウト","city":"足立区","city_kana":"アダチク","town":"保木間","town_kana":"ホキマ","prefecture_code":13},"0072":{"zip_code":"1210072","prefecture":"東京都","prefecture_kana":"トウキョウト","city":"足立区","city_kana":"アダチク","town":"保塚町","town_kana":"ホヅカチョウ","prefecture_code":13},"0062":{"zip_code":"1210062","prefecture":"東京都","prefecture_kana":"トウキョウト","city":"足立区","city_kana":"アダチク","town":"南花畑","town_kana":"ミナミハナハタ","prefecture_code":13},"0052":{"zip_code":"1210052","prefecture":"東京都","prefecture_kana":"トウキョウト","city":"足立区","city_kana":"アダチク","town":"六木","town_kana":"ムツギ","prefecture_code":13},"0814":{"zip_code":"1210814","prefecture":"東京都","prefecture_kana":"トウキョウト","city":"足立区","city_kana":"アダチク","town":"六月","town_kana":"ロクガツ","prefecture_code":13},"0073":{"zip_code":"1210073","prefecture":"東京都","prefecture_kana":"トウキョウト","city":"足立区","city_kana":"アダチク","town":"六町","town_kana":"ロクチョウ","prefecture_code":13},"8729":{"zip_code":"1218729","prefecture":"埼玉県","city":"川口市","town":"東本郷","prefecture_code":11},"8512":{"zip_code":"1218512","prefecture":"東京都","city":"足立区","town":"中央本町","prefecture_code":13},"8555":{"zip_code":"1218555","prefecture":"東京都","city":"足立区","town":"竹の塚","prefecture_code":13},"8515":{"zip_code":"1218515","prefecture":"東京都","city":"足立区","town":"島根","prefecture_code":13},"8520":{"zip_code":"1218520","prefecture":"東京都","city":"足立区","town":"梅島","prefecture_code":13},"8610":{"zip_code":"1218610","prefecture":"東京都","city":"足立区","town":"保塚町","prefecture_code":13},"8521":{"zip_code":"1218521","prefecture":"東京都","city":"足立区","town":"梅島","prefecture_code":13},"8633":{"zip_code":"1218633","prefecture":"東京都","city":"足立区","town":"加平","prefecture_code":13},"8639":{"zip_code":"1218639","prefecture":"東京都","city":"足立区","town":"一ツ家","prefecture_code":13},"8682":{"zip_code":"1218682","prefecture":"東京都","city":"足立区","town":"辰沼","prefecture_code":13},"8611":{"zip_code":"1218611","prefecture":"東京都","city":"足立区","town":"南花畑","prefecture_code":13},"8504":{"zip_code":"1218504","prefecture":"東京都","city":"足立区","town":"島根","prefecture_code":13},"8585":{"zip_code":"1218585","prefecture":"東京都","city":"足立区","town":"入谷","prefecture_code":13},"8510":{"zip_code":"1218510","prefecture":"東京都","city":"足立区","town":"入谷","prefecture_code":13},"8588":{"zip_code":"1218588","prefecture":"東京都","city":"足立区","town":"入谷","prefecture_code":13},"8550":{"zip_code":"1218550","prefecture":"東京都","city":"足立区","town":"中央本町","prefecture_code":13},"8505":{"zip_code":"1218505","prefecture":"東京都","city":"足立区","town":"六木","prefecture_code":13},"8711":{"zip_code":"1218711","prefecture":"東京都","city":"足立区","town":"島根","prefecture_code":13},"8080":{"zip_code":"1218080","prefecture":"東京都","city":"足立区","town":"西竹の塚","prefecture_code":13}}