{"0000":{"zip_code":"1240000","prefecture":"東京都","prefecture_kana":"トウキョウト","city":"葛飾区","city_kana":"カツシカク","town":"","town_kana":"","prefecture_code":13},"0022":{"zip_code":"1240022","prefecture":"東京都","prefecture_kana":"トウキョウト","city":"葛飾区","city_kana":"カツシカク","town":"奥戸","town_kana":"オクド","prefecture_code":13},"0003":{"zip_code":"1240003","prefecture":"東京都","prefecture_kana":"トウキョウト","city":"葛飾区","city_kana":"カツシカク","town":"お花茶屋","town_kana":"オハナヂャヤ","prefecture_code":13},"0001":{"zip_code":"1240001","prefecture":"東京都","prefecture_kana":"トウキョウト","city":"葛飾区","city_kana":"カツシカク","town":"小菅","town_kana":"コスゲ","prefecture_code":13},"0024":{"zip_code":"1240024","prefecture":"東京都","prefecture_kana":"トウキョウト","city":"葛飾区","city_kana":"カツシカク","town":"新小岩","town_kana":"シンコイワ","prefecture_code":13},"0005":{"zip_code":"1240005","prefecture":"東京都","prefecture_kana":"トウキョウト","city":"葛飾区","city_kana":"カツシカク","town":"宝町","town_kana":"タカラマチ","prefecture_code":13},"0012":{"zip_code":"1240012","prefecture":"東京都","prefecture_kana":"トウキョウト","city":"葛飾区","city_kana":"カツシカク","town":"立石","town_kana":"タテイシ","prefecture_code":13},"0002":{"zip_code":"1240002","prefecture":"東京都","prefecture_kana":"トウキョウト","city":"葛飾区","city_kana":"カツシカク","town":"西亀有","town_kana":"ニシカメアリ","prefecture_code":13},"0025":{"zip_code":"1240025","prefecture":"東京都","prefecture_kana":"トウキョウト","city":"葛飾区","city_kana":"カツシカク","town":"西新小岩","town_kana":"ニシシンコイワ","prefecture_code":13},"0023":{"zip_code":"1240023","prefecture":"東京都","prefecture_kana":"トウキョウト","city":"葛飾区","city_kana":"カツシカク","town":"東新小岩","town_kana":"ヒガシシンコイワ","prefecture_code":13},"0013":{"zip_code":"1240013","prefecture":"東京都","prefecture_kana":"トウキョウト","city":"葛飾区","city_kana":"カツシカク","town":"東立石","town_kana":"ヒガシタテイシ","prefecture_code":13},"0004":{"zip_code":"1240004","prefecture":"東京都","prefecture_kana":"トウキョウト","city":"葛飾区","city_kana":"カツシカク","town":"東堀切","town_kana":"ヒガシホリキリ","prefecture_code":13},"0014":{"zip_code":"1240014","prefecture":"東京都","prefecture_kana":"トウキョウト","city":"葛飾区","city_kana":"カツシカク","town":"東四つ木","town_kana":"ヒガシヨツギ","prefecture_code":13},"0021":{"zip_code":"1240021","prefecture":"東京都","prefecture_kana":"トウキョウト","city":"葛飾区","city_kana":"カツシカク","town":"細田","town_kana":"ホソダ","prefecture_code":13},"0006":{"zip_code":"1240006","prefecture":"東京都","prefecture_kana":"トウキョウト","city":"葛飾区","city_kana":"カツシカク","town":"堀切","town_kana":"ホリキリ","prefecture_code":13},"0011":{"zip_code":"1240011","prefecture":"東京都","prefecture_kana":"トウキョウト","city":"葛飾区","city_kana":"カツシカク","town":"四つ木","town_kana":"ヨツギ","prefecture_code":13},"8539":{"zip_code":"1248539","prefecture":"東京都","city":"葛飾区","town":"立石","prefecture_code":13},"8588":{"zip_code":"1248588","prefecture":"東京都","city":"葛飾区","town":"立石","prefecture_code":13},"8555":{"zip_code":"1248555","prefecture":"東京都","city":"葛飾区","town":"立石","prefecture_code":13},"8524":{"zip_code":"1248524","prefecture":"東京都","city":"葛飾区","town":"立石","prefecture_code":13},"8560":{"zip_code":"1248560","prefecture":"東京都","city":"葛飾区","town":"立石","prefecture_code":13},"8503":{"zip_code":"1248503","prefecture":"東京都","city":"葛飾区","town":"四つ木","prefecture_code":13},"8511":{"zip_code":"1248511","prefecture":"東京都","city":"葛飾区","town":"立石","prefecture_code":13},"8585":{"zip_code":"1248585","prefecture":"東京都","city":"葛飾区","town":"東四つ木","prefecture_code":13},"8530":{"zip_code":"1248530","prefecture":"東京都","city":"葛飾区","town":"西新小岩","prefecture_code":13},"8533":{"zip_code":"1248533","prefecture":"東京都","city":"葛飾区","town":"立石","prefecture_code":13},"8550":{"zip_code":"1248550","prefecture":"東京都","city":"葛飾区","town":"四つ木","prefecture_code":13},"8535":{"zip_code":"1248535","prefecture":"東京都","city":"葛飾区","town":"西新小岩","prefecture_code":13},"8538":{"zip_code":"1248538","prefecture":"東京都","city":"葛飾区","town":"西新小岩","prefecture_code":13},"8501":{"zip_code":"1248501","prefecture":"東京都","city":"葛飾区","town":"新小岩","prefecture_code":13},"8520":{"zip_code":"1248520","prefecture":"東京都","city":"葛飾区","town":"立石","prefecture_code":13},"8502":{"zip_code":"1248502","prefecture":"東京都","city":"葛飾区","town":"小菅","prefecture_code":13},"8509":{"zip_code":"1248509","prefecture":"東京都","city":"葛飾区","town":"西新小岩","prefecture_code":13},"8510":{"zip_code":"1248510","prefecture":"東京都","city":"葛飾区","town":"堀切","prefecture_code":13},"8577":{"zip_code":"1248577","prefecture":"東京都","city":"葛飾区","town":"奥戸","prefecture_code":13}}