{"0000":{"zip_code":"1300000","prefecture":"東京都","prefecture_kana":"トウキョウト","city":"墨田区","city_kana":"スミダク","town":"","town_kana":"","prefecture_code":13},"0001":{"zip_code":"1300001","prefecture":"東京都","prefecture_kana":"トウキョウト","city":"墨田区","city_kana":"スミダク","town":"吾妻橋","town_kana":"アヅマバシ","prefecture_code":13},"0011":{"zip_code":"1300011","prefecture":"東京都","prefecture_kana":"トウキョウト","city":"墨田区","city_kana":"スミダク","town":"石原","town_kana":"イシワラ","prefecture_code":13},"0014":{"zip_code":"1300014","prefecture":"東京都","prefecture_kana":"トウキョウト","city":"墨田区","city_kana":"スミダク","town":"亀沢","town_kana":"カメザワ","prefecture_code":13},"0024":{"zip_code":"1300024","prefecture":"東京都","prefecture_kana":"トウキョウト","city":"墨田区","city_kana":"スミダク","town":"菊川","town_kana":"キクカワ","prefecture_code":13},"0013":{"zip_code":"1300013","prefecture":"東京都","prefecture_kana":"トウキョウト","city":"墨田区","city_kana":"スミダク","town":"錦糸","town_kana":"キンシ","prefecture_code":13},"0022":{"zip_code":"1300022","prefecture":"東京都","prefecture_kana":"トウキョウト","city":"墨田区","city_kana":"スミダク","town":"江東橋","town_kana":"コウトウバシ","prefecture_code":13},"0012":{"zip_code":"1300012","prefecture":"東京都","prefecture_kana":"トウキョウト","city":"墨田区","city_kana":"スミダク","town":"太平","town_kana":"タイヘイ","prefecture_code":13},"0023":{"zip_code":"1300023","prefecture":"東京都","prefecture_kana":"トウキョウト","city":"墨田区","city_kana":"スミダク","town":"立川","town_kana":"タテカワ","prefecture_code":13},"0025":{"zip_code":"1300025","prefecture":"東京都","prefecture_kana":"トウキョウト","city":"墨田区","city_kana":"スミダク","town":"千歳","town_kana":"チトセ","prefecture_code":13},"0002":{"zip_code":"1300002","prefecture":"東京都","prefecture_kana":"トウキョウト","city":"墨田区","city_kana":"スミダク","town":"業平","town_kana":"ナリヒラ","prefecture_code":13},"0005":{"zip_code":"1300005","prefecture":"東京都","prefecture_kana":"トウキョウト","city":"墨田区","city_kana":"スミダク","town":"東駒形","town_kana":"ヒガシコマガタ","prefecture_code":13},"0004":{"zip_code":"1300004","prefecture":"東京都","prefecture_kana":"トウキョウト","city":"墨田区","city_kana":"スミダク","town":"本所","town_kana":"ホンジョ","prefecture_code":13},"0021":{"zip_code":"1300021","prefecture":"東京都","prefecture_kana":"トウキョウト","city":"墨田区","city_kana":"スミダク","town":"緑","town_kana":"ミドリ","prefecture_code":13},"0015":{"zip_code":"1300015","prefecture":"東京都","prefecture_kana":"トウキョウト","city":"墨田区","city_kana":"スミダク","town":"横網","town_kana":"ヨコアミ","prefecture_code":13},"0003":{"zip_code":"1300003","prefecture":"東京都","prefecture_kana":"トウキョウト","city":"墨田区","city_kana":"スミダク","town":"横川","town_kana":"ヨコカワ","prefecture_code":13},"0026":{"zip_code":"1300026","prefecture":"東京都","prefecture_kana":"トウキョウト","city":"墨田区","city_kana":"スミダク","town":"両国","town_kana":"リョウゴク","prefecture_code":13},"8577":{"zip_code":"1308577","prefecture":"東京都","city":"墨田区","town":"両国","prefecture_code":13},"8602":{"zip_code":"1308602","prefecture":"東京都","city":"墨田区","town":"吾妻橋","prefecture_code":13},"8604":{"zip_code":"1308604","prefecture":"東京都","city":"墨田区","town":"本所","prefecture_code":13},"8512":{"zip_code":"1308512","prefecture":"東京都","city":"墨田区","town":"錦糸","prefecture_code":13},"8585":{"zip_code":"1308585","prefecture":"東京都","city":"墨田区","town":"東駒形","prefecture_code":13},"8606":{"zip_code":"1308606","prefecture":"東京都","city":"墨田区","town":"江東橋","prefecture_code":13},"8660":{"zip_code":"1308660","prefecture":"東京都","city":"墨田区","town":"太平","prefecture_code":13},"8557":{"zip_code":"1308557","prefecture":"東京都","city":"墨田区","town":"錦糸","prefecture_code":13},"8625":{"zip_code":"1308625","prefecture":"東京都","city":"墨田区","town":"太平","prefecture_code":13},"8583":{"zip_code":"1308583","prefecture":"東京都","city":"墨田区","town":"菊川","prefecture_code":13},"8601":{"zip_code":"1308601","prefecture":"東京都","city":"墨田区","town":"業平","prefecture_code":13},"8566":{"zip_code":"1308566","prefecture":"東京都","city":"墨田区","town":"亀沢","prefecture_code":13},"8538":{"zip_code":"1308538","prefecture":"東京都","city":"墨田区","town":"両国","prefecture_code":13},"8530":{"zip_code":"1308530","prefecture":"東京都","city":"墨田区","town":"緑","prefecture_code":13},"8668":{"zip_code":"1308668","prefecture":"東京都","city":"墨田区","town":"本所","prefecture_code":13},"8558":{"zip_code":"1308558","prefecture":"東京都","city":"墨田区","town":"両国","prefecture_code":13},"8580":{"zip_code":"1308580","prefecture":"東京都","city":"墨田区","town":"江東橋","prefecture_code":13},"8666":{"zip_code":"1308666","prefecture":"東京都","city":"墨田区","town":"吾妻橋","prefecture_code":13},"8655":{"zip_code":"1308655","prefecture":"東京都","city":"墨田区","town":"本所","prefecture_code":13},"8534":{"zip_code":"1308534","prefecture":"東京都","city":"墨田区","town":"錦糸","prefecture_code":13},"8543":{"zip_code":"1308543","prefecture":"東京都","city":"墨田区","town":"太平","prefecture_code":13},"8505":{"zip_code":"1308505","prefecture":"東京都","city":"墨田区","town":"横網","prefecture_code":13},"8548":{"zip_code":"1308548","prefecture":"東京都","city":"墨田区","town":"菊川","prefecture_code":13},"8555":{"zip_code":"1308555","prefecture":"東京都","city":"墨田区","town":"菊川","prefecture_code":13},"8535":{"zip_code":"1308535","prefecture":"東京都","city":"墨田区","town":"江東橋","prefecture_code":13},"8501":{"zip_code":"1308501","prefecture":"東京都","city":"墨田区","town":"錦糸","prefecture_code":13},"8518":{"zip_code":"1308518","prefecture":"東京都","city":"墨田区","town":"江東橋","prefecture_code":13},"8506":{"zip_code":"1308506","prefecture":"東京都","city":"墨田区","town":"緑","prefecture_code":13},"8503":{"zip_code":"1308503","prefecture":"東京都","city":"墨田区","town":"錦糸","prefecture_code":13},"8516":{"zip_code":"1308516","prefecture":"東京都","city":"墨田区","town":"江東橋","prefecture_code":13},"8510":{"zip_code":"1308510","prefecture":"東京都","city":"墨田区","town":"菊川","prefecture_code":13},"8504":{"zip_code":"1308504","prefecture":"東京都","city":"墨田区","town":"緑","prefecture_code":13},"8565":{"zip_code":"1308565","prefecture":"東京都","city":"墨田区","town":"錦糸","prefecture_code":13},"8533":{"zip_code":"1308533","prefecture":"東京都","city":"墨田区","town":"錦糸","prefecture_code":13},"8671":{"zip_code":"1308671","prefecture":"東京都","city":"墨田区","town":"石原","prefecture_code":13},"8539":{"zip_code":"1308539","prefecture":"東京都","city":"墨田区","town":"江東橋","prefecture_code":13},"8522":{"zip_code":"1308522","prefecture":"東京都","city":"墨田区","town":"本所","prefecture_code":13},"8546":{"zip_code":"1308546","prefecture":"東京都","city":"墨田区","town":"菊川","prefecture_code":13},"8611":{"zip_code":"1308611","prefecture":"東京都","city":"墨田区","town":"東駒形","prefecture_code":13},"8554":{"zip_code":"1308554","prefecture":"東京都","city":"墨田区","town":"両国","prefecture_code":13},"8515":{"zip_code":"1308515","prefecture":"東京都","city":"墨田区","town":"千歳","prefecture_code":13},"8609":{"zip_code":"1308609","prefecture":"東京都","city":"墨田区","town":"江東橋","prefecture_code":13},"8640":{"zip_code":"1308640","prefecture":"東京都","city":"墨田区","town":"吾妻橋","prefecture_code":13},"8605":{"zip_code":"1308605","prefecture":"東京都","city":"墨田区","town":"本所","prefecture_code":13},"8642":{"zip_code":"1308642","prefecture":"東京都","city":"墨田区","town":"石原","prefecture_code":13},"8509":{"zip_code":"1308509","prefecture":"東京都","city":"墨田区","town":"両国","prefecture_code":13},"8511":{"zip_code":"1308511","prefecture":"東京都","city":"墨田区","town":"緑","prefecture_code":13},"8517":{"zip_code":"1308517","prefecture":"東京都","city":"墨田区","town":"千歳","prefecture_code":13},"8513":{"zip_code":"1308513","prefecture":"東京都","city":"墨田区","town":"立川","prefecture_code":13},"8637":{"zip_code":"1308637","prefecture":"東京都","city":"墨田区","town":"錦糸","prefecture_code":13},"8636":{"zip_code":"1308636","prefecture":"東京都","city":"墨田区","town":"錦糸","prefecture_code":13},"8608":{"zip_code":"1308608","prefecture":"東京都","city":"墨田区","town":"両国","prefecture_code":13},"8575":{"zip_code":"1308575","prefecture":"東京都","city":"墨田区","town":"江東橋","prefecture_code":13},"8545":{"zip_code":"1308545","prefecture":"東京都","city":"墨田区","town":"両国","prefecture_code":13},"8514":{"zip_code":"1308514","prefecture":"東京都","city":"墨田区","town":"亀沢","prefecture_code":13},"8528":{"zip_code":"1308528","prefecture":"東京都","city":"墨田区","town":"緑","prefecture_code":13},"8677":{"zip_code":"1308677","prefecture":"東京都","city":"墨田区","town":"吾妻橋","prefecture_code":13},"8603":{"zip_code":"1308603","prefecture":"東京都","city":"墨田区","town":"横川","prefecture_code":13},"8556":{"zip_code":"1308556","prefecture":"東京都","city":"墨田区","town":"両国","prefecture_code":13},"8508":{"zip_code":"1308508","prefecture":"東京都","city":"墨田区","town":"亀沢","prefecture_code":13},"8525":{"zip_code":"1308525","prefecture":"東京都","city":"墨田区","town":"菊川","prefecture_code":13},"8686":{"zip_code":"1308686","prefecture":"東京都","city":"墨田区","town":"業平","prefecture_code":13},"8567":{"zip_code":"1308567","prefecture":"東京都","city":"墨田区","town":"緑","prefecture_code":13},"8588":{"zip_code":"1308588","prefecture":"東京都","city":"墨田区","town":"千歳","prefecture_code":13},"8531":{"zip_code":"1308531","prefecture":"東京都","city":"墨田区","town":"錦糸","prefecture_code":13},"8612":{"zip_code":"1308612","prefecture":"東京都","city":"墨田区","town":"錦糸","prefecture_code":13},"8650":{"zip_code":"1308650","prefecture":"東京都","city":"墨田区","town":"緑","prefecture_code":13},"8561":{"zip_code":"1308561","prefecture":"東京都","city":"墨田区","town":"錦糸","prefecture_code":13},"8615":{"zip_code":"1308615","prefecture":"東京都","city":"墨田区","town":"横網","prefecture_code":13},"8507":{"zip_code":"1308507","prefecture":"東京都","city":"墨田区","town":"錦糸","prefecture_code":13},"8644":{"zip_code":"1308644","prefecture":"東京都","city":"墨田区","town":"本所","prefecture_code":13},"8584":{"zip_code":"1308584","prefecture":"東京都","city":"墨田区","town":"錦糸","prefecture_code":13},"8570":{"zip_code":"1308570","prefecture":"東京都","city":"墨田区","town":"緑","prefecture_code":13},"8521":{"zip_code":"1308521","prefecture":"東京都","city":"墨田区","town":"亀沢","prefecture_code":13},"8520":{"zip_code":"1308520","prefecture":"東京都","city":"墨田区","town":"亀沢","prefecture_code":13},"8701":{"zip_code":"1308701","prefecture":"東京都","city":"墨田区","town":"横網","prefecture_code":13},"8706":{"zip_code":"1308706","prefecture":"東京都","city":"墨田区","town":"太平","prefecture_code":13},"8720":{"zip_code":"1308720","prefecture":"東京都","city":"墨田区","town":"亀沢","prefecture_code":13},"8710":{"zip_code":"1308710","prefecture":"東京都","city":"墨田区","town":"両国","prefecture_code":13}}