{"0045":{"zip_code":"1310045","prefecture":"東京都","prefecture_kana":"トウキョウト","city":"墨田区","city_kana":"スミダク","town":"押上","town_kana":"オシアゲ","prefecture_code":13},"0046":{"zip_code":"1310046","prefecture":"東京都","prefecture_kana":"トウキョウト","city":"墨田区","city_kana":"スミダク","town":"京島","town_kana":"キョウジマ","prefecture_code":13},"0031":{"zip_code":"1310031","prefecture":"東京都","prefecture_kana":"トウキョウト","city":"墨田区","city_kana":"スミダク","town":"墨田","town_kana":"スミダ","prefecture_code":13},"0043":{"zip_code":"1310043","prefecture":"東京都","prefecture_kana":"トウキョウト","city":"墨田区","city_kana":"スミダク","town":"立花","town_kana":"タチバナ","prefecture_code":13},"0034":{"zip_code":"1310034","prefecture":"東京都","prefecture_kana":"トウキョウト","city":"墨田区","city_kana":"スミダク","town":"堤通","town_kana":"ツツミドオリ","prefecture_code":13},"0042":{"zip_code":"1310042","prefecture":"東京都","prefecture_kana":"トウキョウト","city":"墨田区","city_kana":"スミダク","town":"東墨田","town_kana":"ヒガシスミダ","prefecture_code":13},"0032":{"zip_code":"1310032","prefecture":"東京都","prefecture_kana":"トウキョウト","city":"墨田区","city_kana":"スミダク","town":"東向島","town_kana":"ヒガシムコウジマ","prefecture_code":13},"0044":{"zip_code":"1310044","prefecture":"東京都","prefecture_kana":"トウキョウト","city":"墨田区","city_kana":"スミダク","town":"文花","town_kana":"ブンカ","prefecture_code":13},"0033":{"zip_code":"1310033","prefecture":"東京都","prefecture_kana":"トウキョウト","city":"墨田区","city_kana":"スミダク","town":"向島","town_kana":"ムコウジマ","prefecture_code":13},"0041":{"zip_code":"1310041","prefecture":"東京都","prefecture_kana":"トウキョウト","city":"墨田区","city_kana":"スミダク","town":"八広","town_kana":"ヤヒロ","prefecture_code":13},"8711":{"zip_code":"1318711","prefecture":"東京都","city":"墨田区","town":"業平","prefecture_code":13},"8530":{"zip_code":"1318530","prefecture":"東京都","city":"墨田区","town":"本所","prefecture_code":13},"8533":{"zip_code":"1318533","prefecture":"東京都","city":"墨田区","town":"堤通","prefecture_code":13},"8505":{"zip_code":"1318505","prefecture":"東京都","city":"墨田区","town":"押上","prefecture_code":13},"8501":{"zip_code":"1318501","prefecture":"東京都","city":"墨田区","town":"文花","prefecture_code":13},"8513":{"zip_code":"1318513","prefecture":"東京都","city":"墨田区","town":"墨田","prefecture_code":13},"8519":{"zip_code":"1318519","prefecture":"東京都","city":"墨田区","town":"文花","prefecture_code":13},"8510":{"zip_code":"1318510","prefecture":"東京都","city":"墨田区","town":"堤通","prefecture_code":13},"8507":{"zip_code":"1318507","prefecture":"東京都","city":"墨田区","town":"向島","prefecture_code":13},"8584":{"zip_code":"1318584","prefecture":"東京都","city":"墨田区","town":"堤通","prefecture_code":13},"8526":{"zip_code":"1318526","prefecture":"東京都","city":"墨田区","town":"立花","prefecture_code":13},"8588":{"zip_code":"1318588","prefecture":"東京都","city":"墨田区","town":"墨田","prefecture_code":13},"8565":{"zip_code":"1318565","prefecture":"東京都","city":"墨田区","town":"堤通","prefecture_code":13},"8511":{"zip_code":"1318511","prefecture":"東京都","city":"墨田区","town":"墨田","prefecture_code":13},"8555":{"zip_code":"1318555","prefecture":"東京都","city":"墨田区","town":"押上","prefecture_code":13},"8139":{"zip_code":"1318139","prefecture":"東京都","city":"墨田区","town":"押上","prefecture_code":13},"8585":{"zip_code":"1318585","prefecture":"東京都","city":"墨田区","town":"東向島","prefecture_code":13},"8518":{"zip_code":"1318518","prefecture":"東京都","city":"墨田区","town":"八広","prefecture_code":13},"8503":{"zip_code":"1318503","prefecture":"東京都","city":"墨田区","town":"向島","prefecture_code":13},"8524":{"zip_code":"1318524","prefecture":"東京都","city":"墨田区","town":"押上","prefecture_code":13},"8634":{"zip_code":"1318634","prefecture":"東京都","city":"墨田区","town":"押上","prefecture_code":13},"8504":{"zip_code":"1318504","prefecture":"東京都","city":"墨田区","town":"押上","prefecture_code":13},"8508":{"zip_code":"1318508","prefecture":"東京都","city":"墨田区","town":"押上","prefecture_code":13},"8550":{"zip_code":"1318550","prefecture":"東京都","city":"墨田区","town":"押上","prefecture_code":13},"8520":{"zip_code":"1318520","prefecture":"東京都","city":"墨田区","town":"墨田","prefecture_code":13},"8527":{"zip_code":"1318527","prefecture":"東京都","city":"墨田区","town":"立花","prefecture_code":13},"8509":{"zip_code":"1318509","prefecture":"東京都","city":"墨田区","town":"東向島","prefecture_code":13},"8512":{"zip_code":"1318512","prefecture":"東京都","city":"墨田区","town":"墨田","prefecture_code":13}}