{"0000":{"zip_code":"1400000","prefecture":"東京都","prefecture_kana":"トウキョウト","city":"品川区","city_kana":"シナガワク","town":"","town_kana":"","prefecture_code":13},"0014":{"zip_code":"1400014","prefecture":"東京都","prefecture_kana":"トウキョウト","city":"品川区","city_kana":"シナガワク","town":"大井","town_kana":"オオイ","prefecture_code":13},"0012":{"zip_code":"1400012","prefecture":"東京都","prefecture_kana":"トウキョウト","city":"品川区","city_kana":"シナガワク","town":"勝島","town_kana":"カツシマ","prefecture_code":13},"0001":{"zip_code":"1400001","prefecture":"東京都","prefecture_kana":"トウキョウト","city":"品川区","city_kana":"シナガワク","town":"北品川","town_kana":"キタシナガワ","prefecture_code":13},"0015":{"zip_code":"1400015","prefecture":"東京都","prefecture_kana":"トウキョウト","city":"品川区","city_kana":"シナガワク","town":"西大井","town_kana":"ニシオオイ","prefecture_code":13},"0011":{"zip_code":"1400011","prefecture":"東京都","prefecture_kana":"トウキョウト","city":"品川区","city_kana":"シナガワク","town":"東大井","town_kana":"ヒガシオオイ","prefecture_code":13},"0002":{"zip_code":"1400002","prefecture":"東京都","prefecture_kana":"トウキョウト","city":"品川区","city_kana":"シナガワク","town":"東品川","town_kana":"ヒガシシナガワ","prefecture_code":13},"0005":{"zip_code":"1400005","prefecture":"東京都","prefecture_kana":"トウキョウト","city":"品川区","city_kana":"シナガワク","town":"広町","town_kana":"ヒロマチ","prefecture_code":13},"0013":{"zip_code":"1400013","prefecture":"東京都","prefecture_kana":"トウキョウト","city":"品川区","city_kana":"シナガワク","town":"南大井","town_kana":"ミナミオオイ","prefecture_code":13},"0004":{"zip_code":"1400004","prefecture":"東京都","prefecture_kana":"トウキョウト","city":"品川区","city_kana":"シナガワク","town":"南品川","town_kana":"ミナミシナガワ","prefecture_code":13},"0003":{"zip_code":"1400003","prefecture":"東京都","prefecture_kana":"トウキョウト","city":"品川区","city_kana":"シナガワク","town":"八潮","town_kana":"ヤシオ","prefecture_code":13},"8560":{"zip_code":"1408560","prefecture":"東京都","city":"品川区","town":"南大井","prefecture_code":13},"8661":{"zip_code":"1408661","prefecture":"東京都","city":"品川区","town":"南品川","prefecture_code":13},"8576":{"zip_code":"1408576","prefecture":"東京都","city":"品川区","town":"南大井","prefecture_code":13},"8626":{"zip_code":"1408626","prefecture":"東京都","city":"品川区","town":"東品川","prefecture_code":13},"8722":{"zip_code":"1408722","prefecture":"東京都","city":"品川区","town":"南大井","prefecture_code":13},"8688":{"zip_code":"1408688","prefecture":"東京都","city":"品川区","town":"北品川","prefecture_code":13},"8511":{"zip_code":"1408511","prefecture":"東京都","city":"品川区","town":"大井","prefecture_code":13},"8573":{"zip_code":"1408573","prefecture":"東京都","city":"品川区","town":"南大井","prefecture_code":13},"8572":{"zip_code":"1408572","prefecture":"東京都","city":"品川区","town":"南大井","prefecture_code":13},"8512":{"zip_code":"1408512","prefecture":"東京都","city":"品川区","town":"南大井","prefecture_code":13},"8619":{"zip_code":"1408619","prefecture":"東京都","city":"品川区","town":"東品川","prefecture_code":13},"8630":{"zip_code":"1408630","prefecture":"東京都","city":"品川区","town":"東品川","prefecture_code":13},"8702":{"zip_code":"1408702","prefecture":"東京都","city":"品川区","town":"北品川","prefecture_code":13},"8538":{"zip_code":"1408538","prefecture":"東京都","city":"品川区","town":"東大井","prefecture_code":13},"8820":{"zip_code":"1408820","prefecture":"東京都","city":"品川区","town":"東品川","prefecture_code":13},"8614":{"zip_code":"1408614","prefecture":"東京都","city":"品川区","town":"東品川","prefecture_code":13},"8678":{"zip_code":"1408678","prefecture":"東京都","city":"品川区","town":"南品川","prefecture_code":13},"8611":{"zip_code":"1408611","prefecture":"東京都","city":"品川区","town":"東品川","prefecture_code":13},"8672":{"zip_code":"1408672","prefecture":"東京都","city":"品川区","town":"南品川","prefecture_code":13},"8540":{"zip_code":"1408540","prefecture":"東京都","city":"品川区","town":"南大井","prefecture_code":13},"8656":{"zip_code":"1408656","prefecture":"東京都","city":"品川区","town":"東品川","prefecture_code":13},"8653":{"zip_code":"1408653","prefecture":"東京都","city":"品川区","town":"東品川","prefecture_code":13},"8658":{"zip_code":"1408658","prefecture":"東京都","city":"品川区","town":"東品川","prefecture_code":13},"8583":{"zip_code":"1408583","prefecture":"東京都","city":"品川区","town":"東品川","prefecture_code":13},"8558":{"zip_code":"1408558","prefecture":"東京都","city":"品川区","town":"南大井","prefecture_code":13},"8711":{"zip_code":"1408711","prefecture":"東京都","city":"品川区","town":"広町","prefecture_code":13},"8644":{"zip_code":"1408644","prefecture":"東京都","city":"品川区","town":"東品川","prefecture_code":13},"8536":{"zip_code":"1408536","prefecture":"東京都","city":"品川区","town":"南大井","prefecture_code":13},"8631":{"zip_code":"1408631","prefecture":"東京都","city":"品川区","town":"東品川","prefecture_code":13},"8505":{"zip_code":"1408505","prefecture":"東京都","city":"品川区","town":"大井","prefecture_code":13},"8601":{"zip_code":"1408601","prefecture":"東京都","city":"品川区","town":"西大井","prefecture_code":13},"8666":{"zip_code":"1408666","prefecture":"東京都","city":"品川区","town":"南品川","prefecture_code":13},"8571":{"zip_code":"1408571","prefecture":"東京都","city":"品川区","town":"南大井","prefecture_code":13},"8590":{"zip_code":"1408590","prefecture":"東京都","city":"品川区","town":"東品川","prefecture_code":13},"8533":{"zip_code":"1408533","prefecture":"東京都","city":"品川区","town":"東大井","prefecture_code":13},"8655":{"zip_code":"1408655","prefecture":"東京都","city":"品川区","town":"東品川","prefecture_code":13},"8548":{"zip_code":"1408548","prefecture":"東京都","city":"品川区","town":"南大井","prefecture_code":13},"8549":{"zip_code":"1408549","prefecture":"東京都","city":"品川区","town":"南大井","prefecture_code":13},"8526":{"zip_code":"1408526","prefecture":"東京都","city":"品川区","town":"東品川","prefecture_code":13},"8650":{"zip_code":"1408650","prefecture":"東京都","city":"品川区","town":"東品川","prefecture_code":13},"8810":{"zip_code":"1408810","prefecture":"東京都","city":"品川区","town":"東品川","prefecture_code":13},"8850":{"zip_code":"1408850","prefecture":"東京都","city":"品川区","town":"東品川","prefecture_code":13},"8840":{"zip_code":"1408840","prefecture":"東京都","city":"品川区","town":"東品川","prefecture_code":13},"8531":{"zip_code":"1408531","prefecture":"東京都","city":"品川区","town":"東大井","prefecture_code":13},"8547":{"zip_code":"1408547","prefecture":"東京都","city":"品川区","town":"南大井","prefecture_code":13},"8539":{"zip_code":"1408539","prefecture":"東京都","city":"品川区","town":"東大井","prefecture_code":13},"8566":{"zip_code":"1408566","prefecture":"東京都","city":"品川区","town":"南大井","prefecture_code":13},"8669":{"zip_code":"1408669","prefecture":"東京都","city":"品川区","town":"南品川","prefecture_code":13},"8715":{"zip_code":"1408715","prefecture":"東京都","city":"品川区","town":"広町","prefecture_code":13},"8707":{"zip_code":"1408707","prefecture":"東京都","city":"品川区","town":"北品川","prefecture_code":13},"8709":{"zip_code":"1408709","prefecture":"東京都","city":"品川区","town":"北品川","prefecture_code":13},"8530":{"zip_code":"1408530","prefecture":"東京都","city":"品川区","town":"東大井","prefecture_code":13},"8682":{"zip_code":"1408682","prefecture":"東京都","city":"品川区","town":"東大井","prefecture_code":13},"8625":{"zip_code":"1408625","prefecture":"東京都","city":"品川区","town":"東品川","prefecture_code":13},"8654":{"zip_code":"1408654","prefecture":"東京都","city":"品川区","town":"東品川","prefecture_code":13},"8515":{"zip_code":"1408515","prefecture":"東京都","city":"品川区","town":"大井","prefecture_code":13},"8543":{"zip_code":"1408543","prefecture":"東京都","city":"品川区","town":"南大井","prefecture_code":13},"8617":{"zip_code":"1408617","prefecture":"東京都","city":"品川区","town":"東品川","prefecture_code":13},"8580":{"zip_code":"1408580","prefecture":"東京都","city":"品川区","town":"勝島","prefecture_code":13},"8615":{"zip_code":"1408615","prefecture":"東京都","city":"品川区","town":"東品川","prefecture_code":13},"8552":{"zip_code":"1408552","prefecture":"東京都","city":"品川区","town":"南大井","prefecture_code":13},"8716":{"zip_code":"1408716","prefecture":"東京都","city":"品川区","town":"広町","prefecture_code":13},"8788":{"zip_code":"1408788","prefecture":"東京都","city":"品川区","town":"東品川","prefecture_code":13},"8660":{"zip_code":"1408660","prefecture":"東京都","city":"品川区","town":"南品川","prefecture_code":13},"8640":{"zip_code":"1408640","prefecture":"東京都","city":"品川区","town":"東品川","prefecture_code":13},"8670":{"zip_code":"1408670","prefecture":"東京都","city":"品川区","town":"南品川","prefecture_code":13},"8525":{"zip_code":"1408525","prefecture":"東京都","city":"品川区","town":"東大井","prefecture_code":13},"8634":{"zip_code":"1408634","prefecture":"東京都","city":"品川区","town":"東品川","prefecture_code":13},"8563":{"zip_code":"1408563","prefecture":"東京都","city":"品川区","town":"南大井","prefecture_code":13},"8523":{"zip_code":"1408523","prefecture":"東京都","city":"品川区","town":"東大井","prefecture_code":13},"8628":{"zip_code":"1408628","prefecture":"東京都","city":"品川区","town":"東品川","prefecture_code":13},"8677":{"zip_code":"1408677","prefecture":"東京都","city":"品川区","town":"南品川","prefecture_code":13},"8675":[{"zip_code":"1408675","prefecture":"東京都","city":"品川区","town":"南品川","prefecture_code":13},{"zip_code":"1408675","prefecture":"東京都","city":"品川区","town":"南品川","prefecture_code":13},{"zip_code":"1408675","prefecture":"東京都","city":"品川区","town":"南品川","prefecture_code":13},{"zip_code":"1408675","prefecture":"東京都","city":"品川区","town":"南品川","prefecture_code":13}],"8637":{"zip_code":"1408637","prefecture":"東京都","city":"品川区","town":"東品川","prefecture_code":13},"8509":{"zip_code":"1408509","prefecture":"東京都","city":"品川区","town":"東品川","prefecture_code":13},"8687":{"zip_code":"1408687","prefecture":"東京都","city":"品川区","town":"東品川","prefecture_code":13},"8621":{"zip_code":"1408621","prefecture":"東京都","city":"品川区","town":"東品川","prefecture_code":13},"8541":{"zip_code":"1408541","prefecture":"東京都","city":"品川区","town":"東品川","prefecture_code":13},"8502":{"zip_code":"1408502","prefecture":"東京都","city":"品川区","town":"南大井","prefecture_code":13},"8551":{"zip_code":"1408551","prefecture":"東京都","city":"品川区","town":"南大井","prefecture_code":13},"8516":{"zip_code":"1408516","prefecture":"東京都","city":"品川区","town":"大井","prefecture_code":13},"8508":{"zip_code":"1408508","prefecture":"東京都","city":"品川区","town":"大井","prefecture_code":13},"8623":{"zip_code":"1408623","prefecture":"東京都","city":"品川区","town":"東品川","prefecture_code":13},"8586":{"zip_code":"1408586","prefecture":"東京都","city":"品川区","town":"東品川","prefecture_code":13},"8567":{"zip_code":"1408567","prefecture":"東京都","city":"品川区","town":"南大井","prefecture_code":13},"8529":{"zip_code":"1408529","prefecture":"東京都","city":"品川区","town":"東品川","prefecture_code":13},"8616":{"zip_code":"1408616","prefecture":"東京都","city":"品川区","town":"東品川","prefecture_code":13},"8717":{"zip_code":"1408717","prefecture":"東京都","city":"品川区","town":"広町","prefecture_code":13},"8521":{"zip_code":"1408521","prefecture":"東京都","city":"品川区","town":"東大井","prefecture_code":13},"8680":{"zip_code":"1408680","prefecture":"東京都","city":"品川区","town":"北品川","prefecture_code":13},"8537":{"zip_code":"1408537","prefecture":"東京都","city":"品川区","town":"大井","prefecture_code":13},"8506":{"zip_code":"1408506","prefecture":"東京都","city":"品川区","town":"東品川","prefecture_code":13},"8668":{"zip_code":"1408668","prefecture":"東京都","city":"品川区","town":"南品川","prefecture_code":13},"8721":{"zip_code":"1408721","prefecture":"東京都","city":"品川区","town":"南品川","prefecture_code":13},"8507":{"zip_code":"1408507","prefecture":"東京都","city":"品川区","town":"大井","prefecture_code":13},"8710":{"zip_code":"1408710","prefecture":"東京都","city":"品川区","town":"広町","prefecture_code":13}}