{"0032":{"zip_code":"1410032","prefecture":"東京都","prefecture_kana":"トウキョウト","city":"品川区","city_kana":"シナガワク","town":"大崎","town_kana":"オオサキ","prefecture_code":13},"6090":{"zip_code":"1416090","prefecture":"東京都","prefecture_kana":"トウキョウト","city":"品川区","city_kana":"シナガワク","town":"大崎ＴｈｉｎｋＰａｒｋＴｏｗｅｒ","town_kana":"オオサキシンクパークタワー","prefecture_code":13},"6001":{"zip_code":"1416001","prefecture":"東京都","prefecture_kana":"トウキョウト","city":"品川区","city_kana":"シナガワク","town":"大崎ＴｈｉｎｋＰａｒｋＴｏｗｅｒ　１階","town_kana":"オオサキシンクパークタワー1カイ","prefecture_code":13},"6002":{"zip_code":"1416002","prefecture":"東京都","prefecture_kana":"トウキョウト","city":"品川区","city_kana":"シナガワク","town":"大崎ＴｈｉｎｋＰａｒｋＴｏｗｅｒ　２階","town_kana":"オオサキシンクパークタワー2カイ","prefecture_code":13},"6003":{"zip_code":"1416003","prefecture":"東京都","prefecture_kana":"トウキョウト","city":"品川区","city_kana":"シナガワク","town":"大崎ＴｈｉｎｋＰａｒｋＴｏｗｅｒ　３階","town_kana":"オオサキシンクパークタワー3カイ","prefecture_code":13},"6004":{"zip_code":"1416004","prefecture":"東京都","prefecture_kana":"トウキョウト","city":"品川区","city_kana":"シナガワク","town":"大崎ＴｈｉｎｋＰａｒｋＴｏｗｅｒ　４階","town_kana":"オオサキシンクパークタワー4カイ","prefecture_code":13},"6005":{"zip_code":"1416005","prefecture":"東京都","prefecture_kana":"トウキョウト","city":"品川区","city_kana":"シナガワク","town":"大崎ＴｈｉｎｋＰａｒｋＴｏｗｅｒ　５階","town_kana":"オオサキシンクパークタワー5カイ","prefecture_code":13},"6006":{"zip_code":"1416006","prefecture":"東京都","prefecture_kana":"トウキョウト","city":"品川区","city_kana":"シナガワク","town":"大崎ＴｈｉｎｋＰａｒｋＴｏｗｅｒ　６階","town_kana":"オオサキシンクパークタワー6カイ","prefecture_code":13},"6007":{"zip_code":"1416007","prefecture":"東京都","prefecture_kana":"トウキョウト","city":"品川区","city_kana":"シナガワク","town":"大崎ＴｈｉｎｋＰａｒｋＴｏｗｅｒ　７階","town_kana":"オオサキシンクパークタワー7カイ","prefecture_code":13},"6008":{"zip_code":"1416008","prefecture":"東京都","prefecture_kana":"トウキョウト","city":"品川区","city_kana":"シナガワク","town":"大崎ＴｈｉｎｋＰａｒｋＴｏｗｅｒ　８階","town_kana":"オオサキシンクパークタワー8カイ","prefecture_code":13},"6009":{"zip_code":"1416009","prefecture":"東京都","prefecture_kana":"トウキョウト","city":"品川区","city_kana":"シナガワク","town":"大崎ＴｈｉｎｋＰａｒｋＴｏｗｅｒ　９階","town_kana":"オオサキシンクパークタワー9カイ","prefecture_code":13},"6010":{"zip_code":"1416010","prefecture":"東京都","prefecture_kana":"トウキョウト","city":"品川区","city_kana":"シナガワク","town":"大崎ＴｈｉｎｋＰａｒｋＴｏｗｅｒ　１０階","town_kana":"オオサキシンクパークタワー10カイ","prefecture_code":13},"6011":{"zip_code":"1416011","prefecture":"東京都","prefecture_kana":"トウキョウト","city":"品川区","city_kana":"シナガワク","town":"大崎ＴｈｉｎｋＰａｒｋＴｏｗｅｒ　１１階","town_kana":"オオサキシンクパークタワー11カイ","prefecture_code":13},"6012":{"zip_code":"1416012","prefecture":"東京都","prefecture_kana":"トウキョウト","city":"品川区","city_kana":"シナガワク","town":"大崎ＴｈｉｎｋＰａｒｋＴｏｗｅｒ　１２階","town_kana":"オオサキシンクパークタワー12カイ","prefecture_code":13},"6013":{"zip_code":"1416013","prefecture":"東京都","prefecture_kana":"トウキョウト","city":"品川区","city_kana":"シナガワク","town":"大崎ＴｈｉｎｋＰａｒｋＴｏｗｅｒ　１３階","town_kana":"オオサキシンクパークタワー13カイ","prefecture_code":13},"6014":{"zip_code":"1416014","prefecture":"東京都","prefecture_kana":"トウキョウト","city":"品川区","city_kana":"シナガワク","town":"大崎ＴｈｉｎｋＰａｒｋＴｏｗｅｒ　１４階","town_kana":"オオサキシンクパークタワー14カイ","prefecture_code":13},"6015":{"zip_code":"1416015","prefecture":"東京都","prefecture_kana":"トウキョウト","city":"品川区","city_kana":"シナガワク","town":"大崎ＴｈｉｎｋＰａｒｋＴｏｗｅｒ　１５階","town_kana":"オオサキシンクパークタワー15カイ","prefecture_code":13},"6016":{"zip_code":"1416016","prefecture":"東京都","prefecture_kana":"トウキョウト","city":"品川区","city_kana":"シナガワク","town":"大崎ＴｈｉｎｋＰａｒｋＴｏｗｅｒ　１６階","town_kana":"オオサキシンクパークタワー16カイ","prefecture_code":13},"6017":{"zip_code":"1416017","prefecture":"東京都","prefecture_kana":"トウキョウト","city":"品川区","city_kana":"シナガワク","town":"大崎ＴｈｉｎｋＰａｒｋＴｏｗｅｒ　１７階","town_kana":"オオサキシンクパークタワー17カイ","prefecture_code":13},"6018":{"zip_code":"1416018","prefecture":"東京都","prefecture_kana":"トウキョウト","city":"品川区","city_kana":"シナガワク","town":"大崎ＴｈｉｎｋＰａｒｋＴｏｗｅｒ　１８階","town_kana":"オオサキシンクパークタワー18カイ","prefecture_code":13},"6019":{"zip_code":"1416019","prefecture":"東京都","prefecture_kana":"トウキョウト","city":"品川区","city_kana":"シナガワク","town":"大崎ＴｈｉｎｋＰａｒｋＴｏｗｅｒ　１９階","town_kana":"オオサキシンクパークタワー19カイ","prefecture_code":13},"6020":{"zip_code":"1416020","prefecture":"東京都","prefecture_kana":"トウキョウト","city":"品川区","city_kana":"シナガワク","town":"大崎ＴｈｉｎｋＰａｒｋＴｏｗｅｒ　２０階","town_kana":"オオサキシンクパークタワー20カイ","prefecture_code":13},"6021":{"zip_code":"1416021","prefecture":"東京都","prefecture_kana":"トウキョウト","city":"品川区","city_kana":"シナガワク","town":"大崎ＴｈｉｎｋＰａｒｋＴｏｗｅｒ　２１階","town_kana":"オオサキシンクパークタワー21カイ","prefecture_code":13},"6022":{"zip_code":"1416022","prefecture":"東京都","prefecture_kana":"トウキョウト","city":"品川区","city_kana":"シナガワク","town":"大崎ＴｈｉｎｋＰａｒｋＴｏｗｅｒ　２２階","town_kana":"オオサキシンクパークタワー22カイ","prefecture_code":13},"6023":{"zip_code":"1416023","prefecture":"東京都","prefecture_kana":"トウキョウト","city":"品川区","city_kana":"シナガワク","town":"大崎ＴｈｉｎｋＰａｒｋＴｏｗｅｒ　２３階","town_kana":"オオサキシンクパークタワー23カイ","prefecture_code":13},"6024":{"zip_code":"1416024","prefecture":"東京都","prefecture_kana":"トウキョウト","city":"品川区","city_kana":"シナガワク","town":"大崎ＴｈｉｎｋＰａｒｋＴｏｗｅｒ　２４階","town_kana":"オオサキシンクパークタワー24カイ","prefecture_code":13},"6025":{"zip_code":"1416025","prefecture":"東京都","prefecture_kana":"トウキョウト","city":"品川区","city_kana":"シナガワク","town":"大崎ＴｈｉｎｋＰａｒｋＴｏｗｅｒ　２５階","town_kana":"オオサキシンクパークタワー25カイ","prefecture_code":13},"6026":{"zip_code":"1416026","prefecture":"東京都","prefecture_kana":"トウキョウト","city":"品川区","city_kana":"シナガワク","town":"大崎ＴｈｉｎｋＰａｒｋＴｏｗｅｒ　２６階","town_kana":"オオサキシンクパークタワー26カイ","prefecture_code":13},"6027":{"zip_code":"1416027","prefecture":"東京都","prefecture_kana":"トウキョウト","city":"品川区","city_kana":"シナガワク","town":"大崎ＴｈｉｎｋＰａｒｋＴｏｗｅｒ　２７階","town_kana":"オオサキシンクパークタワー27カイ","prefecture_code":13},"6028":{"zip_code":"1416028","prefecture":"東京都","prefecture_kana":"トウキョウト","city":"品川区","city_kana":"シナガワク","town":"大崎ＴｈｉｎｋＰａｒｋＴｏｗｅｒ　２８階","town_kana":"オオサキシンクパークタワー28カイ","prefecture_code":13},"6029":{"zip_code":"1416029","prefecture":"東京都","prefecture_kana":"トウキョウト","city":"品川区","city_kana":"シナガワク","town":"大崎ＴｈｉｎｋＰａｒｋＴｏｗｅｒ　２９階","town_kana":"オオサキシンクパークタワー29カイ","prefecture_code":13},"6030":{"zip_code":"1416030","prefecture":"東京都","prefecture_kana":"トウキョウト","city":"品川区","city_kana":"シナガワク","town":"大崎ＴｈｉｎｋＰａｒｋＴｏｗｅｒ　３０階","town_kana":"オオサキシンクパークタワー30カイ","prefecture_code":13},"0021":{"zip_code":"1410021","prefecture":"東京都","prefecture_kana":"トウキョウト","city":"品川区","city_kana":"シナガワク","town":"上大崎","town_kana":"カミオオサキ","prefecture_code":13},"0001":{"zip_code":"1410001","prefecture":"東京都","prefecture_kana":"トウキョウト","city":"品川区","city_kana":"シナガワク","town":"北品川","town_kana":"キタシナガワ","prefecture_code":13},"0031":{"zip_code":"1410031","prefecture":"東京都","prefecture_kana":"トウキョウト","city":"品川区","city_kana":"シナガワク","town":"西五反田","town_kana":"ニシゴタンダ","prefecture_code":13},"0033":{"zip_code":"1410033","prefecture":"東京都","prefecture_kana":"トウキョウト","city":"品川区","city_kana":"シナガワク","town":"西品川","town_kana":"ニシシナガワ","prefecture_code":13},"0022":{"zip_code":"1410022","prefecture":"東京都","prefecture_kana":"トウキョウト","city":"品川区","city_kana":"シナガワク","town":"東五反田","town_kana":"ヒガシゴタンダ","prefecture_code":13},"8582":{"zip_code":"1418582","prefecture":"東京都","city":"品川区","town":"大崎","prefecture_code":13},"8544":{"zip_code":"1418544","prefecture":"東京都","city":"品川区","town":"上大崎","prefecture_code":13},"8621":{"zip_code":"1418621","prefecture":"東京都","city":"品川区","town":"東五反田","prefecture_code":13},"8638":{"zip_code":"1418638","prefecture":"東京都","city":"品川区","town":"北品川","prefecture_code":13},"8715":{"zip_code":"1418715","prefecture":"東京都","city":"品川区","town":"東五反田","prefecture_code":13},"8643":{"zip_code":"1418643","prefecture":"東京都","city":"品川区","town":"大崎","prefecture_code":13},"8501":{"zip_code":"1418501","prefecture":"東京都","city":"品川区","town":"西五反田","prefecture_code":13},"8522":{"zip_code":"1418522","prefecture":"東京都","city":"品川区","town":"大崎","prefecture_code":13},"8658":{"zip_code":"1418658","prefecture":"東京都","city":"品川区","town":"上大崎","prefecture_code":13},"8646":{"zip_code":"1418646","prefecture":"東京都","city":"品川区","town":"東五反田","prefecture_code":13},"8517":{"zip_code":"1418517","prefecture":"東京都","city":"品川区","town":"西五反田","prefecture_code":13},"8525":{"zip_code":"1418525","prefecture":"東京都","city":"品川区","town":"西五反田","prefecture_code":13},"8580":{"zip_code":"1418580","prefecture":"東京都","city":"品川区","town":"大崎","prefecture_code":13},"8422":{"zip_code":"1418422","prefecture":"東京都","city":"品川区","town":"西五反田","prefecture_code":13},"8411":{"zip_code":"1418411","prefecture":"東京都","city":"品川区","town":"西五反田","prefecture_code":13},"8424":{"zip_code":"1418424","prefecture":"東京都","city":"品川区","town":"西五反田","prefecture_code":13},"8413":{"zip_code":"1418413","prefecture":"東京都","city":"品川区","town":"西五反田","prefecture_code":13},"8416":{"zip_code":"1418416","prefecture":"東京都","city":"品川区","town":"西五反田","prefecture_code":13},"8420":{"zip_code":"1418420","prefecture":"東京都","city":"品川区","town":"西五反田","prefecture_code":13},"8419":{"zip_code":"1418419","prefecture":"東京都","city":"品川区","town":"西五反田","prefecture_code":13},"8412":{"zip_code":"1418412","prefecture":"東京都","city":"品川区","town":"西五反田","prefecture_code":13},"8418":{"zip_code":"1418418","prefecture":"東京都","city":"品川区","town":"西五反田","prefecture_code":13},"8510":{"zip_code":"1418510","prefecture":"東京都","city":"品川区","town":"西五反田","prefecture_code":13},"8415":{"zip_code":"1418415","prefecture":"東京都","city":"品川区","town":"西五反田","prefecture_code":13},"8414":{"zip_code":"1418414","prefecture":"東京都","city":"品川区","town":"西五反田","prefecture_code":13},"8421":{"zip_code":"1418421","prefecture":"東京都","city":"品川区","town":"西五反田","prefecture_code":13},"8688":{"zip_code":"1418688","prefecture":"東京都","city":"品川区","town":"北品川","prefecture_code":13},"8603":{"zip_code":"1418603","prefecture":"東京都","city":"品川区","town":"大崎","prefecture_code":13},"8657":{"zip_code":"1418657","prefecture":"東京都","city":"品川区","town":"上大崎","prefecture_code":13},"8629":{"zip_code":"1418629","prefecture":"東京都","city":"品川区","town":"西五反田","prefecture_code":13},"8569":{"zip_code":"1418569","prefecture":"東京都","city":"品川区","town":"上大崎","prefecture_code":13},"8701":{"zip_code":"1418701","prefecture":"東京都","city":"品川区","town":"北品川","prefecture_code":13},"8677":{"zip_code":"1418677","prefecture":"東京都","city":"品川区","town":"上大崎","prefecture_code":13},"8566":{"zip_code":"1418566","prefecture":"東京都","city":"品川区","town":"大崎","prefecture_code":13},"8512":{"zip_code":"1418512","prefecture":"東京都","city":"品川区","town":"西五反田","prefecture_code":13},"8672":{"zip_code":"1418672","prefecture":"東京都","city":"品川区","town":"大崎","prefecture_code":13},"8631":{"zip_code":"1418631","prefecture":"東京都","city":"品川区","town":"西五反田","prefecture_code":13},"8520":{"zip_code":"1418520","prefecture":"東京都","city":"品川区","town":"西五反田","prefecture_code":13},"8613":{"zip_code":"1418613","prefecture":"東京都","city":"品川区","town":"大崎","prefecture_code":13},"8606":{"zip_code":"1418606","prefecture":"東京都","city":"品川区","town":"大崎","prefecture_code":13},"8519":{"zip_code":"1418519","prefecture":"東京都","city":"品川区","town":"西五反田","prefecture_code":13},"8423":{"zip_code":"1418423","prefecture":"東京都","city":"品川区","town":"西五反田","prefecture_code":13},"8707":{"zip_code":"1418707","prefecture":"東京都","city":"品川区","town":"西品川","prefecture_code":13},"8581":{"zip_code":"1418581","prefecture":"東京都","city":"品川区","town":"大崎","prefecture_code":13},"8663":{"zip_code":"1418663","prefecture":"東京都","city":"品川区","town":"上大崎","prefecture_code":13},"8611":{"zip_code":"1418611","prefecture":"東京都","city":"品川区","town":"大崎","prefecture_code":13},"8615":{"zip_code":"1418615","prefecture":"東京都","city":"品川区","town":"西五反田","prefecture_code":13},"8641":{"zip_code":"1418641","prefecture":"東京都","city":"品川区","town":"大崎","prefecture_code":13},"8644":{"zip_code":"1418644","prefecture":"東京都","city":"品川区","town":"大崎","prefecture_code":13},"8673":{"zip_code":"1418673","prefecture":"東京都","city":"品川区","town":"大崎","prefecture_code":13},"8671":{"zip_code":"1418671","prefecture":"東京都","city":"品川区","town":"上大崎","prefecture_code":13},"8568":{"zip_code":"1418568","prefecture":"東京都","city":"品川区","town":"西五反田","prefecture_code":13},"8521":{"zip_code":"1418521","prefecture":"東京都","city":"品川区","town":"西五反田","prefecture_code":13},"8515":{"zip_code":"1418515","prefecture":"東京都","city":"品川区","town":"西五反田","prefecture_code":13},"8540":{"zip_code":"1418540","prefecture":"東京都","city":"品川区","town":"大崎","prefecture_code":13},"8604":{"zip_code":"1418604","prefecture":"東京都","city":"品川区","town":"大崎","prefecture_code":13},"8710":{"zip_code":"1418710","prefecture":"東京都","city":"品川区","town":"西五反田","prefecture_code":13},"8534":{"zip_code":"1418534","prefecture":"東京都","city":"品川区","town":"西五反田","prefecture_code":13},"8684":{"zip_code":"1418684","prefecture":"東京都","city":"品川区","town":"北品川","prefecture_code":13},"8642":{"zip_code":"1418642","prefecture":"東京都","city":"品川区","town":"東五反田","prefecture_code":13},"8620":{"zip_code":"1418620","prefecture":"東京都","city":"品川区","town":"大崎","prefecture_code":13},"8588":{"zip_code":"1418588","prefecture":"東京都","city":"品川区","town":"大崎","prefecture_code":13},"8610":{"zip_code":"1418610","prefecture":"東京都","city":"品川区","town":"大崎","prefecture_code":13},"8680":{"zip_code":"1418680","prefecture":"東京都","city":"品川区","town":"北品川","prefecture_code":13},"8561":{"zip_code":"1418561","prefecture":"東京都","city":"品川区","town":"大崎","prefecture_code":13},"8555":{"zip_code":"1418555","prefecture":"東京都","city":"品川区","town":"西五反田","prefecture_code":13},"8001":{"zip_code":"1418001","prefecture":"東京都","city":"品川区","town":"西五反田","prefecture_code":13},"8504":{"zip_code":"1418504","prefecture":"東京都","city":"品川区","town":"西五反田","prefecture_code":13},"8679":{"zip_code":"1418679","prefecture":"東京都","city":"品川区","town":"北品川","prefecture_code":13},"8503":{"zip_code":"1418503","prefecture":"東京都","city":"品川区","town":"西五反田","prefecture_code":13},"8648":{"zip_code":"1418648","prefecture":"東京都","city":"品川区","town":"東五反田","prefecture_code":13},"8507":{"zip_code":"1418507","prefecture":"東京都","city":"品川区","town":"西五反田","prefecture_code":13},"8623":{"zip_code":"1418623","prefecture":"東京都","city":"品川区","town":"西五反田","prefecture_code":13},"8664":{"zip_code":"1418664","prefecture":"東京都","city":"品川区","town":"東五反田","prefecture_code":13},"8562":{"zip_code":"1418562","prefecture":"東京都","city":"品川区","town":"大崎","prefecture_code":13},"8640":{"zip_code":"1418640","prefecture":"東京都","city":"品川区","town":"東五反田","prefecture_code":13},"8627":{"zip_code":"1418627","prefecture":"東京都","city":"品川区","town":"東五反田","prefecture_code":13},"8605":{"zip_code":"1418605","prefecture":"東京都","city":"品川区","town":"大崎","prefecture_code":13},"8647":{"zip_code":"1418647","prefecture":"東京都","city":"品川区","town":"東五反田","prefecture_code":13},"8572":{"zip_code":"1418572","prefecture":"東京都","city":"品川区","town":"大崎","prefecture_code":13},"8656":{"zip_code":"1418656","prefecture":"東京都","city":"品川区","town":"上大崎","prefecture_code":13},"8650":{"zip_code":"1418650","prefecture":"東京都","city":"品川区","town":"上大崎","prefecture_code":13},"8560":{"zip_code":"1418560","prefecture":"東京都","city":"品川区","town":"大崎","prefecture_code":13},"8716":{"zip_code":"1418716","prefecture":"東京都","city":"品川区","town":"大崎","prefecture_code":13},"8639":{"zip_code":"1418639","prefecture":"東京都","city":"品川区","town":"東五反田","prefecture_code":13},"8576":{"zip_code":"1418576","prefecture":"東京都","city":"品川区","town":"大崎","prefecture_code":13},"8630":{"zip_code":"1418630","prefecture":"東京都","city":"品川区","town":"東五反田","prefecture_code":13},"8660":{"zip_code":"1418660","prefecture":"東京都","city":"品川区","town":"上大崎","prefecture_code":13},"8665":{"zip_code":"1418665","prefecture":"東京都","city":"品川区","town":"大崎","prefecture_code":13},"8584":{"zip_code":"1418584","prefecture":"東京都","city":"品川区","town":"大崎","prefecture_code":13},"8505":{"zip_code":"1418505","prefecture":"東京都","city":"品川区","town":"大崎","prefecture_code":13},"8567":{"zip_code":"1418567","prefecture":"東京都","city":"品川区","town":"大崎","prefecture_code":13},"8616":{"zip_code":"1418616","prefecture":"東京都","city":"品川区","town":"大崎","prefecture_code":13},"8559":{"zip_code":"1418559","prefecture":"東京都","city":"品川区","town":"西五反田","prefecture_code":13},"8637":{"zip_code":"1418637","prefecture":"東京都","city":"品川区","town":"西五反田","prefecture_code":13},"8602":{"zip_code":"1418602","prefecture":"東京都","city":"品川区","town":"大崎","prefecture_code":13},"8577":{"zip_code":"1418577","prefecture":"東京都","city":"品川区","town":"大崎","prefecture_code":13},"8565":{"zip_code":"1418565","prefecture":"東京都","city":"品川区","town":"大崎","prefecture_code":13}}