{"0000":{"zip_code":"1500000","prefecture":"東京都","prefecture_kana":"トウキョウト","city":"渋谷区","city_kana":"シブヤク","town":"","town_kana":"","prefecture_code":13},"0032":{"zip_code":"1500032","prefecture":"東京都","prefecture_kana":"トウキョウト","city":"渋谷区","city_kana":"シブヤク","town":"鶯谷町","town_kana":"ウグイスダニチョウ","prefecture_code":13},"0042":{"zip_code":"1500042","prefecture":"東京都","prefecture_kana":"トウキョウト","city":"渋谷区","city_kana":"シブヤク","town":"宇田川町","town_kana":"ウダガワチョウ","prefecture_code":13},"0013":{"zip_code":"1500013","prefecture":"東京都","prefecture_kana":"トウキョウト","city":"渋谷区","city_kana":"シブヤク","town":"恵比寿","town_kana":"エビス","prefecture_code":13},"6090":{"zip_code":"1506090","prefecture":"東京都","prefecture_kana":"トウキョウト","city":"渋谷区","city_kana":"シブヤク","town":"恵比寿恵比寿ガーデンプレイス","town_kana":"エビスエビスガーデンプレイス","prefecture_code":13},"6001":{"zip_code":"1506001","prefecture":"東京都","prefecture_kana":"トウキョウト","city":"渋谷区","city_kana":"シブヤク","town":"恵比寿恵比寿ガーデンプレイス　１階","town_kana":"エビスエビスガーデンプレイス1カイ","prefecture_code":13},"6002":{"zip_code":"1506002","prefecture":"東京都","prefecture_kana":"トウキョウト","city":"渋谷区","city_kana":"シブヤク","town":"恵比寿恵比寿ガーデンプレイス　２階","town_kana":"エビスエビスガーデンプレイス2カイ","prefecture_code":13},"6003":{"zip_code":"1506003","prefecture":"東京都","prefecture_kana":"トウキョウト","city":"渋谷区","city_kana":"シブヤク","town":"恵比寿恵比寿ガーデンプレイス　３階","town_kana":"エビスエビスガーデンプレイス3カイ","prefecture_code":13},"6004":{"zip_code":"1506004","prefecture":"東京都","prefecture_kana":"トウキョウト","city":"渋谷区","city_kana":"シブヤク","town":"恵比寿恵比寿ガーデンプレイス　４階","town_kana":"エビスエビスガーデンプレイス4カイ","prefecture_code":13},"6005":{"zip_code":"1506005","prefecture":"東京都","prefecture_kana":"トウキョウト","city":"渋谷区","city_kana":"シブヤク","town":"恵比寿恵比寿ガーデンプレイス　５階","town_kana":"エビスエビスガーデンプレイス5カイ","prefecture_code":13},"6006":{"zip_code":"1506006","prefecture":"東京都","prefecture_kana":"トウキョウト","city":"渋谷区","city_kana":"シブヤク","town":"恵比寿恵比寿ガーデンプレイス　６階","town_kana":"エビスエビスガーデンプレイス6カイ","prefecture_code":13},"6007":{"zip_code":"1506007","prefecture":"東京都","prefecture_kana":"トウキョウト","city":"渋谷区","city_kana":"シブヤク","town":"恵比寿恵比寿ガーデンプレイス　７階","town_kana":"エビスエビスガーデンプレイス7カイ","prefecture_code":13},"6008":{"zip_code":"1506008","prefecture":"東京都","prefecture_kana":"トウキョウト","city":"渋谷区","city_kana":"シブヤク","town":"恵比寿恵比寿ガーデンプレイス　８階","town_kana":"エビスエビスガーデンプレイス8カイ","prefecture_code":13},"6009":{"zip_code":"1506009","prefecture":"東京都","prefecture_kana":"トウキョウト","city":"渋谷区","city_kana":"シブヤク","town":"恵比寿恵比寿ガーデンプレイス　９階","town_kana":"エビスエビスガーデンプレイス9カイ","prefecture_code":13},"6010":{"zip_code":"1506010","prefecture":"東京都","prefecture_kana":"トウキョウト","city":"渋谷区","city_kana":"シブヤク","town":"恵比寿恵比寿ガーデンプレイス　１０階","town_kana":"エビスエビスガーデンプレイス10カイ","prefecture_code":13},"6011":{"zip_code":"1506011","prefecture":"東京都","prefecture_kana":"トウキョウト","city":"渋谷区","city_kana":"シブヤク","town":"恵比寿恵比寿ガーデンプレイス　１１階","town_kana":"エビスエビスガーデンプレイス11カイ","prefecture_code":13},"6012":{"zip_code":"1506012","prefecture":"東京都","prefecture_kana":"トウキョウト","city":"渋谷区","city_kana":"シブヤク","town":"恵比寿恵比寿ガーデンプレイス　１２階","town_kana":"エビスエビスガーデンプレイス12カイ","prefecture_code":13},"6013":{"zip_code":"1506013","prefecture":"東京都","prefecture_kana":"トウキョウト","city":"渋谷区","city_kana":"シブヤク","town":"恵比寿恵比寿ガーデンプレイス　１３階","town_kana":"エビスエビスガーデンプレイス13カイ","prefecture_code":13},"6014":{"zip_code":"1506014","prefecture":"東京都","prefecture_kana":"トウキョウト","city":"渋谷区","city_kana":"シブヤク","town":"恵比寿恵比寿ガーデンプレイス　１４階","town_kana":"エビスエビスガーデンプレイス14カイ","prefecture_code":13},"6015":{"zip_code":"1506015","prefecture":"東京都","prefecture_kana":"トウキョウト","city":"渋谷区","city_kana":"シブヤク","town":"恵比寿恵比寿ガーデンプレイス　１５階","town_kana":"エビスエビスガーデンプレイス15カイ","prefecture_code":13},"6016":{"zip_code":"1506016","prefecture":"東京都","prefecture_kana":"トウキョウト","city":"渋谷区","city_kana":"シブヤク","town":"恵比寿恵比寿ガーデンプレイス　１６階","town_kana":"エビスエビスガーデンプレイス16カイ","prefecture_code":13},"6017":{"zip_code":"1506017","prefecture":"東京都","prefecture_kana":"トウキョウト","city":"渋谷区","city_kana":"シブヤク","town":"恵比寿恵比寿ガーデンプレイス　１７階","town_kana":"エビスエビスガーデンプレイス17カイ","prefecture_code":13},"6018":{"zip_code":"1506018","prefecture":"東京都","prefecture_kana":"トウキョウト","city":"渋谷区","city_kana":"シブヤク","town":"恵比寿恵比寿ガーデンプレイス　１８階","town_kana":"エビスエビスガーデンプレイス18カイ","prefecture_code":13},"6019":{"zip_code":"1506019","prefecture":"東京都","prefecture_kana":"トウキョウト","city":"渋谷区","city_kana":"シブヤク","town":"恵比寿恵比寿ガーデンプレイス　１９階","town_kana":"エビスエビスガーデンプレイス19カイ","prefecture_code":13},"6020":{"zip_code":"1506020","prefecture":"東京都","prefecture_kana":"トウキョウト","city":"渋谷区","city_kana":"シブヤク","town":"恵比寿恵比寿ガーデンプレイス　２０階","town_kana":"エビスエビスガーデンプレイス20カイ","prefecture_code":13},"6021":{"zip_code":"1506021","prefecture":"東京都","prefecture_kana":"トウキョウト","city":"渋谷区","city_kana":"シブヤク","town":"恵比寿恵比寿ガーデンプレイス　２１階","town_kana":"エビスエビスガーデンプレイス21カイ","prefecture_code":13},"6022":{"zip_code":"1506022","prefecture":"東京都","prefecture_kana":"トウキョウト","city":"渋谷区","city_kana":"シブヤク","town":"恵比寿恵比寿ガーデンプレイス　２２階","town_kana":"エビスエビスガーデンプレイス22カイ","prefecture_code":13},"6023":{"zip_code":"1506023","prefecture":"東京都","prefecture_kana":"トウキョウト","city":"渋谷区","city_kana":"シブヤク","town":"恵比寿恵比寿ガーデンプレイス　２３階","town_kana":"エビスエビスガーデンプレイス23カイ","prefecture_code":13},"6024":{"zip_code":"1506024","prefecture":"東京都","prefecture_kana":"トウキョウト","city":"渋谷区","city_kana":"シブヤク","town":"恵比寿恵比寿ガーデンプレイス　２４階","town_kana":"エビスエビスガーデンプレイス24カイ","prefecture_code":13},"6025":{"zip_code":"1506025","prefecture":"東京都","prefecture_kana":"トウキョウト","city":"渋谷区","city_kana":"シブヤク","town":"恵比寿恵比寿ガーデンプレイス　２５階","town_kana":"エビスエビスガーデンプレイス25カイ","prefecture_code":13},"6026":{"zip_code":"1506026","prefecture":"東京都","prefecture_kana":"トウキョウト","city":"渋谷区","city_kana":"シブヤク","town":"恵比寿恵比寿ガーデンプレイス　２６階","town_kana":"エビスエビスガーデンプレイス26カイ","prefecture_code":13},"6027":{"zip_code":"1506027","prefecture":"東京都","prefecture_kana":"トウキョウト","city":"渋谷区","city_kana":"シブヤク","town":"恵比寿恵比寿ガーデンプレイス　２７階","town_kana":"エビスエビスガーデンプレイス27カイ","prefecture_code":13},"6028":{"zip_code":"1506028","prefecture":"東京都","prefecture_kana":"トウキョウト","city":"渋谷区","city_kana":"シブヤク","town":"恵比寿恵比寿ガーデンプレイス　２８階","town_kana":"エビスエビスガーデンプレイス28カイ","prefecture_code":13},"6029":{"zip_code":"1506029","prefecture":"東京都","prefecture_kana":"トウキョウト","city":"渋谷区","city_kana":"シブヤク","town":"恵比寿恵比寿ガーデンプレイス　２９階","town_kana":"エビスエビスガーデンプレイス29カイ","prefecture_code":13},"6030":{"zip_code":"1506030","prefecture":"東京都","prefecture_kana":"トウキョウト","city":"渋谷区","city_kana":"シブヤク","town":"恵比寿恵比寿ガーデンプレイス　３０階","town_kana":"エビスエビスガーデンプレイス30カイ","prefecture_code":13},"6031":{"zip_code":"1506031","prefecture":"東京都","prefecture_kana":"トウキョウト","city":"渋谷区","city_kana":"シブヤク","town":"恵比寿恵比寿ガーデンプレイス　３１階","town_kana":"エビスエビスガーデンプレイス31カイ","prefecture_code":13},"6032":{"zip_code":"1506032","prefecture":"東京都","prefecture_kana":"トウキョウト","city":"渋谷区","city_kana":"シブヤク","town":"恵比寿恵比寿ガーデンプレイス　３２階","town_kana":"エビスエビスガーデンプレイス32カイ","prefecture_code":13},"6033":{"zip_code":"1506033","prefecture":"東京都","prefecture_kana":"トウキョウト","city":"渋谷区","city_kana":"シブヤク","town":"恵比寿恵比寿ガーデンプレイス　３３階","town_kana":"エビスエビスガーデンプレイス33カイ","prefecture_code":13},"6034":{"zip_code":"1506034","prefecture":"東京都","prefecture_kana":"トウキョウト","city":"渋谷区","city_kana":"シブヤク","town":"恵比寿恵比寿ガーデンプレイス　３４階","town_kana":"エビスエビスガーデンプレイス34カイ","prefecture_code":13},"6035":{"zip_code":"1506035","prefecture":"東京都","prefecture_kana":"トウキョウト","city":"渋谷区","city_kana":"シブヤク","town":"恵比寿恵比寿ガーデンプレイス　３５階","town_kana":"エビスエビスガーデンプレイス35カイ","prefecture_code":13},"6036":{"zip_code":"1506036","prefecture":"東京都","prefecture_kana":"トウキョウト","city":"渋谷区","city_kana":"シブヤク","town":"恵比寿恵比寿ガーデンプレイス　３６階","town_kana":"エビスエビスガーデンプレイス36カイ","prefecture_code":13},"6037":{"zip_code":"1506037","prefecture":"東京都","prefecture_kana":"トウキョウト","city":"渋谷区","city_kana":"シブヤク","town":"恵比寿恵比寿ガーデンプレイス　３７階","town_kana":"エビスエビスガーデンプレイス37カイ","prefecture_code":13},"6038":{"zip_code":"1506038","prefecture":"東京都","prefecture_kana":"トウキョウト","city":"渋谷区","city_kana":"シブヤク","town":"恵比寿恵比寿ガーデンプレイス　３８階","town_kana":"エビスエビスガーデンプレイス38カイ","prefecture_code":13},"6039":{"zip_code":"1506039","prefecture":"東京都","prefecture_kana":"トウキョウト","city":"渋谷区","city_kana":"シブヤク","town":"恵比寿恵比寿ガーデンプレイス　３９階","town_kana":"エビスエビスガーデンプレイス39カイ","prefecture_code":13},"0021":{"zip_code":"1500021","prefecture":"東京都","prefecture_kana":"トウキョウト","city":"渋谷区","city_kana":"シブヤク","town":"恵比寿西","town_kana":"エビスニシ","prefecture_code":13},"0022":{"zip_code":"1500022","prefecture":"東京都","prefecture_kana":"トウキョウト","city":"渋谷区","city_kana":"シブヤク","town":"恵比寿南","town_kana":"エビスミナミ","prefecture_code":13},"0047":{"zip_code":"1500047","prefecture":"東京都","prefecture_kana":"トウキョウト","city":"渋谷区","city_kana":"シブヤク","town":"神山町","town_kana":"カミヤマチョウ","prefecture_code":13},"0031":{"zip_code":"1500031","prefecture":"東京都","prefecture_kana":"トウキョウト","city":"渋谷区","city_kana":"シブヤク","town":"桜丘町","town_kana":"サクラガオカチョウ","prefecture_code":13},"0033":{"zip_code":"1500033","prefecture":"東京都","prefecture_kana":"トウキョウト","city":"渋谷区","city_kana":"シブヤク","town":"猿楽町","town_kana":"サルガクチョウ","prefecture_code":13},"0002":{"zip_code":"1500002","prefecture":"東京都","prefecture_kana":"トウキョウト","city":"渋谷区","city_kana":"シブヤク","town":"渋谷","town_kana":"シブヤ","prefecture_code":13},"0046":{"zip_code":"1500046","prefecture":"東京都","prefecture_kana":"トウキョウト","city":"渋谷区","city_kana":"シブヤク","town":"松濤","town_kana":"ショウトウ","prefecture_code":13},"0001":{"zip_code":"1500001","prefecture":"東京都","prefecture_kana":"トウキョウト","city":"渋谷区","city_kana":"シブヤク","town":"神宮前","town_kana":"ジングウマエ","prefecture_code":13},"0045":{"zip_code":"1500045","prefecture":"東京都","prefecture_kana":"トウキョウト","city":"渋谷区","city_kana":"シブヤク","town":"神泉町","town_kana":"シンセンチョウ","prefecture_code":13},"0041":{"zip_code":"1500041","prefecture":"東京都","prefecture_kana":"トウキョウト","city":"渋谷区","city_kana":"シブヤク","town":"神南","town_kana":"ジンナン","prefecture_code":13},"0034":{"zip_code":"1500034","prefecture":"東京都","prefecture_kana":"トウキョウト","city":"渋谷区","city_kana":"シブヤク","town":"代官山町","town_kana":"ダイカンヤマチョウ","prefecture_code":13},"0043":{"zip_code":"1500043","prefecture":"東京都","prefecture_kana":"トウキョウト","city":"渋谷区","city_kana":"シブヤク","town":"道玄坂","town_kana":"ドウゲンザカ","prefecture_code":13},"0036":{"zip_code":"1500036","prefecture":"東京都","prefecture_kana":"トウキョウト","city":"渋谷区","city_kana":"シブヤク","town":"南平台町","town_kana":"ナンペイダイチョウ","prefecture_code":13},"0035":{"zip_code":"1500035","prefecture":"東京都","prefecture_kana":"トウキョウト","city":"渋谷区","city_kana":"シブヤク","town":"鉢山町","town_kana":"ハチヤマチョウ","prefecture_code":13},"0011":{"zip_code":"1500011","prefecture":"東京都","prefecture_kana":"トウキョウト","city":"渋谷区","city_kana":"シブヤク","town":"東","town_kana":"ヒガシ","prefecture_code":13},"0012":{"zip_code":"1500012","prefecture":"東京都","prefecture_kana":"トウキョウト","city":"渋谷区","city_kana":"シブヤク","town":"広尾","town_kana":"ヒロオ","prefecture_code":13},"0044":{"zip_code":"1500044","prefecture":"東京都","prefecture_kana":"トウキョウト","city":"渋谷区","city_kana":"シブヤク","town":"円山町","town_kana":"マルヤマチョウ","prefecture_code":13},"8326":{"zip_code":"1508326","prefecture":"東京都","city":"渋谷区","town":"渋谷","prefecture_code":13},"8552":{"zip_code":"1508552","prefecture":"東京都","city":"渋谷区","town":"渋谷","prefecture_code":13},"8553":{"zip_code":"1508553","prefecture":"東京都","city":"渋谷区","town":"渋谷","prefecture_code":13},"8488":{"zip_code":"1508488","prefecture":"東京都","city":"渋谷区","town":"恵比寿","prefecture_code":13},"8525":{"zip_code":"1508525","prefecture":"東京都","city":"渋谷区","town":"道玄坂","prefecture_code":13},"8502":{"zip_code":"1508502","prefecture":"東京都","city":"渋谷区","town":"恵比寿南","prefecture_code":13},"8514":{"zip_code":"1508514","prefecture":"東京都","city":"渋谷区","town":"東","prefecture_code":13},"8940":{"zip_code":"1508940","prefecture":"東京都","city":"渋谷区","town":"広尾","prefecture_code":13},"8517":{"zip_code":"1508517","prefecture":"東京都","city":"渋谷区","town":"松濤","prefecture_code":13},"8327":{"zip_code":"1508327","prefecture":"東京都","city":"渋谷区","town":"渋谷","prefecture_code":13},"8508":{"zip_code":"1508508","prefecture":"東京都","city":"渋谷区","town":"恵比寿南","prefecture_code":13},"8932":{"zip_code":"1508932","prefecture":"東京都","city":"渋谷区","town":"恵比寿","prefecture_code":13},"8330":{"zip_code":"1508330","prefecture":"東京都","city":"渋谷区","town":"宇田川町","prefecture_code":13},"8409":{"zip_code":"1508409","prefecture":"東京都","city":"渋谷区","town":"神宮前","prefecture_code":13},"8575":{"zip_code":"1508575","prefecture":"東京都","city":"渋谷区","town":"恵比寿","prefecture_code":13},"8516":{"zip_code":"1508516","prefecture":"東京都","city":"渋谷区","town":"神宮前","prefecture_code":13},"8325":{"zip_code":"1508325","prefecture":"東京都","city":"渋谷区","town":"渋谷","prefecture_code":13},"8319":{"zip_code":"1508319","prefecture":"東京都","city":"渋谷区","town":"渋谷","prefecture_code":13},"8507":{"zip_code":"1508507","prefecture":"東京都","city":"渋谷区","town":"道玄坂","prefecture_code":13},"8448":{"zip_code":"1508448","prefecture":"東京都","city":"渋谷区","town":"恵比寿西","prefecture_code":13},"8412":{"zip_code":"1508412","prefecture":"東京都","city":"渋谷区","town":"神南","prefecture_code":13},"8587":{"zip_code":"1508587","prefecture":"東京都","city":"渋谷区","town":"恵比寿西","prefecture_code":13},"8377":{"zip_code":"1508377","prefecture":"東京都","city":"渋谷区","town":"宇田川町","prefecture_code":13},"8350":{"zip_code":"1508350","prefecture":"東京都","city":"渋谷区","town":"渋谷","prefecture_code":13},"8343":{"zip_code":"1508343","prefecture":"東京都","city":"渋谷区","town":"渋谷","prefecture_code":13},"8955":{"zip_code":"1508955","prefecture":"東京都","city":"渋谷区","town":"恵比寿南","prefecture_code":13},"8526":{"zip_code":"1508526","prefecture":"東京都","city":"渋谷区","town":"恵比寿","prefecture_code":13},"8967":{"zip_code":"1508967","prefecture":"東京都","city":"渋谷区","town":"道玄坂","prefecture_code":13},"8551":{"zip_code":"1508551","prefecture":"東京都","city":"渋谷区","town":"渋谷","prefecture_code":13},"8482":{"zip_code":"1508482","prefecture":"東京都","city":"渋谷区","town":"恵比寿","prefecture_code":13},"8366":{"zip_code":"1508366","prefecture":"東京都","city":"渋谷区","town":"渋谷","prefecture_code":13},"8440":{"zip_code":"1508440","prefecture":"東京都","city":"渋谷区","town":"東","prefecture_code":13},"8338":{"zip_code":"1508338","prefecture":"東京都","city":"渋谷区","town":"渋谷","prefecture_code":13},"8585":{"zip_code":"1508585","prefecture":"東京都","city":"渋谷区","town":"松濤","prefecture_code":13},"8303":{"zip_code":"1508303","prefecture":"東京都","city":"渋谷区","town":"神宮前","prefecture_code":13},"8307":{"zip_code":"1508307","prefecture":"東京都","city":"渋谷区","town":"渋谷","prefecture_code":13},"8355":{"zip_code":"1508355","prefecture":"東京都","city":"渋谷区","town":"神宮前","prefecture_code":13},"8925":{"zip_code":"1508925","prefecture":"東京都","city":"渋谷区","town":"神宮前","prefecture_code":13},"8522":{"zip_code":"1508522","prefecture":"東京都","city":"渋谷区","town":"恵比寿","prefecture_code":13},"8328":{"zip_code":"1508328","prefecture":"東京都","city":"渋谷区","town":"宇田川町","prefecture_code":13},"8503":{"zip_code":"1508503","prefecture":"東京都","city":"渋谷区","town":"渋谷","prefecture_code":13},"8363":{"zip_code":"1508363","prefecture":"東京都","city":"渋谷区","town":"渋谷","prefecture_code":13},"8923":{"zip_code":"1508923","prefecture":"東京都","city":"渋谷区","town":"神宮前","prefecture_code":13},"8673":{"zip_code":"1508673","prefecture":"東京都","city":"渋谷区","town":"渋谷","prefecture_code":13},"8333":{"zip_code":"1508333","prefecture":"東京都","city":"渋谷区","town":"宇田川町","prefecture_code":13},"8510":{"zip_code":"1508510","prefecture":"東京都","city":"渋谷区","town":"渋谷","prefecture_code":13},"8509":{"zip_code":"1508509","prefecture":"東京都","city":"渋谷区","town":"渋谷","prefecture_code":13},"8672":{"zip_code":"1508672","prefecture":"東京都","city":"渋谷区","town":"神宮前","prefecture_code":13},"8373":{"zip_code":"1508373","prefecture":"東京都","city":"渋谷区","town":"渋谷","prefecture_code":13},"8324":{"zip_code":"1508324","prefecture":"東京都","city":"渋谷区","town":"渋谷","prefecture_code":13},"8538":{"zip_code":"1508538","prefecture":"東京都","city":"渋谷区","town":"東","prefecture_code":13},"8938":{"zip_code":"1508938","prefecture":"東京都","city":"渋谷区","town":"広尾","prefecture_code":13},"8512":{"zip_code":"1508512","prefecture":"東京都","city":"渋谷区","town":"桜丘町","prefecture_code":13},"8902":{"zip_code":"1508902","prefecture":"東京都","city":"渋谷区","town":"渋谷","prefecture_code":13},"8340":{"zip_code":"1508340","prefecture":"東京都","city":"渋谷区","town":"渋谷","prefecture_code":13},"8511":{"zip_code":"1508511","prefecture":"東京都","city":"渋谷区","town":"南平台町","prefecture_code":13},"8533":{"zip_code":"1508533","prefecture":"東京都","city":"渋谷区","town":"桜丘町","prefecture_code":13},"8911":{"zip_code":"1508911","prefecture":"東京都","city":"渋谷区","town":"渋谷","prefecture_code":13},"8408":{"zip_code":"1508408","prefecture":"東京都","city":"渋谷区","town":"恵比寿","prefecture_code":13},"8322":{"zip_code":"1508322","prefecture":"東京都","city":"渋谷区","town":"神宮前","prefecture_code":13},"8306":{"zip_code":"1508306","prefecture":"東京都","city":"渋谷区","town":"宇田川町","prefecture_code":13},"8385":{"zip_code":"1508385","prefecture":"東京都","city":"渋谷区","town":"宇田川町","prefecture_code":13},"8301":{"zip_code":"1508301","prefecture":"東京都","city":"渋谷区","town":"宇田川町","prefecture_code":13},"8530":{"zip_code":"1508530","prefecture":"東京都","city":"渋谷区","town":"渋谷","prefecture_code":13},"8545":{"zip_code":"1508545","prefecture":"東京都","city":"渋谷区","town":"渋谷","prefecture_code":13},"8436":{"zip_code":"1508436","prefecture":"東京都","city":"渋谷区","town":"広尾","prefecture_code":13},"8935":{"zip_code":"1508935","prefecture":"東京都","city":"渋谷区","town":"広尾","prefecture_code":13},"8515":{"zip_code":"1508515","prefecture":"東京都","city":"渋谷区","town":"神山町","prefecture_code":13},"8577":{"zip_code":"1508577","prefecture":"東京都","city":"渋谷区","town":"桜丘町","prefecture_code":13},"8384":{"zip_code":"1508384","prefecture":"東京都","city":"渋谷区","town":"神南","prefecture_code":13},"8505":{"zip_code":"1508505","prefecture":"東京都","city":"渋谷区","town":"南平台町","prefecture_code":13},"8567":{"zip_code":"1508567","prefecture":"東京都","city":"渋谷区","town":"猿楽町","prefecture_code":13},"8402":{"zip_code":"1508402","prefecture":"東京都","city":"渋谷区","town":"広尾","prefecture_code":13},"8554":{"zip_code":"1508554","prefecture":"東京都","city":"渋谷区","town":"恵比寿","prefecture_code":13},"8360":{"zip_code":"1508360","prefecture":"東京都","city":"渋谷区","town":"渋谷","prefecture_code":13},"8015":{"zip_code":"1508015","prefecture":"東京都","city":"渋谷区","town":"道玄坂","prefecture_code":13},"8455":{"zip_code":"1508455","prefecture":"東京都","city":"渋谷区","town":"広尾","prefecture_code":13},"8555":{"zip_code":"1508555","prefecture":"東京都","city":"渋谷区","town":"神泉町","prefecture_code":13},"8588":{"zip_code":"1508588","prefecture":"東京都","city":"渋谷区","town":"渋谷","prefecture_code":13},"8563":{"zip_code":"1508563","prefecture":"東京都","city":"渋谷区","town":"南平台町","prefecture_code":13},"8001":{"zip_code":"1508001","prefecture":"東京都","city":"渋谷区","town":"神南","prefecture_code":13},"8010":{"zip_code":"1508010","prefecture":"東京都","city":"渋谷区","town":"宇田川町","prefecture_code":13},"8019":{"zip_code":"1508019","prefecture":"東京都","city":"渋谷区","town":"道玄坂","prefecture_code":13},"8081":{"zip_code":"1508081","prefecture":"東京都","city":"渋谷区","town":"宇田川町","prefecture_code":13},"8688":{"zip_code":"1508688","prefecture":"東京都","city":"渋谷区","town":"鉢山町","prefecture_code":13},"8677":{"zip_code":"1508677","prefecture":"東京都","city":"渋谷区","town":"恵比寿","prefecture_code":13}}