{"0064":{"zip_code":"1510064","prefecture":"東京都","prefecture_kana":"トウキョウト","city":"渋谷区","city_kana":"シブヤク","town":"上原","town_kana":"ウエハラ","prefecture_code":13},"0065":{"zip_code":"1510065","prefecture":"東京都","prefecture_kana":"トウキョウト","city":"渋谷区","city_kana":"シブヤク","town":"大山町","town_kana":"オオヤマチョウ","prefecture_code":13},"0073":{"zip_code":"1510073","prefecture":"東京都","prefecture_kana":"トウキョウト","city":"渋谷区","city_kana":"シブヤク","town":"笹塚","town_kana":"ササヅカ","prefecture_code":13},"0051":{"zip_code":"1510051","prefecture":"東京都","prefecture_kana":"トウキョウト","city":"渋谷区","city_kana":"シブヤク","town":"千駄ヶ谷","town_kana":"センダガヤ","prefecture_code":13},"0063":{"zip_code":"1510063","prefecture":"東京都","prefecture_kana":"トウキョウト","city":"渋谷区","city_kana":"シブヤク","town":"富ヶ谷","town_kana":"トミガヤ","prefecture_code":13},"0066":{"zip_code":"1510066","prefecture":"東京都","prefecture_kana":"トウキョウト","city":"渋谷区","city_kana":"シブヤク","town":"西原","town_kana":"ニシハラ","prefecture_code":13},"0072":{"zip_code":"1510072","prefecture":"東京都","prefecture_kana":"トウキョウト","city":"渋谷区","city_kana":"シブヤク","town":"幡ヶ谷","town_kana":"ハタガヤ","prefecture_code":13},"0061":{"zip_code":"1510061","prefecture":"東京都","prefecture_kana":"トウキョウト","city":"渋谷区","city_kana":"シブヤク","town":"初台","town_kana":"ハツダイ","prefecture_code":13},"0071":{"zip_code":"1510071","prefecture":"東京都","prefecture_kana":"トウキョウト","city":"渋谷区","city_kana":"シブヤク","town":"本町","town_kana":"ホンマチ","prefecture_code":13},"0062":{"zip_code":"1510062","prefecture":"東京都","prefecture_kana":"トウキョウト","city":"渋谷区","city_kana":"シブヤク","town":"元代々木町","town_kana":"モトヨヨギチョウ","prefecture_code":13},"0053":{"zip_code":"1510053","prefecture":"東京都","prefecture_kana":"トウキョウト","city":"渋谷区","city_kana":"シブヤク","town":"代々木","town_kana":"ヨヨギ","prefecture_code":13},"0052":{"zip_code":"1510052","prefecture":"東京都","prefecture_kana":"トウキョウト","city":"渋谷区","city_kana":"シブヤク","town":"代々木神園町","town_kana":"ヨヨギカミゾノチョウ","prefecture_code":13},"8530":{"zip_code":"1518530","prefecture":"東京都","city":"渋谷区","town":"代々木","prefecture_code":13},"8675":{"zip_code":"1518675","prefecture":"東京都","city":"渋谷区","town":"千駄ヶ谷","prefecture_code":13},"8563":{"zip_code":"1518563","prefecture":"東京都","city":"渋谷区","town":"千駄ケ谷","prefecture_code":13},"8510":{"zip_code":"1518510","prefecture":"東京都","city":"渋谷区","town":"千駄ケ谷","prefecture_code":13},"8520":{"zip_code":"1518520","prefecture":"東京都","city":"渋谷区","town":"千駄ヶ谷","prefecture_code":13},"8583":{"zip_code":"1518583","prefecture":"東京都","city":"渋谷区","town":"代々木","prefecture_code":13},"8543":{"zip_code":"1518543","prefecture":"東京都","city":"渋谷区","town":"本町","prefecture_code":13},"8601":{"zip_code":"1518601","prefecture":"東京都","city":"渋谷区","town":"代々木","prefecture_code":13},"8580":{"zip_code":"1518580","prefecture":"東京都","city":"渋谷区","town":"千駄ヶ谷","prefecture_code":13},"8502":{"zip_code":"1518502","prefecture":"東京都","city":"渋谷区","town":"千駄ヶ谷","prefecture_code":13},"8401":{"zip_code":"1518401","prefecture":"東京都","city":"渋谷区","town":"代々木","prefecture_code":13},"8592":{"zip_code":"1518592","prefecture":"東京都","city":"渋谷区","town":"代々木","prefecture_code":13},"8562":{"zip_code":"1518562","prefecture":"東京都","city":"渋谷区","town":"初台","prefecture_code":13},"8536":{"zip_code":"1518536","prefecture":"東京都","city":"渋谷区","town":"千駄ケ谷","prefecture_code":13},"8673":{"zip_code":"1518673","prefecture":"東京都","city":"渋谷区","town":"千駄ヶ谷","prefecture_code":13},"8561":{"zip_code":"1518561","prefecture":"東京都","city":"渋谷区","town":"代々木","prefecture_code":13},"8554":{"zip_code":"1518554","prefecture":"東京都","city":"渋谷区","town":"富ケ谷","prefecture_code":13},"8549":{"zip_code":"1518549","prefecture":"東京都","city":"渋谷区","town":"幡ケ谷","prefecture_code":13},"8542":{"zip_code":"1518542","prefecture":"東京都","city":"渋谷区","town":"千駄ケ谷","prefecture_code":13},"8576":{"zip_code":"1518576","prefecture":"東京都","city":"渋谷区","town":"西原","prefecture_code":13},"8532":{"zip_code":"1518532","prefecture":"東京都","city":"渋谷区","town":"千駄ケ谷","prefecture_code":13},"8674":{"zip_code":"1518674","prefecture":"東京都","city":"渋谷区","town":"代々木","prefecture_code":13},"8504":{"zip_code":"1518504","prefecture":"東京都","city":"渋谷区","town":"代々木","prefecture_code":13},"8548":{"zip_code":"1518548","prefecture":"東京都","city":"渋谷区","town":"代々木","prefecture_code":13},"8544":{"zip_code":"1518544","prefecture":"東京都","city":"渋谷区","town":"代々木","prefecture_code":13},"8511":{"zip_code":"1518511","prefecture":"東京都","city":"渋谷区","town":"富ケ谷","prefecture_code":13},"8672":{"zip_code":"1518672","prefecture":"東京都","city":"渋谷区","town":"千駄ヶ谷","prefecture_code":13},"8541":{"zip_code":"1518541","prefecture":"東京都","city":"渋谷区","town":"笹塚","prefecture_code":13},"8517":{"zip_code":"1518517","prefecture":"東京都","city":"渋谷区","town":"代々木","prefecture_code":13},"8570":{"zip_code":"1518570","prefecture":"東京都","city":"渋谷区","town":"千駄ケ谷","prefecture_code":13},"8503":{"zip_code":"1518503","prefecture":"東京都","city":"渋谷区","town":"千駄ケ谷","prefecture_code":13},"8600":{"zip_code":"1518600","prefecture":"東京都","city":"渋谷区","town":"上原","prefecture_code":13},"8585":{"zip_code":"1518585","prefecture":"東京都","city":"渋谷区","town":"代々木","prefecture_code":13},"8559":{"zip_code":"1518559","prefecture":"東京都","city":"渋谷区","town":"代々木","prefecture_code":13},"8677":{"zip_code":"1518677","prefecture":"東京都","city":"渋谷区","town":"富ヶ谷","prefecture_code":13},"8521":{"zip_code":"1518521","prefecture":"東京都","city":"渋谷区","town":"代々木","prefecture_code":13},"8566":{"zip_code":"1518566","prefecture":"東京都","city":"渋谷区","town":"千駄ケ谷","prefecture_code":13},"8590":{"zip_code":"1518590","prefecture":"東京都","city":"渋谷区","town":"代々木","prefecture_code":13},"8587":{"zip_code":"1518587","prefecture":"東京都","city":"渋谷区","town":"笹塚","prefecture_code":13},"8555":{"zip_code":"1518555","prefecture":"東京都","city":"渋谷区","town":"代々木","prefecture_code":13},"8545":{"zip_code":"1518545","prefecture":"東京都","city":"渋谷区","town":"代々木","prefecture_code":13},"8540":{"zip_code":"1518540","prefecture":"東京都","city":"渋谷区","town":"上原","prefecture_code":13},"8538":{"zip_code":"1518538","prefecture":"東京都","city":"渋谷区","town":"千駄ケ谷","prefecture_code":13},"8516":{"zip_code":"1518516","prefecture":"東京都","city":"渋谷区","town":"千駄ケ谷","prefecture_code":13},"8505":{"zip_code":"1518505","prefecture":"東京都","city":"渋谷区","town":"代々木","prefecture_code":13},"8509":{"zip_code":"1518509","prefecture":"東京都","city":"渋谷区","town":"千駄ケ谷","prefecture_code":13},"8578":{"zip_code":"1518578","prefecture":"東京都","city":"渋谷区","town":"代々木","prefecture_code":13},"8404":{"zip_code":"1518404","prefecture":"東京都","city":"渋谷区","town":"代々木","prefecture_code":13},"8531":{"zip_code":"1518531","prefecture":"東京都","city":"渋谷区","town":"代々木","prefecture_code":13},"8571":{"zip_code":"1518571","prefecture":"東京都","city":"渋谷区","town":"代々木","prefecture_code":13},"8518":{"zip_code":"1518518","prefecture":"東京都","city":"渋谷区","town":"代々木","prefecture_code":13},"8565":{"zip_code":"1518565","prefecture":"東京都","city":"渋谷区","town":"幡ケ谷","prefecture_code":13},"8534":{"zip_code":"1518534","prefecture":"東京都","city":"渋谷区","town":"代々木","prefecture_code":13},"8584":{"zip_code":"1518584","prefecture":"東京都","city":"渋谷区","town":"幡ケ谷","prefecture_code":13},"8519":{"zip_code":"1518519","prefecture":"東京都","city":"渋谷区","town":"代々木","prefecture_code":13},"8552":{"zip_code":"1518552","prefecture":"東京都","city":"渋谷区","town":"代々木","prefecture_code":13},"8568":{"zip_code":"1518568","prefecture":"東京都","city":"渋谷区","town":"千駄ケ谷","prefecture_code":13},"8558":{"zip_code":"1518558","prefecture":"東京都","city":"渋谷区","town":"代々木","prefecture_code":13},"8535":{"zip_code":"1518535","prefecture":"東京都","city":"渋谷区","town":"笹塚","prefecture_code":13},"8537":{"zip_code":"1518537","prefecture":"東京都","city":"渋谷区","town":"千駄ケ谷","prefecture_code":13},"8591":{"zip_code":"1518591","prefecture":"東京都","city":"渋谷区","town":"千駄ヶ谷","prefecture_code":13},"8671":{"zip_code":"1518671","prefecture":"東京都","city":"渋谷区","town":"初台","prefecture_code":13},"8582":{"zip_code":"1518582","prefecture":"東京都","city":"渋谷区","town":"代々木","prefecture_code":13},"8586":{"zip_code":"1518586","prefecture":"東京都","city":"渋谷区","town":"千駄ケ谷","prefecture_code":13},"8525":{"zip_code":"1518525","prefecture":"東京都","city":"渋谷区","town":"初台","prefecture_code":13},"8569":{"zip_code":"1518569","prefecture":"東京都","city":"渋谷区","town":"笹塚","prefecture_code":13},"8572":{"zip_code":"1518572","prefecture":"東京都","city":"渋谷区","town":"代々木","prefecture_code":13},"8573":{"zip_code":"1518573","prefecture":"東京都","city":"渋谷区","town":"代々木","prefecture_code":13},"8528":{"zip_code":"1518528","prefecture":"東京都","city":"渋谷区","town":"代々木","prefecture_code":13},"8527":{"zip_code":"1518527","prefecture":"東京都","city":"渋谷区","town":"元代々木町","prefecture_code":13},"8529":{"zip_code":"1518529","prefecture":"東京都","city":"渋谷区","town":"代々木","prefecture_code":13},"8524":{"zip_code":"1518524","prefecture":"東京都","city":"渋谷区","town":"代々木","prefecture_code":13},"8676":{"zip_code":"1518676","prefecture":"東京都","city":"渋谷区","town":"幡ヶ谷","prefecture_code":13},"8523":{"zip_code":"1518523","prefecture":"東京都","city":"渋谷区","town":"代々木","prefecture_code":13},"8547":{"zip_code":"1518547","prefecture":"東京都","city":"渋谷区","town":"代々木","prefecture_code":13},"8522":{"zip_code":"1518522","prefecture":"東京都","city":"渋谷区","town":"代々木","prefecture_code":13},"8533":{"zip_code":"1518533","prefecture":"東京都","city":"渋谷区","town":"笹塚","prefecture_code":13},"8653":{"zip_code":"1518653","prefecture":"東京都","city":"渋谷区","town":"笹塚","prefecture_code":13},"8651":{"zip_code":"1518651","prefecture":"東京都","city":"渋谷区","town":"笹塚","prefecture_code":13},"8652":{"zip_code":"1518652","prefecture":"東京都","city":"渋谷区","town":"笹塚","prefecture_code":13},"8507":{"zip_code":"1518507","prefecture":"東京都","city":"渋谷区","town":"千駄ケ谷","prefecture_code":13},"8574":{"zip_code":"1518574","prefecture":"東京都","city":"渋谷区","town":"代々木","prefecture_code":13},"8539":{"zip_code":"1518539","prefecture":"東京都","city":"渋谷区","town":"代々木","prefecture_code":13},"8577":{"zip_code":"1518577","prefecture":"東京都","city":"渋谷区","town":"幡ケ谷","prefecture_code":13},"8405":{"zip_code":"1518405","prefecture":"東京都","city":"渋谷区","town":"代々木","prefecture_code":13},"8567":{"zip_code":"1518567","prefecture":"東京都","city":"渋谷区","town":"代々木","prefecture_code":13}}