{"0000":{"zip_code":"1520000","prefecture":"東京都","prefecture_kana":"トウキョウト","city":"目黒区","city_kana":"メグロク","town":"","town_kana":"","prefecture_code":13},"0033":{"zip_code":"1520033","prefecture":"東京都","prefecture_kana":"トウキョウト","city":"目黒区","city_kana":"メグロク","town":"大岡山","town_kana":"オオオカヤマ","prefecture_code":13},"0022":{"zip_code":"1520022","prefecture":"東京都","prefecture_kana":"トウキョウト","city":"目黒区","city_kana":"メグロク","town":"柿の木坂","town_kana":"カキノキザカ","prefecture_code":13},"0035":{"zip_code":"1520035","prefecture":"東京都","prefecture_kana":"トウキョウト","city":"目黒区","city_kana":"メグロク","town":"自由が丘","town_kana":"ジユウガオカ","prefecture_code":13},"0012":{"zip_code":"1520012","prefecture":"東京都","prefecture_kana":"トウキョウト","city":"目黒区","city_kana":"メグロク","town":"洗足","town_kana":"センゾク","prefecture_code":13},"0032":{"zip_code":"1520032","prefecture":"東京都","prefecture_kana":"トウキョウト","city":"目黒区","city_kana":"メグロク","town":"平町","town_kana":"タイラマチ","prefecture_code":13},"0004":{"zip_code":"1520004","prefecture":"東京都","prefecture_kana":"トウキョウト","city":"目黒区","city_kana":"メグロク","town":"鷹番","town_kana":"タカバン","prefecture_code":13},"0001":{"zip_code":"1520001","prefecture":"東京都","prefecture_kana":"トウキョウト","city":"目黒区","city_kana":"メグロク","town":"中央町","town_kana":"チュウオウチョウ","prefecture_code":13},"0031":{"zip_code":"1520031","prefecture":"東京都","prefecture_kana":"トウキョウト","city":"目黒区","city_kana":"メグロク","town":"中根","town_kana":"ナカネ","prefecture_code":13},"0011":{"zip_code":"1520011","prefecture":"東京都","prefecture_kana":"トウキョウト","city":"目黒区","city_kana":"メグロク","town":"原町","town_kana":"ハラマチ","prefecture_code":13},"0021":{"zip_code":"1520021","prefecture":"東京都","prefecture_kana":"トウキョウト","city":"目黒区","city_kana":"メグロク","town":"東が丘","town_kana":"ヒガシガオカ","prefecture_code":13},"0003":{"zip_code":"1520003","prefecture":"東京都","prefecture_kana":"トウキョウト","city":"目黒区","city_kana":"メグロク","town":"碑文谷","town_kana":"ヒモンヤ","prefecture_code":13},"0034":{"zip_code":"1520034","prefecture":"東京都","prefecture_kana":"トウキョウト","city":"目黒区","city_kana":"メグロク","town":"緑が丘","town_kana":"ミドリガオカ","prefecture_code":13},"0013":{"zip_code":"1520013","prefecture":"東京都","prefecture_kana":"トウキョウト","city":"目黒区","city_kana":"メグロク","town":"南","town_kana":"ミナミ","prefecture_code":13},"0002":{"zip_code":"1520002","prefecture":"東京都","prefecture_kana":"トウキョウト","city":"目黒区","city_kana":"メグロク","town":"目黒本町","town_kana":"メグロホンチョウ","prefecture_code":13},"0023":{"zip_code":"1520023","prefecture":"東京都","prefecture_kana":"トウキョウト","city":"目黒区","city_kana":"メグロク","town":"八雲","town_kana":"ヤクモ","prefecture_code":13},"8549":{"zip_code":"1528549","prefecture":"東京都","city":"目黒区","town":"碑文谷","prefecture_code":13},"8909":{"zip_code":"1528909","prefecture":"東京都","city":"目黒区","town":"碑文谷","prefecture_code":13},"8508":{"zip_code":"1528508","prefecture":"東京都","city":"目黒区","town":"中央町","prefecture_code":13},"8522":{"zip_code":"1528522","prefecture":"東京都","city":"目黒区","town":"目黒本町","prefecture_code":13},"8506":{"zip_code":"1528506","prefecture":"東京都","city":"目黒区","town":"中央町","prefecture_code":13},"8904":[{"zip_code":"1528904","prefecture":"東京都","city":"目黒区","town":"自由が丘","prefecture_code":13},{"zip_code":"1528904","prefecture":"東京都","city":"目黒区","town":"自由が丘","prefecture_code":13},{"zip_code":"1528904","prefecture":"東京都","city":"目黒区","town":"自由が丘","prefecture_code":13},{"zip_code":"1528904","prefecture":"東京都","city":"目黒区","town":"自由が丘","prefecture_code":13}],"8507":{"zip_code":"1528507","prefecture":"東京都","city":"目黒区","town":"中央町","prefecture_code":13},"8544":{"zip_code":"1528544","prefecture":"東京都","city":"目黒区","town":"碑文谷","prefecture_code":13},"8511":{"zip_code":"1528511","prefecture":"東京都","city":"目黒区","town":"鷹番","prefecture_code":13},"8601":{"zip_code":"1528601","prefecture":"東京都","city":"目黒区","town":"碑文谷","prefecture_code":13},"8578":{"zip_code":"1528578","prefecture":"東京都","city":"目黒区","town":"中根","prefecture_code":13},"8532":{"zip_code":"1528532","prefecture":"東京都","city":"目黒区","town":"原町","prefecture_code":13},"8533":{"zip_code":"1528533","prefecture":"東京都","city":"目黒区","town":"原町","prefecture_code":13},"8905":{"zip_code":"1528905","prefecture":"東京都","city":"目黒区","town":"自由が丘","prefecture_code":13},"8570":{"zip_code":"1528570","prefecture":"東京都","city":"目黒区","town":"中根","prefecture_code":13},"8503":{"zip_code":"1528503","prefecture":"東京都","city":"目黒区","town":"中央町","prefecture_code":13},"8525":{"zip_code":"1528525","prefecture":"東京都","city":"目黒区","town":"目黒本町","prefecture_code":13},"8541":{"zip_code":"1528541","prefecture":"東京都","city":"目黒区","town":"碑文谷","prefecture_code":13},"8561":{"zip_code":"1528561","prefecture":"東京都","city":"目黒区","town":"自由が丘","prefecture_code":13},"8558":{"zip_code":"1528558","prefecture":"東京都","city":"目黒区","town":"東が丘","prefecture_code":13},"8550":{"zip_code":"1528550","prefecture":"東京都","city":"目黒区","town":"大岡山","prefecture_code":13},"8552":{"zip_code":"1528552","prefecture":"東京都","city":"目黒区","town":"大岡山","prefecture_code":13},"8551":{"zip_code":"1528551","prefecture":"東京都","city":"目黒区","town":"大岡山","prefecture_code":13},"8527":{"zip_code":"1528527","prefecture":"東京都","city":"目黒区","town":"目黒本町","prefecture_code":13},"8535":{"zip_code":"1528535","prefecture":"東京都","city":"目黒区","town":"南","prefecture_code":13},"8521":{"zip_code":"1528521","prefecture":"東京都","city":"目黒区","town":"目黒本町","prefecture_code":13},"8902":{"zip_code":"1528902","prefecture":"東京都","city":"目黒区","town":"東が丘","prefecture_code":13},"8621":{"zip_code":"1528621","prefecture":"東京都","city":"目黒区","town":"東が丘","prefecture_code":13},"8907":{"zip_code":"1528907","prefecture":"東京都","city":"目黒区","town":"大岡山","prefecture_code":13},"8910":{"zip_code":"1528910","prefecture":"東京都","city":"目黒区","town":"中根","prefecture_code":13},"8531":{"zip_code":"1528531","prefecture":"東京都","city":"目黒区","town":"南","prefecture_code":13},"8520":{"zip_code":"1528520","prefecture":"東京都","city":"目黒区","town":"目黒本町","prefecture_code":13},"8510":{"zip_code":"1528510","prefecture":"東京都","city":"目黒区","town":"鷹番","prefecture_code":13},"8913":{"zip_code":"1528913","prefecture":"東京都","city":"目黒区","town":"目黒本町","prefecture_code":13}}