{"0031":{"zip_code":"1550031","prefecture":"東京都","prefecture_kana":"トウキョウト","city":"世田谷区","city_kana":"セタガヤク","town":"北沢","town_kana":"キタザワ","prefecture_code":13},"0032":{"zip_code":"1550032","prefecture":"東京都","prefecture_kana":"トウキョウト","city":"世田谷区","city_kana":"セタガヤク","town":"代沢","town_kana":"ダイザワ","prefecture_code":13},"0033":{"zip_code":"1550033","prefecture":"東京都","prefecture_kana":"トウキョウト","city":"世田谷区","city_kana":"セタガヤク","town":"代田","town_kana":"ダイタ","prefecture_code":13},"8626":{"zip_code":"1558626","prefecture":"東京都","city":"世田谷区","town":"代沢","prefecture_code":13},"8610":{"zip_code":"1558610","prefecture":"東京都","city":"世田谷区","town":"北沢","prefecture_code":13},"8668":{"zip_code":"1558668","prefecture":"東京都","city":"世田谷区","town":"代田","prefecture_code":13},"8633":{"zip_code":"1558633","prefecture":"東京都","city":"世田谷区","town":"代田","prefecture_code":13},"8663":{"zip_code":"1558663","prefecture":"東京都","city":"世田谷区","town":"北沢","prefecture_code":13},"8655":{"zip_code":"1558655","prefecture":"東京都","city":"世田谷区","town":"代沢","prefecture_code":13}}