{"0000":{"zip_code":"1600000","prefecture":"東京都","prefecture_kana":"トウキョウト","city":"新宿区","city_kana":"シンジュクク","town":"","town_kana":"","prefecture_code":13},"0005":{"zip_code":"1600005","prefecture":"東京都","prefecture_kana":"トウキョウト","city":"新宿区","city_kana":"シンジュクク","town":"愛住町","town_kana":"アイズミチョウ","prefecture_code":13},"0007":{"zip_code":"1600007","prefecture":"東京都","prefecture_kana":"トウキョウト","city":"新宿区","city_kana":"シンジュクク","town":"荒木町","town_kana":"アラキチョウ","prefecture_code":13},"0013":{"zip_code":"1600013","prefecture":"東京都","prefecture_kana":"トウキョウト","city":"新宿区","city_kana":"シンジュクク","town":"霞ケ丘町","town_kana":"カスミガオカマチ","prefecture_code":13},"0001":{"zip_code":"1600001","prefecture":"東京都","prefecture_kana":"トウキョウト","city":"新宿区","city_kana":"シンジュクク","town":"片町","town_kana":"カタマチ","prefecture_code":13},"0021":{"zip_code":"1600021","prefecture":"東京都","prefecture_kana":"トウキョウト","city":"新宿区","city_kana":"シンジュクク","town":"歌舞伎町","town_kana":"カブキチョウ","prefecture_code":13},"0017":{"zip_code":"1600017","prefecture":"東京都","prefecture_kana":"トウキョウト","city":"新宿区","city_kana":"シンジュクク","town":"左門町","town_kana":"サモンチョウ","prefecture_code":13},"0008":{"zip_code":"1600008","prefecture":"東京都","prefecture_kana":"トウキョウト","city":"新宿区","city_kana":"シンジュクク","town":"三栄町","town_kana":"サンエイチョウ","prefecture_code":13},"0016":{"zip_code":"1600016","prefecture":"東京都","prefecture_kana":"トウキョウト","city":"新宿区","city_kana":"シンジュクク","town":"信濃町","town_kana":"シナノマチ","prefecture_code":13},"0022":{"zip_code":"1600022","prefecture":"東京都","prefecture_kana":"トウキョウト","city":"新宿区","city_kana":"シンジュクク","town":"新宿","town_kana":"シンジュク","prefecture_code":13},"0018":{"zip_code":"1600018","prefecture":"東京都","prefecture_kana":"トウキョウト","city":"新宿区","city_kana":"シンジュクク","town":"須賀町","town_kana":"スガチョウ","prefecture_code":13},"0015":{"zip_code":"1600015","prefecture":"東京都","prefecture_kana":"トウキョウト","city":"新宿区","city_kana":"シンジュクク","town":"大京町","town_kana":"ダイキョウチョウ","prefecture_code":13},"0014":{"zip_code":"1600014","prefecture":"東京都","prefecture_kana":"トウキョウト","city":"新宿区","city_kana":"シンジュクク","town":"内藤町","town_kana":"ナイトウマチ","prefecture_code":13},"0023":{"zip_code":"1600023","prefecture":"東京都","prefecture_kana":"トウキョウト","city":"新宿区","city_kana":"シンジュクク","town":"西新宿","town_kana":"ニシシンジュク","prefecture_code":13},"6190":{"zip_code":"1606190","prefecture":"東京都","prefecture_kana":"トウキョウト","city":"新宿区","city_kana":"シンジュクク","town":"西新宿住友不動産新宿グランドタワー","town_kana":"ニシシンジュクスミトモフドウサンシンジュクグランドタワー","prefecture_code":13},"6101":{"zip_code":"1606101","prefecture":"東京都","prefecture_kana":"トウキョウト","city":"新宿区","city_kana":"シンジュクク","town":"西新宿住友不動産新宿グランドタワー　１階","town_kana":"ニシシンジュクスミトモフドウサンシンジュクグランドタワー1カイ","prefecture_code":13},"6102":{"zip_code":"1606102","prefecture":"東京都","prefecture_kana":"トウキョウト","city":"新宿区","city_kana":"シンジュクク","town":"西新宿住友不動産新宿グランドタワー　２階","town_kana":"ニシシンジュクスミトモフドウサンシンジュクグランドタワー2カイ","prefecture_code":13},"6103":{"zip_code":"1606103","prefecture":"東京都","prefecture_kana":"トウキョウト","city":"新宿区","city_kana":"シンジュクク","town":"西新宿住友不動産新宿グランドタワー　３階","town_kana":"ニシシンジュクスミトモフドウサンシンジュクグランドタワー3カイ","prefecture_code":13},"6104":{"zip_code":"1606104","prefecture":"東京都","prefecture_kana":"トウキョウト","city":"新宿区","city_kana":"シンジュクク","town":"西新宿住友不動産新宿グランドタワー　４階","town_kana":"ニシシンジュクスミトモフドウサンシンジュクグランドタワー4カイ","prefecture_code":13},"6105":{"zip_code":"1606105","prefecture":"東京都","prefecture_kana":"トウキョウト","city":"新宿区","city_kana":"シンジュクク","town":"西新宿住友不動産新宿グランドタワー　５階","town_kana":"ニシシンジュクスミトモフドウサンシンジュクグランドタワー5カイ","prefecture_code":13},"6106":{"zip_code":"1606106","prefecture":"東京都","prefecture_kana":"トウキョウト","city":"新宿区","city_kana":"シンジュクク","town":"西新宿住友不動産新宿グランドタワー　６階","town_kana":"ニシシンジュクスミトモフドウサンシンジュクグランドタワー6カイ","prefecture_code":13},"6107":{"zip_code":"1606107","prefecture":"東京都","prefecture_kana":"トウキョウト","city":"新宿区","city_kana":"シンジュクク","town":"西新宿住友不動産新宿グランドタワー　７階","town_kana":"ニシシンジュクスミトモフドウサンシンジュクグランドタワー7カイ","prefecture_code":13},"6108":{"zip_code":"1606108","prefecture":"東京都","prefecture_kana":"トウキョウト","city":"新宿区","city_kana":"シンジュクク","town":"西新宿住友不動産新宿グランドタワー　８階","town_kana":"ニシシンジュクスミトモフドウサンシンジュクグランドタワー8カイ","prefecture_code":13},"6109":{"zip_code":"1606109","prefecture":"東京都","prefecture_kana":"トウキョウト","city":"新宿区","city_kana":"シンジュクク","town":"西新宿住友不動産新宿グランドタワー　９階","town_kana":"ニシシンジュクスミトモフドウサンシンジュクグランドタワー9カイ","prefecture_code":13},"6110":{"zip_code":"1606110","prefecture":"東京都","prefecture_kana":"トウキョウト","city":"新宿区","city_kana":"シンジュクク","town":"西新宿住友不動産新宿グランドタワー　１０階","town_kana":"ニシシンジュクスミトモフドウサンシンジュクグランドタワー10カイ","prefecture_code":13},"6111":{"zip_code":"1606111","prefecture":"東京都","prefecture_kana":"トウキョウト","city":"新宿区","city_kana":"シンジュクク","town":"西新宿住友不動産新宿グランドタワー　１１階","town_kana":"ニシシンジュクスミトモフドウサンシンジュクグランドタワー11カイ","prefecture_code":13},"6112":{"zip_code":"1606112","prefecture":"東京都","prefecture_kana":"トウキョウト","city":"新宿区","city_kana":"シンジュクク","town":"西新宿住友不動産新宿グランドタワー　１２階","town_kana":"ニシシンジュクスミトモフドウサンシンジュクグランドタワー12カイ","prefecture_code":13},"6113":{"zip_code":"1606113","prefecture":"東京都","prefecture_kana":"トウキョウト","city":"新宿区","city_kana":"シンジュクク","town":"西新宿住友不動産新宿グランドタワー　１３階","town_kana":"ニシシンジュクスミトモフドウサンシンジュクグランドタワー13カイ","prefecture_code":13},"6114":{"zip_code":"1606114","prefecture":"東京都","prefecture_kana":"トウキョウト","city":"新宿区","city_kana":"シンジュクク","town":"西新宿住友不動産新宿グランドタワー　１４階","town_kana":"ニシシンジュクスミトモフドウサンシンジュクグランドタワー14カイ","prefecture_code":13},"6115":{"zip_code":"1606115","prefecture":"東京都","prefecture_kana":"トウキョウト","city":"新宿区","city_kana":"シンジュクク","town":"西新宿住友不動産新宿グランドタワー　１５階","town_kana":"ニシシンジュクスミトモフドウサンシンジュクグランドタワー15カイ","prefecture_code":13},"6116":{"zip_code":"1606116","prefecture":"東京都","prefecture_kana":"トウキョウト","city":"新宿区","city_kana":"シンジュクク","town":"西新宿住友不動産新宿グランドタワー　１６階","town_kana":"ニシシンジュクスミトモフドウサンシンジュクグランドタワー16カイ","prefecture_code":13},"6117":{"zip_code":"1606117","prefecture":"東京都","prefecture_kana":"トウキョウト","city":"新宿区","city_kana":"シンジュクク","town":"西新宿住友不動産新宿グランドタワー　１７階","town_kana":"ニシシンジュクスミトモフドウサンシンジュクグランドタワー17カイ","prefecture_code":13},"6118":{"zip_code":"1606118","prefecture":"東京都","prefecture_kana":"トウキョウト","city":"新宿区","city_kana":"シンジュクク","town":"西新宿住友不動産新宿グランドタワー　１８階","town_kana":"ニシシンジュクスミトモフドウサンシンジュクグランドタワー18カイ","prefecture_code":13},"6119":{"zip_code":"1606119","prefecture":"東京都","prefecture_kana":"トウキョウト","city":"新宿区","city_kana":"シンジュクク","town":"西新宿住友不動産新宿グランドタワー　１９階","town_kana":"ニシシンジュクスミトモフドウサンシンジュクグランドタワー19カイ","prefecture_code":13},"6120":{"zip_code":"1606120","prefecture":"東京都","prefecture_kana":"トウキョウト","city":"新宿区","city_kana":"シンジュクク","town":"西新宿住友不動産新宿グランドタワー　２０階","town_kana":"ニシシンジュクスミトモフドウサンシンジュクグランドタワー20カイ","prefecture_code":13},"6121":{"zip_code":"1606121","prefecture":"東京都","prefecture_kana":"トウキョウト","city":"新宿区","city_kana":"シンジュクク","town":"西新宿住友不動産新宿グランドタワー　２１階","town_kana":"ニシシンジュクスミトモフドウサンシンジュクグランドタワー21カイ","prefecture_code":13},"6122":{"zip_code":"1606122","prefecture":"東京都","prefecture_kana":"トウキョウト","city":"新宿区","city_kana":"シンジュクク","town":"西新宿住友不動産新宿グランドタワー　２２階","town_kana":"ニシシンジュクスミトモフドウサンシンジュクグランドタワー22カイ","prefecture_code":13},"6123":{"zip_code":"1606123","prefecture":"東京都","prefecture_kana":"トウキョウト","city":"新宿区","city_kana":"シンジュクク","town":"西新宿住友不動産新宿グランドタワー　２３階","town_kana":"ニシシンジュクスミトモフドウサンシンジュクグランドタワー23カイ","prefecture_code":13},"6124":{"zip_code":"1606124","prefecture":"東京都","prefecture_kana":"トウキョウト","city":"新宿区","city_kana":"シンジュクク","town":"西新宿住友不動産新宿グランドタワー　２４階","town_kana":"ニシシンジュクスミトモフドウサンシンジュクグランドタワー24カイ","prefecture_code":13},"6125":{"zip_code":"1606125","prefecture":"東京都","prefecture_kana":"トウキョウト","city":"新宿区","city_kana":"シンジュクク","town":"西新宿住友不動産新宿グランドタワー　２５階","town_kana":"ニシシンジュクスミトモフドウサンシンジュクグランドタワー25カイ","prefecture_code":13},"6126":{"zip_code":"1606126","prefecture":"東京都","prefecture_kana":"トウキョウト","city":"新宿区","city_kana":"シンジュクク","town":"西新宿住友不動産新宿グランドタワー　２６階","town_kana":"ニシシンジュクスミトモフドウサンシンジュクグランドタワー26カイ","prefecture_code":13},"6127":{"zip_code":"1606127","prefecture":"東京都","prefecture_kana":"トウキョウト","city":"新宿区","city_kana":"シンジュクク","town":"西新宿住友不動産新宿グランドタワー　２７階","town_kana":"ニシシンジュクスミトモフドウサンシンジュクグランドタワー27カイ","prefecture_code":13},"6128":{"zip_code":"1606128","prefecture":"東京都","prefecture_kana":"トウキョウト","city":"新宿区","city_kana":"シンジュクク","town":"西新宿住友不動産新宿グランドタワー　２８階","town_kana":"ニシシンジュクスミトモフドウサンシンジュクグランドタワー28カイ","prefecture_code":13},"6129":{"zip_code":"1606129","prefecture":"東京都","prefecture_kana":"トウキョウト","city":"新宿区","city_kana":"シンジュクク","town":"西新宿住友不動産新宿グランドタワー　２９階","town_kana":"ニシシンジュクスミトモフドウサンシンジュクグランドタワー29カイ","prefecture_code":13},"6130":{"zip_code":"1606130","prefecture":"東京都","prefecture_kana":"トウキョウト","city":"新宿区","city_kana":"シンジュクク","town":"西新宿住友不動産新宿グランドタワー　３０階","town_kana":"ニシシンジュクスミトモフドウサンシンジュクグランドタワー30カイ","prefecture_code":13},"6131":{"zip_code":"1606131","prefecture":"東京都","prefecture_kana":"トウキョウト","city":"新宿区","city_kana":"シンジュクク","town":"西新宿住友不動産新宿グランドタワー　３１階","town_kana":"ニシシンジュクスミトモフドウサンシンジュクグランドタワー31カイ","prefecture_code":13},"6132":{"zip_code":"1606132","prefecture":"東京都","prefecture_kana":"トウキョウト","city":"新宿区","city_kana":"シンジュクク","town":"西新宿住友不動産新宿グランドタワー　３２階","town_kana":"ニシシンジュクスミトモフドウサンシンジュクグランドタワー32カイ","prefecture_code":13},"6133":{"zip_code":"1606133","prefecture":"東京都","prefecture_kana":"トウキョウト","city":"新宿区","city_kana":"シンジュクク","town":"西新宿住友不動産新宿グランドタワー　３３階","town_kana":"ニシシンジュクスミトモフドウサンシンジュクグランドタワー33カイ","prefecture_code":13},"6134":{"zip_code":"1606134","prefecture":"東京都","prefecture_kana":"トウキョウト","city":"新宿区","city_kana":"シンジュクク","town":"西新宿住友不動産新宿グランドタワー　３４階","town_kana":"ニシシンジュクスミトモフドウサンシンジュクグランドタワー34カイ","prefecture_code":13},"6135":{"zip_code":"1606135","prefecture":"東京都","prefecture_kana":"トウキョウト","city":"新宿区","city_kana":"シンジュクク","town":"西新宿住友不動産新宿グランドタワー　３５階","town_kana":"ニシシンジュクスミトモフドウサンシンジュクグランドタワー35カイ","prefecture_code":13},"6136":{"zip_code":"1606136","prefecture":"東京都","prefecture_kana":"トウキョウト","city":"新宿区","city_kana":"シンジュクク","town":"西新宿住友不動産新宿グランドタワー　３６階","town_kana":"ニシシンジュクスミトモフドウサンシンジュクグランドタワー36カイ","prefecture_code":13},"6137":{"zip_code":"1606137","prefecture":"東京都","prefecture_kana":"トウキョウト","city":"新宿区","city_kana":"シンジュクク","town":"西新宿住友不動産新宿グランドタワー　３７階","town_kana":"ニシシンジュクスミトモフドウサンシンジュクグランドタワー37カイ","prefecture_code":13},"6138":{"zip_code":"1606138","prefecture":"東京都","prefecture_kana":"トウキョウト","city":"新宿区","city_kana":"シンジュクク","town":"西新宿住友不動産新宿グランドタワー　３８階","town_kana":"ニシシンジュクスミトモフドウサンシンジュクグランドタワー38カイ","prefecture_code":13},"6139":{"zip_code":"1606139","prefecture":"東京都","prefecture_kana":"トウキョウト","city":"新宿区","city_kana":"シンジュクク","town":"西新宿住友不動産新宿グランドタワー　３９階","town_kana":"ニシシンジュクスミトモフドウサンシンジュクグランドタワー39カイ","prefecture_code":13},"0006":{"zip_code":"1600006","prefecture":"東京都","prefecture_kana":"トウキョウト","city":"新宿区","city_kana":"シンジュクク","town":"舟町","town_kana":"フナマチ","prefecture_code":13},"0003":{"zip_code":"1600003","prefecture":"東京都","prefecture_kana":"トウキョウト","city":"新宿区","city_kana":"シンジュクク","town":"本塩町","town_kana":"ホンシオチョウ","prefecture_code":13},"0012":{"zip_code":"1600012","prefecture":"東京都","prefecture_kana":"トウキョウト","city":"新宿区","city_kana":"シンジュクク","town":"南元町","town_kana":"ミナミモトマチ","prefecture_code":13},"0004":{"zip_code":"1600004","prefecture":"東京都","prefecture_kana":"トウキョウト","city":"新宿区","city_kana":"シンジュクク","town":"四谷","town_kana":"ヨツヤ","prefecture_code":13},"0002":{"zip_code":"1600002","prefecture":"東京都","prefecture_kana":"トウキョウト","city":"新宿区","city_kana":"シンジュクク","town":"四谷坂町","town_kana":"ヨツヤサカマチ","prefecture_code":13},"0011":{"zip_code":"1600011","prefecture":"東京都","prefecture_kana":"トウキョウト","city":"新宿区","city_kana":"シンジュクク","town":"若葉","town_kana":"ワカバ","prefecture_code":13},"8444":{"zip_code":"1608444","prefecture":"東京都","city":"新宿区","town":"新宿","prefecture_code":13},"8352":{"zip_code":"1608352","prefecture":"東京都","city":"新宿区","town":"西新宿","prefecture_code":13},"8680":{"zip_code":"1608680","prefecture":"東京都","city":"新宿区","town":"信濃町","prefecture_code":13},"8535":{"zip_code":"1608535","prefecture":"東京都","city":"新宿区","town":"信濃町","prefecture_code":13},"8801":[{"zip_code":"1608801","prefecture":"東京都","city":"新宿区","town":"新宿","prefecture_code":13},{"zip_code":"1608801","prefecture":"東京都","city":"新宿区","town":"新宿","prefecture_code":13},{"zip_code":"1608801","prefecture":"東京都","city":"新宿区","town":"新宿","prefecture_code":13}],"8423":{"zip_code":"1608423","prefecture":"東京都","city":"新宿区","town":"新宿","prefecture_code":13},"8511":{"zip_code":"1608511","prefecture":"東京都","city":"新宿区","town":"四谷","prefecture_code":13},"8309":{"zip_code":"1608309","prefecture":"東京都","city":"新宿区","town":"西新宿","prefecture_code":13},"8571":{"zip_code":"1608571","prefecture":"東京都","city":"新宿区","town":"愛住町","prefecture_code":13},"8378":{"zip_code":"1608378","prefecture":"東京都","city":"新宿区","town":"西新宿","prefecture_code":13},"8429":{"zip_code":"1608429","prefecture":"東京都","city":"新宿区","town":"新宿","prefecture_code":13},"8408":{"zip_code":"1608408","prefecture":"東京都","city":"新宿区","town":"新宿","prefecture_code":13},"8520":{"zip_code":"1608520","prefecture":"東京都","city":"新宿区","town":"南元町","prefecture_code":13},"8321":{"zip_code":"1608321","prefecture":"東京都","city":"新宿区","town":"西新宿","prefecture_code":13},"8330":{"zip_code":"1608330","prefecture":"東京都","city":"新宿区","town":"西新宿","prefecture_code":13},"8549":{"zip_code":"1608549","prefecture":"東京都","city":"新宿区","town":"四谷坂町","prefecture_code":13},"8433":{"zip_code":"1608433","prefecture":"東京都","city":"新宿区","town":"新宿","prefecture_code":13},"8547":{"zip_code":"1608547","prefecture":"東京都","city":"新宿区","town":"本塩町","prefecture_code":13},"8461":{"zip_code":"1608461","prefecture":"東京都","city":"新宿区","town":"新宿","prefecture_code":13},"8463":{"zip_code":"1608463","prefecture":"東京都","city":"新宿区","town":"新宿","prefecture_code":13},"8501":{"zip_code":"1608501","prefecture":"東京都","city":"新宿区","town":"左門町","prefecture_code":13},"8375":{"zip_code":"1608375","prefecture":"東京都","city":"新宿区","town":"西新宿","prefecture_code":13},"8301":{"zip_code":"1608301","prefecture":"東京都","city":"新宿区","town":"西新宿","prefecture_code":13},"8430":{"zip_code":"1608430","prefecture":"東京都","city":"新宿区","town":"新宿","prefecture_code":13},"8447":{"zip_code":"1608447","prefecture":"東京都","city":"新宿区","town":"新宿","prefecture_code":13},"8341":{"zip_code":"1608341","prefecture":"東京都","city":"新宿区","town":"新宿","prefecture_code":13},"8450":{"zip_code":"1608450","prefecture":"東京都","city":"新宿区","town":"四谷","prefecture_code":13},"8319":{"zip_code":"1608319","prefecture":"東京都","city":"新宿区","town":"西新宿","prefecture_code":13},"8358":{"zip_code":"1608358","prefecture":"東京都","city":"新宿区","town":"西新宿","prefecture_code":13},"8565":{"zip_code":"1608565","prefecture":"東京都","city":"新宿区","town":"大京町","prefecture_code":13},"8420":{"zip_code":"1608420","prefecture":"東京都","city":"新宿区","town":"新宿","prefecture_code":13},"8011":{"zip_code":"1608011","prefecture":"東京都","city":"新宿区","town":"新宿","prefecture_code":13},"8334":{"zip_code":"1608334","prefecture":"東京都","city":"新宿区","town":"西新宿","prefecture_code":13},"8431":{"zip_code":"1608431","prefecture":"東京都","city":"新宿区","town":"新宿","prefecture_code":13},"8580":{"zip_code":"1608580","prefecture":"東京都","city":"新宿区","town":"内藤町","prefecture_code":13},"8403":{"zip_code":"1608403","prefecture":"東京都","city":"新宿区","town":"四谷","prefecture_code":13},"8402":{"zip_code":"1608402","prefecture":"東京都","city":"新宿区","town":"新宿","prefecture_code":13},"8422":{"zip_code":"1608422","prefecture":"東京都","city":"新宿区","town":"新宿","prefecture_code":13},"8308":{"zip_code":"1608308","prefecture":"東京都","city":"新宿区","town":"西新宿","prefecture_code":13},"8582":{"zip_code":"1608582","prefecture":"東京都","city":"新宿区","town":"信濃町","prefecture_code":13},"8374":{"zip_code":"1608374","prefecture":"東京都","city":"新宿区","town":"西新宿","prefecture_code":13},"8521":{"zip_code":"1608521","prefecture":"東京都","city":"新宿区","town":"南元町","prefecture_code":13},"8543":{"zip_code":"1608543","prefecture":"東京都","city":"新宿区","town":"四谷坂町","prefecture_code":13},"8407":{"zip_code":"1608407","prefecture":"東京都","city":"新宿区","town":"新宿","prefecture_code":13},"8488":{"zip_code":"1608488","prefecture":"東京都","city":"新宿区","town":"歌舞伎町","prefecture_code":13},"8588":{"zip_code":"1608588","prefecture":"東京都","city":"新宿区","town":"信濃町","prefecture_code":13},"8810":{"zip_code":"1608810","prefecture":"東京都","city":"新宿区","town":"新宿","prefecture_code":13},"8519":{"zip_code":"1608519","prefecture":"東京都","city":"新宿区","town":"南元町","prefecture_code":13},"8529":{"zip_code":"1608529","prefecture":"東京都","city":"新宿区","town":"荒木町","prefecture_code":13},"8389":{"zip_code":"1608389","prefecture":"東京都","city":"新宿区","town":"四谷","prefecture_code":13},"8581":[{"zip_code":"1608581","prefecture":"東京都","city":"新宿区","town":"内藤町","prefecture_code":13},{"zip_code":"1608581","prefecture":"東京都","city":"新宿区","town":"内藤町","prefecture_code":13},{"zip_code":"1608581","prefecture":"東京都","city":"新宿区","town":"内藤町","prefecture_code":13},{"zip_code":"1608581","prefecture":"東京都","city":"新宿区","town":"内藤町","prefecture_code":13}],"8484":{"zip_code":"1608484","prefecture":"東京都","city":"新宿区","town":"歌舞伎町","prefecture_code":13},"8485":{"zip_code":"1608485","prefecture":"東京都","city":"新宿区","town":"歌舞伎町","prefecture_code":13},"8472":{"zip_code":"1608472","prefecture":"東京都","city":"新宿区","town":"歌舞伎町","prefecture_code":13},"8489":{"zip_code":"1608489","prefecture":"東京都","city":"新宿区","town":"歌舞伎町","prefecture_code":13},"8487":{"zip_code":"1608487","prefecture":"東京都","city":"新宿区","town":"歌舞伎町","prefecture_code":13},"8336":{"zip_code":"1608336","prefecture":"東京都","city":"新宿区","town":"西新宿","prefecture_code":13},"8510":{"zip_code":"1608510","prefecture":"東京都","city":"新宿区","town":"四谷","prefecture_code":13},"8522":{"zip_code":"1608522","prefecture":"東京都","city":"新宿区","town":"南元町","prefecture_code":13},"8512":{"zip_code":"1608512","prefecture":"東京都","city":"新宿区","town":"四谷","prefecture_code":13},"8361":{"zip_code":"1608361","prefecture":"東京都","city":"新宿区","town":"西新宿","prefecture_code":13},"8373":{"zip_code":"1608373","prefecture":"東京都","city":"新宿区","town":"西新宿","prefecture_code":13},"8583":{"zip_code":"1608583","prefecture":"東京都","city":"新宿区","town":"信濃町","prefecture_code":13},"8338":{"zip_code":"1608338","prefecture":"東京都","city":"新宿区","town":"西新宿","prefecture_code":13},"8401":{"zip_code":"1608401","prefecture":"東京都","city":"新宿区","town":"新宿","prefecture_code":13},"8327":{"zip_code":"1608327","prefecture":"東京都","city":"新宿区","town":"西新宿","prefecture_code":13},"8586":{"zip_code":"1608586","prefecture":"東京都","city":"新宿区","town":"信濃町","prefecture_code":13},"8304":{"zip_code":"1608304","prefecture":"東京都","city":"新宿区","town":"西新宿","prefecture_code":13},"8587":{"zip_code":"1608587","prefecture":"東京都","city":"新宿区","town":"内藤町","prefecture_code":13},"8589":{"zip_code":"1608589","prefecture":"東京都","city":"新宿区","town":"信濃町","prefecture_code":13},"8524":{"zip_code":"1608524","prefecture":"東京都","city":"新宿区","town":"新宿","prefecture_code":13},"8411":{"zip_code":"1608411","prefecture":"東京都","city":"新宿区","town":"新宿","prefecture_code":13},"8366":{"zip_code":"1608366","prefecture":"東京都","city":"新宿区","town":"西新宿","prefecture_code":13},"8410":{"zip_code":"1608410","prefecture":"東京都","city":"新宿区","town":"新宿","prefecture_code":13},"8415":{"zip_code":"1608415","prefecture":"東京都","city":"新宿区","town":"新宿","prefecture_code":13},"8351":{"zip_code":"1608351","prefecture":"東京都","city":"新宿区","town":"新宿","prefecture_code":13},"8910":{"zip_code":"1608910","prefecture":"東京都","city":"新宿区","town":"新宿","prefecture_code":13},"8368":{"zip_code":"1608368","prefecture":"東京都","city":"新宿区","town":"西新宿","prefecture_code":13},"8316":{"zip_code":"1608316","prefecture":"東京都","city":"新宿区","town":"西新宿","prefecture_code":13},"8347":{"zip_code":"1608347","prefecture":"東京都","city":"新宿区","town":"西新宿","prefecture_code":13},"8466":{"zip_code":"1608466","prefecture":"東京都","city":"新宿区","town":"歌舞伎町","prefecture_code":13},"8577":{"zip_code":"1608577","prefecture":"東京都","city":"新宿区","town":"西新宿","prefecture_code":13},"8331":{"zip_code":"1608331","prefecture":"東京都","city":"新宿区","town":"西新宿","prefecture_code":13},"8515":{"zip_code":"1608515","prefecture":"東京都","city":"新宿区","town":"四谷","prefecture_code":13},"8311":{"zip_code":"1608311","prefecture":"東京都","city":"新宿区","town":"西新宿","prefecture_code":13},"8575":{"zip_code":"1608575","prefecture":"東京都","city":"新宿区","town":"本塩町","prefecture_code":13},"8530":{"zip_code":"1608530","prefecture":"東京都","city":"新宿区","town":"三栄町","prefecture_code":13},"8306":{"zip_code":"1608306","prefecture":"東京都","city":"新宿区","town":"西新宿","prefecture_code":13},"8001":{"zip_code":"1608001","prefecture":"東京都","city":"新宿区","town":"西新宿","prefecture_code":13},"8070":{"zip_code":"1608070","prefecture":"東京都","city":"新宿区","town":"信濃町","prefecture_code":13}}