{"0034":{"zip_code":"1610034","prefecture":"東京都","prefecture_kana":"トウキョウト","city":"新宿区","city_kana":"シンジュクク","town":"上落合","town_kana":"カミオチアイ","prefecture_code":13},"0033":{"zip_code":"1610033","prefecture":"東京都","prefecture_kana":"トウキョウト","city":"新宿区","city_kana":"シンジュクク","town":"下落合","town_kana":"シモオチアイ","prefecture_code":13},"0035":{"zip_code":"1610035","prefecture":"東京都","prefecture_kana":"トウキョウト","city":"新宿区","city_kana":"シンジュクク","town":"中井","town_kana":"ナカイ","prefecture_code":13},"0032":{"zip_code":"1610032","prefecture":"東京都","prefecture_kana":"トウキョウト","city":"新宿区","city_kana":"シンジュクク","town":"中落合","town_kana":"ナカオチアイ","prefecture_code":13},"0031":{"zip_code":"1610031","prefecture":"東京都","prefecture_kana":"トウキョウト","city":"新宿区","city_kana":"シンジュクク","town":"西落合","town_kana":"ニシオチアイ","prefecture_code":13},"8546":{"zip_code":"1618546","prefecture":"東京都","city":"新宿区","town":"下落合","prefecture_code":13},"8558":{"zip_code":"1618558","prefecture":"東京都","city":"新宿区","town":"下落合","prefecture_code":13},"8531":{"zip_code":"1618531","prefecture":"東京都","city":"新宿区","town":"中落合","prefecture_code":13},"8540":{"zip_code":"1618540","prefecture":"東京都","city":"新宿区","town":"下落合","prefecture_code":13},"8508":{"zip_code":"1618508","prefecture":"東京都","city":"新宿区","town":"上落合","prefecture_code":13},"8552":{"zip_code":"1618552","prefecture":"東京都","city":"新宿区","town":"下落合","prefecture_code":13},"8553":{"zip_code":"1618553","prefecture":"東京都","city":"新宿区","town":"下落合","prefecture_code":13},"8557":{"zip_code":"1618557","prefecture":"東京都","city":"新宿区","town":"下落合","prefecture_code":13},"8556":{"zip_code":"1618556","prefecture":"東京都","city":"新宿区","town":"下落合","prefecture_code":13},"8545":{"zip_code":"1618545","prefecture":"東京都","city":"新宿区","town":"下落合","prefecture_code":13},"8565":{"zip_code":"1618565","prefecture":"東京都","city":"新宿区","town":"西落合","prefecture_code":13},"8541":{"zip_code":"1618541","prefecture":"東京都","city":"新宿区","town":"下落合","prefecture_code":13},"8511":{"zip_code":"1618511","prefecture":"東京都","city":"新宿区","town":"上落合","prefecture_code":13},"8521":{"zip_code":"1618521","prefecture":"東京都","city":"新宿区","town":"中落合","prefecture_code":13},"8528":{"zip_code":"1618528","prefecture":"東京都","city":"新宿区","town":"中落合","prefecture_code":13},"8547":{"zip_code":"1618547","prefecture":"東京都","city":"新宿区","town":"下落合","prefecture_code":13},"8567":{"zip_code":"1618567","prefecture":"東京都","city":"新宿区","town":"西落合","prefecture_code":13},"8560":{"zip_code":"1618560","prefecture":"東京都","city":"新宿区","town":"西落合","prefecture_code":13},"8539":{"zip_code":"1618539","prefecture":"東京都","city":"新宿区","town":"中落合","prefecture_code":13},"8522":{"zip_code":"1618522","prefecture":"東京都","city":"新宿区","town":"中落合","prefecture_code":13},"8575":{"zip_code":"1618575","prefecture":"東京都","city":"新宿区","town":"西落合","prefecture_code":13},"8520":{"zip_code":"1618520","prefecture":"東京都","city":"新宿区","town":"中落合","prefecture_code":13},"8710":{"zip_code":"1618710","prefecture":"東京都","city":"文京区","town":"音羽","prefecture_code":13}}