{"0790":{"zip_code":"1630790","prefecture":"東京都","prefecture_kana":"トウキョウト","city":"新宿区","city_kana":"シンジュクク","town":"西新宿小田急第一生命ビル","town_kana":"ニシシンジュクオダキュウダイイチセイメイビル","prefecture_code":13},"0701":{"zip_code":"1630701","prefecture":"東京都","prefecture_kana":"トウキョウト","city":"新宿区","city_kana":"シンジュクク","town":"西新宿小田急第一生命ビル　１階","town_kana":"ニシシンジュクオダキュウダイイチセイメイビル1カイ","prefecture_code":13},"0702":{"zip_code":"1630702","prefecture":"東京都","prefecture_kana":"トウキョウト","city":"新宿区","city_kana":"シンジュクク","town":"西新宿小田急第一生命ビル　２階","town_kana":"ニシシンジュクオダキュウダイイチセイメイビル2カイ","prefecture_code":13},"0703":{"zip_code":"1630703","prefecture":"東京都","prefecture_kana":"トウキョウト","city":"新宿区","city_kana":"シンジュクク","town":"西新宿小田急第一生命ビル　３階","town_kana":"ニシシンジュクオダキュウダイイチセイメイビル3カイ","prefecture_code":13},"0704":{"zip_code":"1630704","prefecture":"東京都","prefecture_kana":"トウキョウト","city":"新宿区","city_kana":"シンジュクク","town":"西新宿小田急第一生命ビル　４階","town_kana":"ニシシンジュクオダキュウダイイチセイメイビル4カイ","prefecture_code":13},"0705":{"zip_code":"1630705","prefecture":"東京都","prefecture_kana":"トウキョウト","city":"新宿区","city_kana":"シンジュクク","town":"西新宿小田急第一生命ビル　５階","town_kana":"ニシシンジュクオダキュウダイイチセイメイビル5カイ","prefecture_code":13},"0706":{"zip_code":"1630706","prefecture":"東京都","prefecture_kana":"トウキョウト","city":"新宿区","city_kana":"シンジュクク","town":"西新宿小田急第一生命ビル　６階","town_kana":"ニシシンジュクオダキュウダイイチセイメイビル6カイ","prefecture_code":13},"0707":{"zip_code":"1630707","prefecture":"東京都","prefecture_kana":"トウキョウト","city":"新宿区","city_kana":"シンジュクク","town":"西新宿小田急第一生命ビル　７階","town_kana":"ニシシンジュクオダキュウダイイチセイメイビル7カイ","prefecture_code":13},"0708":{"zip_code":"1630708","prefecture":"東京都","prefecture_kana":"トウキョウト","city":"新宿区","city_kana":"シンジュクク","town":"西新宿小田急第一生命ビル　８階","town_kana":"ニシシンジュクオダキュウダイイチセイメイビル8カイ","prefecture_code":13},"0709":{"zip_code":"1630709","prefecture":"東京都","prefecture_kana":"トウキョウト","city":"新宿区","city_kana":"シンジュクク","town":"西新宿小田急第一生命ビル　９階","town_kana":"ニシシンジュクオダキュウダイイチセイメイビル9カイ","prefecture_code":13},"0710":{"zip_code":"1630710","prefecture":"東京都","prefecture_kana":"トウキョウト","city":"新宿区","city_kana":"シンジュクク","town":"西新宿小田急第一生命ビル　１０階","town_kana":"ニシシンジュクオダキュウダイイチセイメイビル10カイ","prefecture_code":13},"0711":{"zip_code":"1630711","prefecture":"東京都","prefecture_kana":"トウキョウト","city":"新宿区","city_kana":"シンジュクク","town":"西新宿小田急第一生命ビル　１１階","town_kana":"ニシシンジュクオダキュウダイイチセイメイビル11カイ","prefecture_code":13},"0712":{"zip_code":"1630712","prefecture":"東京都","prefecture_kana":"トウキョウト","city":"新宿区","city_kana":"シンジュクク","town":"西新宿小田急第一生命ビル　１２階","town_kana":"ニシシンジュクオダキュウダイイチセイメイビル12カイ","prefecture_code":13},"0713":{"zip_code":"1630713","prefecture":"東京都","prefecture_kana":"トウキョウト","city":"新宿区","city_kana":"シンジュクク","town":"西新宿小田急第一生命ビル　１３階","town_kana":"ニシシンジュクオダキュウダイイチセイメイビル13カイ","prefecture_code":13},"0714":{"zip_code":"1630714","prefecture":"東京都","prefecture_kana":"トウキョウト","city":"新宿区","city_kana":"シンジュクク","town":"西新宿小田急第一生命ビル　１４階","town_kana":"ニシシンジュクオダキュウダイイチセイメイビル14カイ","prefecture_code":13},"0715":{"zip_code":"1630715","prefecture":"東京都","prefecture_kana":"トウキョウト","city":"新宿区","city_kana":"シンジュクク","town":"西新宿小田急第一生命ビル　１５階","town_kana":"ニシシンジュクオダキュウダイイチセイメイビル15カイ","prefecture_code":13},"0716":{"zip_code":"1630716","prefecture":"東京都","prefecture_kana":"トウキョウト","city":"新宿区","city_kana":"シンジュクク","town":"西新宿小田急第一生命ビル　１６階","town_kana":"ニシシンジュクオダキュウダイイチセイメイビル16カイ","prefecture_code":13},"0717":{"zip_code":"1630717","prefecture":"東京都","prefecture_kana":"トウキョウト","city":"新宿区","city_kana":"シンジュクク","town":"西新宿小田急第一生命ビル　１７階","town_kana":"ニシシンジュクオダキュウダイイチセイメイビル17カイ","prefecture_code":13},"0718":{"zip_code":"1630718","prefecture":"東京都","prefecture_kana":"トウキョウト","city":"新宿区","city_kana":"シンジュクク","town":"西新宿小田急第一生命ビル　１８階","town_kana":"ニシシンジュクオダキュウダイイチセイメイビル18カイ","prefecture_code":13},"0719":{"zip_code":"1630719","prefecture":"東京都","prefecture_kana":"トウキョウト","city":"新宿区","city_kana":"シンジュクク","town":"西新宿小田急第一生命ビル　１９階","town_kana":"ニシシンジュクオダキュウダイイチセイメイビル19カイ","prefecture_code":13},"0720":{"zip_code":"1630720","prefecture":"東京都","prefecture_kana":"トウキョウト","city":"新宿区","city_kana":"シンジュクク","town":"西新宿小田急第一生命ビル　２０階","town_kana":"ニシシンジュクオダキュウダイイチセイメイビル20カイ","prefecture_code":13},"0721":{"zip_code":"1630721","prefecture":"東京都","prefecture_kana":"トウキョウト","city":"新宿区","city_kana":"シンジュクク","town":"西新宿小田急第一生命ビル　２１階","town_kana":"ニシシンジュクオダキュウダイイチセイメイビル21カイ","prefecture_code":13},"0722":{"zip_code":"1630722","prefecture":"東京都","prefecture_kana":"トウキョウト","city":"新宿区","city_kana":"シンジュクク","town":"西新宿小田急第一生命ビル　２２階","town_kana":"ニシシンジュクオダキュウダイイチセイメイビル22カイ","prefecture_code":13},"0723":{"zip_code":"1630723","prefecture":"東京都","prefecture_kana":"トウキョウト","city":"新宿区","city_kana":"シンジュクク","town":"西新宿小田急第一生命ビル　２３階","town_kana":"ニシシンジュクオダキュウダイイチセイメイビル23カイ","prefecture_code":13},"0724":{"zip_code":"1630724","prefecture":"東京都","prefecture_kana":"トウキョウト","city":"新宿区","city_kana":"シンジュクク","town":"西新宿小田急第一生命ビル　２４階","town_kana":"ニシシンジュクオダキュウダイイチセイメイビル24カイ","prefecture_code":13},"0725":{"zip_code":"1630725","prefecture":"東京都","prefecture_kana":"トウキョウト","city":"新宿区","city_kana":"シンジュクク","town":"西新宿小田急第一生命ビル　２５階","town_kana":"ニシシンジュクオダキュウダイイチセイメイビル25カイ","prefecture_code":13},"0726":{"zip_code":"1630726","prefecture":"東京都","prefecture_kana":"トウキョウト","city":"新宿区","city_kana":"シンジュクク","town":"西新宿小田急第一生命ビル　２６階","town_kana":"ニシシンジュクオダキュウダイイチセイメイビル26カイ","prefecture_code":13},"1390":{"zip_code":"1631390","prefecture":"東京都","prefecture_kana":"トウキョウト","city":"新宿区","city_kana":"シンジュクク","town":"西新宿新宿アイランドタワー","town_kana":"ニシシンジュクシンジュクアイランドタワー","prefecture_code":13},"1301":{"zip_code":"1631301","prefecture":"東京都","prefecture_kana":"トウキョウト","city":"新宿区","city_kana":"シンジュクク","town":"西新宿新宿アイランドタワー　１階","town_kana":"ニシシンジュクシンジュクアイランドタワー1カイ","prefecture_code":13},"1302":{"zip_code":"1631302","prefecture":"東京都","prefecture_kana":"トウキョウト","city":"新宿区","city_kana":"シンジュクク","town":"西新宿新宿アイランドタワー　２階","town_kana":"ニシシンジュクシンジュクアイランドタワー2カイ","prefecture_code":13},"1303":{"zip_code":"1631303","prefecture":"東京都","prefecture_kana":"トウキョウト","city":"新宿区","city_kana":"シンジュクク","town":"西新宿新宿アイランドタワー　３階","town_kana":"ニシシンジュクシンジュクアイランドタワー3カイ","prefecture_code":13},"1304":{"zip_code":"1631304","prefecture":"東京都","prefecture_kana":"トウキョウト","city":"新宿区","city_kana":"シンジュクク","town":"西新宿新宿アイランドタワー　４階","town_kana":"ニシシンジュクシンジュクアイランドタワー4カイ","prefecture_code":13},"1305":{"zip_code":"1631305","prefecture":"東京都","prefecture_kana":"トウキョウト","city":"新宿区","city_kana":"シンジュクク","town":"西新宿新宿アイランドタワー　５階","town_kana":"ニシシンジュクシンジュクアイランドタワー5カイ","prefecture_code":13},"1306":{"zip_code":"1631306","prefecture":"東京都","prefecture_kana":"トウキョウト","city":"新宿区","city_kana":"シンジュクク","town":"西新宿新宿アイランドタワー　６階","town_kana":"ニシシンジュクシンジュクアイランドタワー6カイ","prefecture_code":13},"1307":{"zip_code":"1631307","prefecture":"東京都","prefecture_kana":"トウキョウト","city":"新宿区","city_kana":"シンジュクク","town":"西新宿新宿アイランドタワー　７階","town_kana":"ニシシンジュクシンジュクアイランドタワー7カイ","prefecture_code":13},"1308":{"zip_code":"1631308","prefecture":"東京都","prefecture_kana":"トウキョウト","city":"新宿区","city_kana":"シンジュクク","town":"西新宿新宿アイランドタワー　８階","town_kana":"ニシシンジュクシンジュクアイランドタワー8カイ","prefecture_code":13},"1309":{"zip_code":"1631309","prefecture":"東京都","prefecture_kana":"トウキョウト","city":"新宿区","city_kana":"シンジュクク","town":"西新宿新宿アイランドタワー　９階","town_kana":"ニシシンジュクシンジュクアイランドタワー9カイ","prefecture_code":13},"1310":{"zip_code":"1631310","prefecture":"東京都","prefecture_kana":"トウキョウト","city":"新宿区","city_kana":"シンジュクク","town":"西新宿新宿アイランドタワー　１０階","town_kana":"ニシシンジュクシンジュクアイランドタワー10カイ","prefecture_code":13},"1311":{"zip_code":"1631311","prefecture":"東京都","prefecture_kana":"トウキョウト","city":"新宿区","city_kana":"シンジュクク","town":"西新宿新宿アイランドタワー　１１階","town_kana":"ニシシンジュクシンジュクアイランドタワー11カイ","prefecture_code":13},"1312":{"zip_code":"1631312","prefecture":"東京都","prefecture_kana":"トウキョウト","city":"新宿区","city_kana":"シンジュクク","town":"西新宿新宿アイランドタワー　１２階","town_kana":"ニシシンジュクシンジュクアイランドタワー12カイ","prefecture_code":13},"1313":{"zip_code":"1631313","prefecture":"東京都","prefecture_kana":"トウキョウト","city":"新宿区","city_kana":"シンジュクク","town":"西新宿新宿アイランドタワー　１３階","town_kana":"ニシシンジュクシンジュクアイランドタワー13カイ","prefecture_code":13},"1314":{"zip_code":"1631314","prefecture":"東京都","prefecture_kana":"トウキョウト","city":"新宿区","city_kana":"シンジュクク","town":"西新宿新宿アイランドタワー　１４階","town_kana":"ニシシンジュクシンジュクアイランドタワー14カイ","prefecture_code":13},"1315":{"zip_code":"1631315","prefecture":"東京都","prefecture_kana":"トウキョウト","city":"新宿区","city_kana":"シンジュクク","town":"西新宿新宿アイランドタワー　１５階","town_kana":"ニシシンジュクシンジュクアイランドタワー15カイ","prefecture_code":13},"1316":{"zip_code":"1631316","prefecture":"東京都","prefecture_kana":"トウキョウト","city":"新宿区","city_kana":"シンジュクク","town":"西新宿新宿アイランドタワー　１６階","town_kana":"ニシシンジュクシンジュクアイランドタワー16カイ","prefecture_code":13},"1317":{"zip_code":"1631317","prefecture":"東京都","prefecture_kana":"トウキョウト","city":"新宿区","city_kana":"シンジュクク","town":"西新宿新宿アイランドタワー　１７階","town_kana":"ニシシンジュクシンジュクアイランドタワー17カイ","prefecture_code":13},"1318":{"zip_code":"1631318","prefecture":"東京都","prefecture_kana":"トウキョウト","city":"新宿区","city_kana":"シンジュクク","town":"西新宿新宿アイランドタワー　１８階","town_kana":"ニシシンジュクシンジュクアイランドタワー18カイ","prefecture_code":13},"1319":{"zip_code":"1631319","prefecture":"東京都","prefecture_kana":"トウキョウト","city":"新宿区","city_kana":"シンジュクク","town":"西新宿新宿アイランドタワー　１９階","town_kana":"ニシシンジュクシンジュクアイランドタワー19カイ","prefecture_code":13},"1320":{"zip_code":"1631320","prefecture":"東京都","prefecture_kana":"トウキョウト","city":"新宿区","city_kana":"シンジュクク","town":"西新宿新宿アイランドタワー　２０階","town_kana":"ニシシンジュクシンジュクアイランドタワー20カイ","prefecture_code":13},"1321":{"zip_code":"1631321","prefecture":"東京都","prefecture_kana":"トウキョウト","city":"新宿区","city_kana":"シンジュクク","town":"西新宿新宿アイランドタワー　２１階","town_kana":"ニシシンジュクシンジュクアイランドタワー21カイ","prefecture_code":13},"1322":{"zip_code":"1631322","prefecture":"東京都","prefecture_kana":"トウキョウト","city":"新宿区","city_kana":"シンジュクク","town":"西新宿新宿アイランドタワー　２２階","town_kana":"ニシシンジュクシンジュクアイランドタワー22カイ","prefecture_code":13},"1323":{"zip_code":"1631323","prefecture":"東京都","prefecture_kana":"トウキョウト","city":"新宿区","city_kana":"シンジュクク","town":"西新宿新宿アイランドタワー　２３階","town_kana":"ニシシンジュクシンジュクアイランドタワー23カイ","prefecture_code":13},"1324":{"zip_code":"1631324","prefecture":"東京都","prefecture_kana":"トウキョウト","city":"新宿区","city_kana":"シンジュクク","town":"西新宿新宿アイランドタワー　２４階","town_kana":"ニシシンジュクシンジュクアイランドタワー24カイ","prefecture_code":13},"1325":{"zip_code":"1631325","prefecture":"東京都","prefecture_kana":"トウキョウト","city":"新宿区","city_kana":"シンジュクク","town":"西新宿新宿アイランドタワー　２５階","town_kana":"ニシシンジュクシンジュクアイランドタワー25カイ","prefecture_code":13},"1326":{"zip_code":"1631326","prefecture":"東京都","prefecture_kana":"トウキョウト","city":"新宿区","city_kana":"シンジュクク","town":"西新宿新宿アイランドタワー　２６階","town_kana":"ニシシンジュクシンジュクアイランドタワー26カイ","prefecture_code":13},"1327":{"zip_code":"1631327","prefecture":"東京都","prefecture_kana":"トウキョウト","city":"新宿区","city_kana":"シンジュクク","town":"西新宿新宿アイランドタワー　２７階","town_kana":"ニシシンジュクシンジュクアイランドタワー27カイ","prefecture_code":13},"1328":{"zip_code":"1631328","prefecture":"東京都","prefecture_kana":"トウキョウト","city":"新宿区","city_kana":"シンジュクク","town":"西新宿新宿アイランドタワー　２８階","town_kana":"ニシシンジュクシンジュクアイランドタワー28カイ","prefecture_code":13},"1329":{"zip_code":"1631329","prefecture":"東京都","prefecture_kana":"トウキョウト","city":"新宿区","city_kana":"シンジュクク","town":"西新宿新宿アイランドタワー　２９階","town_kana":"ニシシンジュクシンジュクアイランドタワー29カイ","prefecture_code":13},"1330":{"zip_code":"1631330","prefecture":"東京都","prefecture_kana":"トウキョウト","city":"新宿区","city_kana":"シンジュクク","town":"西新宿新宿アイランドタワー　３０階","town_kana":"ニシシンジュクシンジュクアイランドタワー30カイ","prefecture_code":13},"1331":{"zip_code":"1631331","prefecture":"東京都","prefecture_kana":"トウキョウト","city":"新宿区","city_kana":"シンジュクク","town":"西新宿新宿アイランドタワー　３１階","town_kana":"ニシシンジュクシンジュクアイランドタワー31カイ","prefecture_code":13},"1332":{"zip_code":"1631332","prefecture":"東京都","prefecture_kana":"トウキョウト","city":"新宿区","city_kana":"シンジュクク","town":"西新宿新宿アイランドタワー　３２階","town_kana":"ニシシンジュクシンジュクアイランドタワー32カイ","prefecture_code":13},"1333":{"zip_code":"1631333","prefecture":"東京都","prefecture_kana":"トウキョウト","city":"新宿区","city_kana":"シンジュクク","town":"西新宿新宿アイランドタワー　３３階","town_kana":"ニシシンジュクシンジュクアイランドタワー33カイ","prefecture_code":13},"1334":{"zip_code":"1631334","prefecture":"東京都","prefecture_kana":"トウキョウト","city":"新宿区","city_kana":"シンジュクク","town":"西新宿新宿アイランドタワー　３４階","town_kana":"ニシシンジュクシンジュクアイランドタワー34カイ","prefecture_code":13},"1335":{"zip_code":"1631335","prefecture":"東京都","prefecture_kana":"トウキョウト","city":"新宿区","city_kana":"シンジュクク","town":"西新宿新宿アイランドタワー　３５階","town_kana":"ニシシンジュクシンジュクアイランドタワー35カイ","prefecture_code":13},"1336":{"zip_code":"1631336","prefecture":"東京都","prefecture_kana":"トウキョウト","city":"新宿区","city_kana":"シンジュクク","town":"西新宿新宿アイランドタワー　３６階","town_kana":"ニシシンジュクシンジュクアイランドタワー36カイ","prefecture_code":13},"1337":{"zip_code":"1631337","prefecture":"東京都","prefecture_kana":"トウキョウト","city":"新宿区","city_kana":"シンジュクク","town":"西新宿新宿アイランドタワー　３７階","town_kana":"ニシシンジュクシンジュクアイランドタワー37カイ","prefecture_code":13},"1338":{"zip_code":"1631338","prefecture":"東京都","prefecture_kana":"トウキョウト","city":"新宿区","city_kana":"シンジュクク","town":"西新宿新宿アイランドタワー　３８階","town_kana":"ニシシンジュクシンジュクアイランドタワー38カイ","prefecture_code":13},"1339":{"zip_code":"1631339","prefecture":"東京都","prefecture_kana":"トウキョウト","city":"新宿区","city_kana":"シンジュクク","town":"西新宿新宿アイランドタワー　３９階","town_kana":"ニシシンジュクシンジュクアイランドタワー39カイ","prefecture_code":13},"1340":{"zip_code":"1631340","prefecture":"東京都","prefecture_kana":"トウキョウト","city":"新宿区","city_kana":"シンジュクク","town":"西新宿新宿アイランドタワー　４０階","town_kana":"ニシシンジュクシンジュクアイランドタワー40カイ","prefecture_code":13},"1341":{"zip_code":"1631341","prefecture":"東京都","prefecture_kana":"トウキョウト","city":"新宿区","city_kana":"シンジュクク","town":"西新宿新宿アイランドタワー　４１階","town_kana":"ニシシンジュクシンジュクアイランドタワー41カイ","prefecture_code":13},"1342":{"zip_code":"1631342","prefecture":"東京都","prefecture_kana":"トウキョウト","city":"新宿区","city_kana":"シンジュクク","town":"西新宿新宿アイランドタワー　４２階","town_kana":"ニシシンジュクシンジュクアイランドタワー42カイ","prefecture_code":13},"1343":{"zip_code":"1631343","prefecture":"東京都","prefecture_kana":"トウキョウト","city":"新宿区","city_kana":"シンジュクク","town":"西新宿新宿アイランドタワー　４３階","town_kana":"ニシシンジュクシンジュクアイランドタワー43カイ","prefecture_code":13},"1344":{"zip_code":"1631344","prefecture":"東京都","prefecture_kana":"トウキョウト","city":"新宿区","city_kana":"シンジュクク","town":"西新宿新宿アイランドタワー　４４階","town_kana":"ニシシンジュクシンジュクアイランドタワー44カイ","prefecture_code":13},"0890":{"zip_code":"1630890","prefecture":"東京都","prefecture_kana":"トウキョウト","city":"新宿区","city_kana":"シンジュクク","town":"西新宿新宿ＮＳビル","town_kana":"ニシシンジュクシンジュクエヌエスビル","prefecture_code":13},"0801":{"zip_code":"1630801","prefecture":"東京都","prefecture_kana":"トウキョウト","city":"新宿区","city_kana":"シンジュクク","town":"西新宿新宿ＮＳビル　１階","town_kana":"ニシシンジュクシンジュクエヌエスビル1カイ","prefecture_code":13},"0802":{"zip_code":"1630802","prefecture":"東京都","prefecture_kana":"トウキョウト","city":"新宿区","city_kana":"シンジュクク","town":"西新宿新宿ＮＳビル　２階","town_kana":"ニシシンジュクシンジュクエヌエスビル2カイ","prefecture_code":13},"0803":{"zip_code":"1630803","prefecture":"東京都","prefecture_kana":"トウキョウト","city":"新宿区","city_kana":"シンジュクク","town":"西新宿新宿ＮＳビル　３階","town_kana":"ニシシンジュクシンジュクエヌエスビル3カイ","prefecture_code":13},"0804":{"zip_code":"1630804","prefecture":"東京都","prefecture_kana":"トウキョウト","city":"新宿区","city_kana":"シンジュクク","town":"西新宿新宿ＮＳビル　４階","town_kana":"ニシシンジュクシンジュクエヌエスビル4カイ","prefecture_code":13},"0805":{"zip_code":"1630805","prefecture":"東京都","prefecture_kana":"トウキョウト","city":"新宿区","city_kana":"シンジュクク","town":"西新宿新宿ＮＳビル　５階","town_kana":"ニシシンジュクシンジュクエヌエスビル5カイ","prefecture_code":13},"0806":{"zip_code":"1630806","prefecture":"東京都","prefecture_kana":"トウキョウト","city":"新宿区","city_kana":"シンジュクク","town":"西新宿新宿ＮＳビル　６階","town_kana":"ニシシンジュクシンジュクエヌエスビル6カイ","prefecture_code":13},"0807":{"zip_code":"1630807","prefecture":"東京都","prefecture_kana":"トウキョウト","city":"新宿区","city_kana":"シンジュクク","town":"西新宿新宿ＮＳビル　７階","town_kana":"ニシシンジュクシンジュクエヌエスビル7カイ","prefecture_code":13},"0808":{"zip_code":"1630808","prefecture":"東京都","prefecture_kana":"トウキョウト","city":"新宿区","city_kana":"シンジュクク","town":"西新宿新宿ＮＳビル　８階","town_kana":"ニシシンジュクシンジュクエヌエスビル8カイ","prefecture_code":13},"0809":{"zip_code":"1630809","prefecture":"東京都","prefecture_kana":"トウキョウト","city":"新宿区","city_kana":"シンジュクク","town":"西新宿新宿ＮＳビル　９階","town_kana":"ニシシンジュクシンジュクエヌエスビル9カイ","prefecture_code":13},"0810":{"zip_code":"1630810","prefecture":"東京都","prefecture_kana":"トウキョウト","city":"新宿区","city_kana":"シンジュクク","town":"西新宿新宿ＮＳビル　１０階","town_kana":"ニシシンジュクシンジュクエヌエスビル10カイ","prefecture_code":13},"0811":{"zip_code":"1630811","prefecture":"東京都","prefecture_kana":"トウキョウト","city":"新宿区","city_kana":"シンジュクク","town":"西新宿新宿ＮＳビル　１１階","town_kana":"ニシシンジュクシンジュクエヌエスビル11カイ","prefecture_code":13},"0812":{"zip_code":"1630812","prefecture":"東京都","prefecture_kana":"トウキョウト","city":"新宿区","city_kana":"シンジュクク","town":"西新宿新宿ＮＳビル　１２階","town_kana":"ニシシンジュクシンジュクエヌエスビル12カイ","prefecture_code":13},"0813":{"zip_code":"1630813","prefecture":"東京都","prefecture_kana":"トウキョウト","city":"新宿区","city_kana":"シンジュクク","town":"西新宿新宿ＮＳビル　１３階","town_kana":"ニシシンジュクシンジュクエヌエスビル13カイ","prefecture_code":13},"0814":{"zip_code":"1630814","prefecture":"東京都","prefecture_kana":"トウキョウト","city":"新宿区","city_kana":"シンジュクク","town":"西新宿新宿ＮＳビル　１４階","town_kana":"ニシシンジュクシンジュクエヌエスビル14カイ","prefecture_code":13},"0815":{"zip_code":"1630815","prefecture":"東京都","prefecture_kana":"トウキョウト","city":"新宿区","city_kana":"シンジュクク","town":"西新宿新宿ＮＳビル　１５階","town_kana":"ニシシンジュクシンジュクエヌエスビル15カイ","prefecture_code":13},"0816":{"zip_code":"1630816","prefecture":"東京都","prefecture_kana":"トウキョウト","city":"新宿区","city_kana":"シンジュクク","town":"西新宿新宿ＮＳビル　１６階","town_kana":"ニシシンジュクシンジュクエヌエスビル16カイ","prefecture_code":13},"0817":{"zip_code":"1630817","prefecture":"東京都","prefecture_kana":"トウキョウト","city":"新宿区","city_kana":"シンジュクク","town":"西新宿新宿ＮＳビル　１７階","town_kana":"ニシシンジュクシンジュクエヌエスビル17カイ","prefecture_code":13},"0818":{"zip_code":"1630818","prefecture":"東京都","prefecture_kana":"トウキョウト","city":"新宿区","city_kana":"シンジュクク","town":"西新宿新宿ＮＳビル　１８階","town_kana":"ニシシンジュクシンジュクエヌエスビル18カイ","prefecture_code":13},"0819":{"zip_code":"1630819","prefecture":"東京都","prefecture_kana":"トウキョウト","city":"新宿区","city_kana":"シンジュクク","town":"西新宿新宿ＮＳビル　１９階","town_kana":"ニシシンジュクシンジュクエヌエスビル19カイ","prefecture_code":13},"0820":{"zip_code":"1630820","prefecture":"東京都","prefecture_kana":"トウキョウト","city":"新宿区","city_kana":"シンジュクク","town":"西新宿新宿ＮＳビル　２０階","town_kana":"ニシシンジュクシンジュクエヌエスビル20カイ","prefecture_code":13},"0821":{"zip_code":"1630821","prefecture":"東京都","prefecture_kana":"トウキョウト","city":"新宿区","city_kana":"シンジュクク","town":"西新宿新宿ＮＳビル　２１階","town_kana":"ニシシンジュクシンジュクエヌエスビル21カイ","prefecture_code":13},"0822":{"zip_code":"1630822","prefecture":"東京都","prefecture_kana":"トウキョウト","city":"新宿区","city_kana":"シンジュクク","town":"西新宿新宿ＮＳビル　２２階","town_kana":"ニシシンジュクシンジュクエヌエスビル22カイ","prefecture_code":13},"0823":{"zip_code":"1630823","prefecture":"東京都","prefecture_kana":"トウキョウト","city":"新宿区","city_kana":"シンジュクク","town":"西新宿新宿ＮＳビル　２３階","town_kana":"ニシシンジュクシンジュクエヌエスビル23カイ","prefecture_code":13},"0824":{"zip_code":"1630824","prefecture":"東京都","prefecture_kana":"トウキョウト","city":"新宿区","city_kana":"シンジュクク","town":"西新宿新宿ＮＳビル　２４階","town_kana":"ニシシンジュクシンジュクエヌエスビル24カイ","prefecture_code":13},"0825":{"zip_code":"1630825","prefecture":"東京都","prefecture_kana":"トウキョウト","city":"新宿区","city_kana":"シンジュクク","town":"西新宿新宿ＮＳビル　２５階","town_kana":"ニシシンジュクシンジュクエヌエスビル25カイ","prefecture_code":13},"0826":{"zip_code":"1630826","prefecture":"東京都","prefecture_kana":"トウキョウト","city":"新宿区","city_kana":"シンジュクク","town":"西新宿新宿ＮＳビル　２６階","town_kana":"ニシシンジュクシンジュクエヌエスビル26カイ","prefecture_code":13},"0827":{"zip_code":"1630827","prefecture":"東京都","prefecture_kana":"トウキョウト","city":"新宿区","city_kana":"シンジュクク","town":"西新宿新宿ＮＳビル　２７階","town_kana":"ニシシンジュクシンジュクエヌエスビル27カイ","prefecture_code":13},"0828":{"zip_code":"1630828","prefecture":"東京都","prefecture_kana":"トウキョウト","city":"新宿区","city_kana":"シンジュクク","town":"西新宿新宿ＮＳビル　２８階","town_kana":"ニシシンジュクシンジュクエヌエスビル28カイ","prefecture_code":13},"0829":{"zip_code":"1630829","prefecture":"東京都","prefecture_kana":"トウキョウト","city":"新宿区","city_kana":"シンジュクク","town":"西新宿新宿ＮＳビル　２９階","town_kana":"ニシシンジュクシンジュクエヌエスビル29カイ","prefecture_code":13},"0830":{"zip_code":"1630830","prefecture":"東京都","prefecture_kana":"トウキョウト","city":"新宿区","city_kana":"シンジュクク","town":"西新宿新宿ＮＳビル　３０階","town_kana":"ニシシンジュクシンジュクエヌエスビル30カイ","prefecture_code":13},"1590":{"zip_code":"1631590","prefecture":"東京都","prefecture_kana":"トウキョウト","city":"新宿区","city_kana":"シンジュクク","town":"西新宿新宿エルタワー","town_kana":"ニシシンジュクシンジュクエルタワー","prefecture_code":13},"1501":{"zip_code":"1631501","prefecture":"東京都","prefecture_kana":"トウキョウト","city":"新宿区","city_kana":"シンジュクク","town":"西新宿新宿エルタワー　１階","town_kana":"ニシシンジュクシンジュクエルタワー1カイ","prefecture_code":13},"1502":{"zip_code":"1631502","prefecture":"東京都","prefecture_kana":"トウキョウト","city":"新宿区","city_kana":"シンジュクク","town":"西新宿新宿エルタワー　２階","town_kana":"ニシシンジュクシンジュクエルタワー2カイ","prefecture_code":13},"1503":{"zip_code":"1631503","prefecture":"東京都","prefecture_kana":"トウキョウト","city":"新宿区","city_kana":"シンジュクク","town":"西新宿新宿エルタワー　３階","town_kana":"ニシシンジュクシンジュクエルタワー3カイ","prefecture_code":13},"1504":{"zip_code":"1631504","prefecture":"東京都","prefecture_kana":"トウキョウト","city":"新宿区","city_kana":"シンジュクク","town":"西新宿新宿エルタワー　４階","town_kana":"ニシシンジュクシンジュクエルタワー4カイ","prefecture_code":13},"1505":{"zip_code":"1631505","prefecture":"東京都","prefecture_kana":"トウキョウト","city":"新宿区","city_kana":"シンジュクク","town":"西新宿新宿エルタワー　５階","town_kana":"ニシシンジュクシンジュクエルタワー5カイ","prefecture_code":13},"1506":{"zip_code":"1631506","prefecture":"東京都","prefecture_kana":"トウキョウト","city":"新宿区","city_kana":"シンジュクク","town":"西新宿新宿エルタワー　６階","town_kana":"ニシシンジュクシンジュクエルタワー6カイ","prefecture_code":13},"1507":{"zip_code":"1631507","prefecture":"東京都","prefecture_kana":"トウキョウト","city":"新宿区","city_kana":"シンジュクク","town":"西新宿新宿エルタワー　７階","town_kana":"ニシシンジュクシンジュクエルタワー7カイ","prefecture_code":13},"1508":{"zip_code":"1631508","prefecture":"東京都","prefecture_kana":"トウキョウト","city":"新宿区","city_kana":"シンジュクク","town":"西新宿新宿エルタワー　８階","town_kana":"ニシシンジュクシンジュクエルタワー8カイ","prefecture_code":13},"1509":{"zip_code":"1631509","prefecture":"東京都","prefecture_kana":"トウキョウト","city":"新宿区","city_kana":"シンジュクク","town":"西新宿新宿エルタワー　９階","town_kana":"ニシシンジュクシンジュクエルタワー9カイ","prefecture_code":13},"1510":{"zip_code":"1631510","prefecture":"東京都","prefecture_kana":"トウキョウト","city":"新宿区","city_kana":"シンジュクク","town":"西新宿新宿エルタワー　１０階","town_kana":"ニシシンジュクシンジュクエルタワー10カイ","prefecture_code":13},"1511":{"zip_code":"1631511","prefecture":"東京都","prefecture_kana":"トウキョウト","city":"新宿区","city_kana":"シンジュクク","town":"西新宿新宿エルタワー　１１階","town_kana":"ニシシンジュクシンジュクエルタワー11カイ","prefecture_code":13},"1512":{"zip_code":"1631512","prefecture":"東京都","prefecture_kana":"トウキョウト","city":"新宿区","city_kana":"シンジュクク","town":"西新宿新宿エルタワー　１２階","town_kana":"ニシシンジュクシンジュクエルタワー12カイ","prefecture_code":13},"1513":{"zip_code":"1631513","prefecture":"東京都","prefecture_kana":"トウキョウト","city":"新宿区","city_kana":"シンジュクク","town":"西新宿新宿エルタワー　１３階","town_kana":"ニシシンジュクシンジュクエルタワー13カイ","prefecture_code":13},"1514":{"zip_code":"1631514","prefecture":"東京都","prefecture_kana":"トウキョウト","city":"新宿区","city_kana":"シンジュクク","town":"西新宿新宿エルタワー　１４階","town_kana":"ニシシンジュクシンジュクエルタワー14カイ","prefecture_code":13},"1515":{"zip_code":"1631515","prefecture":"東京都","prefecture_kana":"トウキョウト","city":"新宿区","city_kana":"シンジュクク","town":"西新宿新宿エルタワー　１５階","town_kana":"ニシシンジュクシンジュクエルタワー15カイ","prefecture_code":13},"1516":{"zip_code":"1631516","prefecture":"東京都","prefecture_kana":"トウキョウト","city":"新宿区","city_kana":"シンジュクク","town":"西新宿新宿エルタワー　１６階","town_kana":"ニシシンジュクシンジュクエルタワー16カイ","prefecture_code":13},"1517":{"zip_code":"1631517","prefecture":"東京都","prefecture_kana":"トウキョウト","city":"新宿区","city_kana":"シンジュクク","town":"西新宿新宿エルタワー　１７階","town_kana":"ニシシンジュクシンジュクエルタワー17カイ","prefecture_code":13},"1518":{"zip_code":"1631518","prefecture":"東京都","prefecture_kana":"トウキョウト","city":"新宿区","city_kana":"シンジュクク","town":"西新宿新宿エルタワー　１８階","town_kana":"ニシシンジュクシンジュクエルタワー18カイ","prefecture_code":13},"1519":{"zip_code":"1631519","prefecture":"東京都","prefecture_kana":"トウキョウト","city":"新宿区","city_kana":"シンジュクク","town":"西新宿新宿エルタワー　１９階","town_kana":"ニシシンジュクシンジュクエルタワー19カイ","prefecture_code":13},"1520":{"zip_code":"1631520","prefecture":"東京都","prefecture_kana":"トウキョウト","city":"新宿区","city_kana":"シンジュクク","town":"西新宿新宿エルタワー　２０階","town_kana":"ニシシンジュクシンジュクエルタワー20カイ","prefecture_code":13},"1521":{"zip_code":"1631521","prefecture":"東京都","prefecture_kana":"トウキョウト","city":"新宿区","city_kana":"シンジュクク","town":"西新宿新宿エルタワー　２１階","town_kana":"ニシシンジュクシンジュクエルタワー21カイ","prefecture_code":13},"1522":{"zip_code":"1631522","prefecture":"東京都","prefecture_kana":"トウキョウト","city":"新宿区","city_kana":"シンジュクク","town":"西新宿新宿エルタワー　２２階","town_kana":"ニシシンジュクシンジュクエルタワー22カイ","prefecture_code":13},"1523":{"zip_code":"1631523","prefecture":"東京都","prefecture_kana":"トウキョウト","city":"新宿区","city_kana":"シンジュクク","town":"西新宿新宿エルタワー　２３階","town_kana":"ニシシンジュクシンジュクエルタワー23カイ","prefecture_code":13},"1524":{"zip_code":"1631524","prefecture":"東京都","prefecture_kana":"トウキョウト","city":"新宿区","city_kana":"シンジュクク","town":"西新宿新宿エルタワー　２４階","town_kana":"ニシシンジュクシンジュクエルタワー24カイ","prefecture_code":13},"1525":{"zip_code":"1631525","prefecture":"東京都","prefecture_kana":"トウキョウト","city":"新宿区","city_kana":"シンジュクク","town":"西新宿新宿エルタワー　２５階","town_kana":"ニシシンジュクシンジュクエルタワー25カイ","prefecture_code":13},"1526":{"zip_code":"1631526","prefecture":"東京都","prefecture_kana":"トウキョウト","city":"新宿区","city_kana":"シンジュクク","town":"西新宿新宿エルタワー　２６階","town_kana":"ニシシンジュクシンジュクエルタワー26カイ","prefecture_code":13},"1527":{"zip_code":"1631527","prefecture":"東京都","prefecture_kana":"トウキョウト","city":"新宿区","city_kana":"シンジュクク","town":"西新宿新宿エルタワー　２７階","town_kana":"ニシシンジュクシンジュクエルタワー27カイ","prefecture_code":13},"1528":{"zip_code":"1631528","prefecture":"東京都","prefecture_kana":"トウキョウト","city":"新宿区","city_kana":"シンジュクク","town":"西新宿新宿エルタワー　２８階","town_kana":"ニシシンジュクシンジュクエルタワー28カイ","prefecture_code":13},"1529":{"zip_code":"1631529","prefecture":"東京都","prefecture_kana":"トウキョウト","city":"新宿区","city_kana":"シンジュクク","town":"西新宿新宿エルタワー　２９階","town_kana":"ニシシンジュクシンジュクエルタワー29カイ","prefecture_code":13},"1530":{"zip_code":"1631530","prefecture":"東京都","prefecture_kana":"トウキョウト","city":"新宿区","city_kana":"シンジュクク","town":"西新宿新宿エルタワー　３０階","town_kana":"ニシシンジュクシンジュクエルタワー30カイ","prefecture_code":13},"1531":{"zip_code":"1631531","prefecture":"東京都","prefecture_kana":"トウキョウト","city":"新宿区","city_kana":"シンジュクク","town":"西新宿新宿エルタワー　３１階","town_kana":"ニシシンジュクシンジュクエルタワー31カイ","prefecture_code":13},"1190":{"zip_code":"1631190","prefecture":"東京都","prefecture_kana":"トウキョウト","city":"新宿区","city_kana":"シンジュクク","town":"西新宿新宿スクエアタワー","town_kana":"ニシシンジュクシンジュクスクエアタワー","prefecture_code":13},"1101":{"zip_code":"1631101","prefecture":"東京都","prefecture_kana":"トウキョウト","city":"新宿区","city_kana":"シンジュクク","town":"西新宿新宿スクエアタワー　１階","town_kana":"ニシシンジュクシンジュクスクエアタワー1カイ","prefecture_code":13},"1102":{"zip_code":"1631102","prefecture":"東京都","prefecture_kana":"トウキョウト","city":"新宿区","city_kana":"シンジュクク","town":"西新宿新宿スクエアタワー　２階","town_kana":"ニシシンジュクシンジュクスクエアタワー2カイ","prefecture_code":13},"1103":{"zip_code":"1631103","prefecture":"東京都","prefecture_kana":"トウキョウト","city":"新宿区","city_kana":"シンジュクク","town":"西新宿新宿スクエアタワー　３階","town_kana":"ニシシンジュクシンジュクスクエアタワー3カイ","prefecture_code":13},"1104":{"zip_code":"1631104","prefecture":"東京都","prefecture_kana":"トウキョウト","city":"新宿区","city_kana":"シンジュクク","town":"西新宿新宿スクエアタワー　４階","town_kana":"ニシシンジュクシンジュクスクエアタワー4カイ","prefecture_code":13},"1105":{"zip_code":"1631105","prefecture":"東京都","prefecture_kana":"トウキョウト","city":"新宿区","city_kana":"シンジュクク","town":"西新宿新宿スクエアタワー　５階","town_kana":"ニシシンジュクシンジュクスクエアタワー5カイ","prefecture_code":13},"1106":{"zip_code":"1631106","prefecture":"東京都","prefecture_kana":"トウキョウト","city":"新宿区","city_kana":"シンジュクク","town":"西新宿新宿スクエアタワー　６階","town_kana":"ニシシンジュクシンジュクスクエアタワー6カイ","prefecture_code":13},"1107":{"zip_code":"1631107","prefecture":"東京都","prefecture_kana":"トウキョウト","city":"新宿区","city_kana":"シンジュクク","town":"西新宿新宿スクエアタワー　７階","town_kana":"ニシシンジュクシンジュクスクエアタワー7カイ","prefecture_code":13},"1108":{"zip_code":"1631108","prefecture":"東京都","prefecture_kana":"トウキョウト","city":"新宿区","city_kana":"シンジュクク","town":"西新宿新宿スクエアタワー　８階","town_kana":"ニシシンジュクシンジュクスクエアタワー8カイ","prefecture_code":13},"1109":{"zip_code":"1631109","prefecture":"東京都","prefecture_kana":"トウキョウト","city":"新宿区","city_kana":"シンジュクク","town":"西新宿新宿スクエアタワー　９階","town_kana":"ニシシンジュクシンジュクスクエアタワー9カイ","prefecture_code":13},"1110":{"zip_code":"1631110","prefecture":"東京都","prefecture_kana":"トウキョウト","city":"新宿区","city_kana":"シンジュクク","town":"西新宿新宿スクエアタワー　１０階","town_kana":"ニシシンジュクシンジュクスクエアタワー10カイ","prefecture_code":13},"1111":{"zip_code":"1631111","prefecture":"東京都","prefecture_kana":"トウキョウト","city":"新宿区","city_kana":"シンジュクク","town":"西新宿新宿スクエアタワー　１１階","town_kana":"ニシシンジュクシンジュクスクエアタワー11カイ","prefecture_code":13},"1112":{"zip_code":"1631112","prefecture":"東京都","prefecture_kana":"トウキョウト","city":"新宿区","city_kana":"シンジュクク","town":"西新宿新宿スクエアタワー　１２階","town_kana":"ニシシンジュクシンジュクスクエアタワー12カイ","prefecture_code":13},"1113":{"zip_code":"1631113","prefecture":"東京都","prefecture_kana":"トウキョウト","city":"新宿区","city_kana":"シンジュクク","town":"西新宿新宿スクエアタワー　１３階","town_kana":"ニシシンジュクシンジュクスクエアタワー13カイ","prefecture_code":13},"1114":{"zip_code":"1631114","prefecture":"東京都","prefecture_kana":"トウキョウト","city":"新宿区","city_kana":"シンジュクク","town":"西新宿新宿スクエアタワー　１４階","town_kana":"ニシシンジュクシンジュクスクエアタワー14カイ","prefecture_code":13},"1115":{"zip_code":"1631115","prefecture":"東京都","prefecture_kana":"トウキョウト","city":"新宿区","city_kana":"シンジュクク","town":"西新宿新宿スクエアタワー　１５階","town_kana":"ニシシンジュクシンジュクスクエアタワー15カイ","prefecture_code":13},"1116":{"zip_code":"1631116","prefecture":"東京都","prefecture_kana":"トウキョウト","city":"新宿区","city_kana":"シンジュクク","town":"西新宿新宿スクエアタワー　１６階","town_kana":"ニシシンジュクシンジュクスクエアタワー16カイ","prefecture_code":13},"1117":{"zip_code":"1631117","prefecture":"東京都","prefecture_kana":"トウキョウト","city":"新宿区","city_kana":"シンジュクク","town":"西新宿新宿スクエアタワー　１７階","town_kana":"ニシシンジュクシンジュクスクエアタワー17カイ","prefecture_code":13},"1118":{"zip_code":"1631118","prefecture":"東京都","prefecture_kana":"トウキョウト","city":"新宿区","city_kana":"シンジュクク","town":"西新宿新宿スクエアタワー　１８階","town_kana":"ニシシンジュクシンジュクスクエアタワー18カイ","prefecture_code":13},"1119":{"zip_code":"1631119","prefecture":"東京都","prefecture_kana":"トウキョウト","city":"新宿区","city_kana":"シンジュクク","town":"西新宿新宿スクエアタワー　１９階","town_kana":"ニシシンジュクシンジュクスクエアタワー19カイ","prefecture_code":13},"1120":{"zip_code":"1631120","prefecture":"東京都","prefecture_kana":"トウキョウト","city":"新宿区","city_kana":"シンジュクク","town":"西新宿新宿スクエアタワー　２０階","town_kana":"ニシシンジュクシンジュクスクエアタワー20カイ","prefecture_code":13},"1121":{"zip_code":"1631121","prefecture":"東京都","prefecture_kana":"トウキョウト","city":"新宿区","city_kana":"シンジュクク","town":"西新宿新宿スクエアタワー　２１階","town_kana":"ニシシンジュクシンジュクスクエアタワー21カイ","prefecture_code":13},"1122":{"zip_code":"1631122","prefecture":"東京都","prefecture_kana":"トウキョウト","city":"新宿区","city_kana":"シンジュクク","town":"西新宿新宿スクエアタワー　２２階","town_kana":"ニシシンジュクシンジュクスクエアタワー22カイ","prefecture_code":13},"1123":{"zip_code":"1631123","prefecture":"東京都","prefecture_kana":"トウキョウト","city":"新宿区","city_kana":"シンジュクク","town":"西新宿新宿スクエアタワー　２３階","town_kana":"ニシシンジュクシンジュクスクエアタワー23カイ","prefecture_code":13},"1124":{"zip_code":"1631124","prefecture":"東京都","prefecture_kana":"トウキョウト","city":"新宿区","city_kana":"シンジュクク","town":"西新宿新宿スクエアタワー　２４階","town_kana":"ニシシンジュクシンジュクスクエアタワー24カイ","prefecture_code":13},"1125":{"zip_code":"1631125","prefecture":"東京都","prefecture_kana":"トウキョウト","city":"新宿区","city_kana":"シンジュクク","town":"西新宿新宿スクエアタワー　２５階","town_kana":"ニシシンジュクシンジュクスクエアタワー25カイ","prefecture_code":13},"1126":{"zip_code":"1631126","prefecture":"東京都","prefecture_kana":"トウキョウト","city":"新宿区","city_kana":"シンジュクク","town":"西新宿新宿スクエアタワー　２６階","town_kana":"ニシシンジュクシンジュクスクエアタワー26カイ","prefecture_code":13},"1127":{"zip_code":"1631127","prefecture":"東京都","prefecture_kana":"トウキョウト","city":"新宿区","city_kana":"シンジュクク","town":"西新宿新宿スクエアタワー　２７階","town_kana":"ニシシンジュクシンジュクスクエアタワー27カイ","prefecture_code":13},"1128":{"zip_code":"1631128","prefecture":"東京都","prefecture_kana":"トウキョウト","city":"新宿区","city_kana":"シンジュクク","town":"西新宿新宿スクエアタワー　２８階","town_kana":"ニシシンジュクシンジュクスクエアタワー28カイ","prefecture_code":13},"1129":{"zip_code":"1631129","prefecture":"東京都","prefecture_kana":"トウキョウト","city":"新宿区","city_kana":"シンジュクク","town":"西新宿新宿スクエアタワー　２９階","town_kana":"ニシシンジュクシンジュクスクエアタワー29カイ","prefecture_code":13},"1130":{"zip_code":"1631130","prefecture":"東京都","prefecture_kana":"トウキョウト","city":"新宿区","city_kana":"シンジュクク","town":"西新宿新宿スクエアタワー　３０階","town_kana":"ニシシンジュクシンジュクスクエアタワー30カイ","prefecture_code":13},"0290":{"zip_code":"1630290","prefecture":"東京都","prefecture_kana":"トウキョウト","city":"新宿区","city_kana":"シンジュクク","town":"西新宿新宿住友ビル","town_kana":"ニシシンジュクシンジュクスミトモビル","prefecture_code":13},"0201":{"zip_code":"1630201","prefecture":"東京都","prefecture_kana":"トウキョウト","city":"新宿区","city_kana":"シンジュクク","town":"西新宿新宿住友ビル　１階","town_kana":"ニシシンジュクシンジュクスミトモビル1カイ","prefecture_code":13},"0202":{"zip_code":"1630202","prefecture":"東京都","prefecture_kana":"トウキョウト","city":"新宿区","city_kana":"シンジュクク","town":"西新宿新宿住友ビル　２階","town_kana":"ニシシンジュクシンジュクスミトモビル2カイ","prefecture_code":13},"0203":{"zip_code":"1630203","prefecture":"東京都","prefecture_kana":"トウキョウト","city":"新宿区","city_kana":"シンジュクク","town":"西新宿新宿住友ビル　３階","town_kana":"ニシシンジュクシンジュクスミトモビル3カイ","prefecture_code":13},"0204":{"zip_code":"1630204","prefecture":"東京都","prefecture_kana":"トウキョウト","city":"新宿区","city_kana":"シンジュクク","town":"西新宿新宿住友ビル　４階","town_kana":"ニシシンジュクシンジュクスミトモビル4カイ","prefecture_code":13},"0205":{"zip_code":"1630205","prefecture":"東京都","prefecture_kana":"トウキョウト","city":"新宿区","city_kana":"シンジュクク","town":"西新宿新宿住友ビル　５階","town_kana":"ニシシンジュクシンジュクスミトモビル5カイ","prefecture_code":13},"0206":{"zip_code":"1630206","prefecture":"東京都","prefecture_kana":"トウキョウト","city":"新宿区","city_kana":"シンジュクク","town":"西新宿新宿住友ビル　６階","town_kana":"ニシシンジュクシンジュクスミトモビル6カイ","prefecture_code":13},"0207":{"zip_code":"1630207","prefecture":"東京都","prefecture_kana":"トウキョウト","city":"新宿区","city_kana":"シンジュクク","town":"西新宿新宿住友ビル　７階","town_kana":"ニシシンジュクシンジュクスミトモビル7カイ","prefecture_code":13},"0208":{"zip_code":"1630208","prefecture":"東京都","prefecture_kana":"トウキョウト","city":"新宿区","city_kana":"シンジュクク","town":"西新宿新宿住友ビル　８階","town_kana":"ニシシンジュクシンジュクスミトモビル8カイ","prefecture_code":13},"0209":{"zip_code":"1630209","prefecture":"東京都","prefecture_kana":"トウキョウト","city":"新宿区","city_kana":"シンジュクク","town":"西新宿新宿住友ビル　９階","town_kana":"ニシシンジュクシンジュクスミトモビル9カイ","prefecture_code":13},"0210":{"zip_code":"1630210","prefecture":"東京都","prefecture_kana":"トウキョウト","city":"新宿区","city_kana":"シンジュクク","town":"西新宿新宿住友ビル　１０階","town_kana":"ニシシンジュクシンジュクスミトモビル10カイ","prefecture_code":13},"0211":{"zip_code":"1630211","prefecture":"東京都","prefecture_kana":"トウキョウト","city":"新宿区","city_kana":"シンジュクク","town":"西新宿新宿住友ビル　１１階","town_kana":"ニシシンジュクシンジュクスミトモビル11カイ","prefecture_code":13},"0212":{"zip_code":"1630212","prefecture":"東京都","prefecture_kana":"トウキョウト","city":"新宿区","city_kana":"シンジュクク","town":"西新宿新宿住友ビル　１２階","town_kana":"ニシシンジュクシンジュクスミトモビル12カイ","prefecture_code":13},"0213":{"zip_code":"1630213","prefecture":"東京都","prefecture_kana":"トウキョウト","city":"新宿区","city_kana":"シンジュクク","town":"西新宿新宿住友ビル　１３階","town_kana":"ニシシンジュクシンジュクスミトモビル13カイ","prefecture_code":13},"0214":{"zip_code":"1630214","prefecture":"東京都","prefecture_kana":"トウキョウト","city":"新宿区","city_kana":"シンジュクク","town":"西新宿新宿住友ビル　１４階","town_kana":"ニシシンジュクシンジュクスミトモビル14カイ","prefecture_code":13},"0215":{"zip_code":"1630215","prefecture":"東京都","prefecture_kana":"トウキョウト","city":"新宿区","city_kana":"シンジュクク","town":"西新宿新宿住友ビル　１５階","town_kana":"ニシシンジュクシンジュクスミトモビル15カイ","prefecture_code":13},"0216":{"zip_code":"1630216","prefecture":"東京都","prefecture_kana":"トウキョウト","city":"新宿区","city_kana":"シンジュクク","town":"西新宿新宿住友ビル　１６階","town_kana":"ニシシンジュクシンジュクスミトモビル16カイ","prefecture_code":13},"0217":{"zip_code":"1630217","prefecture":"東京都","prefecture_kana":"トウキョウト","city":"新宿区","city_kana":"シンジュクク","town":"西新宿新宿住友ビル　１７階","town_kana":"ニシシンジュクシンジュクスミトモビル17カイ","prefecture_code":13},"0218":{"zip_code":"1630218","prefecture":"東京都","prefecture_kana":"トウキョウト","city":"新宿区","city_kana":"シンジュクク","town":"西新宿新宿住友ビル　１８階","town_kana":"ニシシンジュクシンジュクスミトモビル18カイ","prefecture_code":13},"0219":{"zip_code":"1630219","prefecture":"東京都","prefecture_kana":"トウキョウト","city":"新宿区","city_kana":"シンジュクク","town":"西新宿新宿住友ビル　１９階","town_kana":"ニシシンジュクシンジュクスミトモビル19カイ","prefecture_code":13},"0220":{"zip_code":"1630220","prefecture":"東京都","prefecture_kana":"トウキョウト","city":"新宿区","city_kana":"シンジュクク","town":"西新宿新宿住友ビル　２０階","town_kana":"ニシシンジュクシンジュクスミトモビル20カイ","prefecture_code":13},"0221":{"zip_code":"1630221","prefecture":"東京都","prefecture_kana":"トウキョウト","city":"新宿区","city_kana":"シンジュクク","town":"西新宿新宿住友ビル　２１階","town_kana":"ニシシンジュクシンジュクスミトモビル21カイ","prefecture_code":13},"0222":{"zip_code":"1630222","prefecture":"東京都","prefecture_kana":"トウキョウト","city":"新宿区","city_kana":"シンジュクク","town":"西新宿新宿住友ビル　２２階","town_kana":"ニシシンジュクシンジュクスミトモビル22カイ","prefecture_code":13},"0223":{"zip_code":"1630223","prefecture":"東京都","prefecture_kana":"トウキョウト","city":"新宿区","city_kana":"シンジュクク","town":"西新宿新宿住友ビル　２３階","town_kana":"ニシシンジュクシンジュクスミトモビル23カイ","prefecture_code":13},"0224":{"zip_code":"1630224","prefecture":"東京都","prefecture_kana":"トウキョウト","city":"新宿区","city_kana":"シンジュクク","town":"西新宿新宿住友ビル　２４階","town_kana":"ニシシンジュクシンジュクスミトモビル24カイ","prefecture_code":13},"0225":{"zip_code":"1630225","prefecture":"東京都","prefecture_kana":"トウキョウト","city":"新宿区","city_kana":"シンジュクク","town":"西新宿新宿住友ビル　２５階","town_kana":"ニシシンジュクシンジュクスミトモビル25カイ","prefecture_code":13},"0226":{"zip_code":"1630226","prefecture":"東京都","prefecture_kana":"トウキョウト","city":"新宿区","city_kana":"シンジュクク","town":"西新宿新宿住友ビル　２６階","town_kana":"ニシシンジュクシンジュクスミトモビル26カイ","prefecture_code":13},"0227":{"zip_code":"1630227","prefecture":"東京都","prefecture_kana":"トウキョウト","city":"新宿区","city_kana":"シンジュクク","town":"西新宿新宿住友ビル　２７階","town_kana":"ニシシンジュクシンジュクスミトモビル27カイ","prefecture_code":13},"0228":{"zip_code":"1630228","prefecture":"東京都","prefecture_kana":"トウキョウト","city":"新宿区","city_kana":"シンジュクク","town":"西新宿新宿住友ビル　２８階","town_kana":"ニシシンジュクシンジュクスミトモビル28カイ","prefecture_code":13},"0229":{"zip_code":"1630229","prefecture":"東京都","prefecture_kana":"トウキョウト","city":"新宿区","city_kana":"シンジュクク","town":"西新宿新宿住友ビル　２９階","town_kana":"ニシシンジュクシンジュクスミトモビル29カイ","prefecture_code":13},"0230":{"zip_code":"1630230","prefecture":"東京都","prefecture_kana":"トウキョウト","city":"新宿区","city_kana":"シンジュクク","town":"西新宿新宿住友ビル　３０階","town_kana":"ニシシンジュクシンジュクスミトモビル30カイ","prefecture_code":13},"0231":{"zip_code":"1630231","prefecture":"東京都","prefecture_kana":"トウキョウト","city":"新宿区","city_kana":"シンジュクク","town":"西新宿新宿住友ビル　３１階","town_kana":"ニシシンジュクシンジュクスミトモビル31カイ","prefecture_code":13},"0232":{"zip_code":"1630232","prefecture":"東京都","prefecture_kana":"トウキョウト","city":"新宿区","city_kana":"シンジュクク","town":"西新宿新宿住友ビル　３２階","town_kana":"ニシシンジュクシンジュクスミトモビル32カイ","prefecture_code":13},"0233":{"zip_code":"1630233","prefecture":"東京都","prefecture_kana":"トウキョウト","city":"新宿区","city_kana":"シンジュクク","town":"西新宿新宿住友ビル　３３階","town_kana":"ニシシンジュクシンジュクスミトモビル33カイ","prefecture_code":13},"0234":{"zip_code":"1630234","prefecture":"東京都","prefecture_kana":"トウキョウト","city":"新宿区","city_kana":"シンジュクク","town":"西新宿新宿住友ビル　３４階","town_kana":"ニシシンジュクシンジュクスミトモビル34カイ","prefecture_code":13},"0235":{"zip_code":"1630235","prefecture":"東京都","prefecture_kana":"トウキョウト","city":"新宿区","city_kana":"シンジュクク","town":"西新宿新宿住友ビル　３５階","town_kana":"ニシシンジュクシンジュクスミトモビル35カイ","prefecture_code":13},"0236":{"zip_code":"1630236","prefecture":"東京都","prefecture_kana":"トウキョウト","city":"新宿区","city_kana":"シンジュクク","town":"西新宿新宿住友ビル　３６階","town_kana":"ニシシンジュクシンジュクスミトモビル36カイ","prefecture_code":13},"0237":{"zip_code":"1630237","prefecture":"東京都","prefecture_kana":"トウキョウト","city":"新宿区","city_kana":"シンジュクク","town":"西新宿新宿住友ビル　３７階","town_kana":"ニシシンジュクシンジュクスミトモビル37カイ","prefecture_code":13},"0238":{"zip_code":"1630238","prefecture":"東京都","prefecture_kana":"トウキョウト","city":"新宿区","city_kana":"シンジュクク","town":"西新宿新宿住友ビル　３８階","town_kana":"ニシシンジュクシンジュクスミトモビル38カイ","prefecture_code":13},"0239":{"zip_code":"1630239","prefecture":"東京都","prefecture_kana":"トウキョウト","city":"新宿区","city_kana":"シンジュクク","town":"西新宿新宿住友ビル　３９階","town_kana":"ニシシンジュクシンジュクスミトモビル39カイ","prefecture_code":13},"0240":{"zip_code":"1630240","prefecture":"東京都","prefecture_kana":"トウキョウト","city":"新宿区","city_kana":"シンジュクク","town":"西新宿新宿住友ビル　４０階","town_kana":"ニシシンジュクシンジュクスミトモビル40カイ","prefecture_code":13},"0241":{"zip_code":"1630241","prefecture":"東京都","prefecture_kana":"トウキョウト","city":"新宿区","city_kana":"シンジュクク","town":"西新宿新宿住友ビル　４１階","town_kana":"ニシシンジュクシンジュクスミトモビル41カイ","prefecture_code":13},"0242":{"zip_code":"1630242","prefecture":"東京都","prefecture_kana":"トウキョウト","city":"新宿区","city_kana":"シンジュクク","town":"西新宿新宿住友ビル　４２階","town_kana":"ニシシンジュクシンジュクスミトモビル42カイ","prefecture_code":13},"0243":{"zip_code":"1630243","prefecture":"東京都","prefecture_kana":"トウキョウト","city":"新宿区","city_kana":"シンジュクク","town":"西新宿新宿住友ビル　４３階","town_kana":"ニシシンジュクシンジュクスミトモビル43カイ","prefecture_code":13},"0244":{"zip_code":"1630244","prefecture":"東京都","prefecture_kana":"トウキョウト","city":"新宿区","city_kana":"シンジュクク","town":"西新宿新宿住友ビル　４４階","town_kana":"ニシシンジュクシンジュクスミトモビル44カイ","prefecture_code":13},"0245":{"zip_code":"1630245","prefecture":"東京都","prefecture_kana":"トウキョウト","city":"新宿区","city_kana":"シンジュクク","town":"西新宿新宿住友ビル　４５階","town_kana":"ニシシンジュクシンジュクスミトモビル45カイ","prefecture_code":13},"0246":{"zip_code":"1630246","prefecture":"東京都","prefecture_kana":"トウキョウト","city":"新宿区","city_kana":"シンジュクク","town":"西新宿新宿住友ビル　４６階","town_kana":"ニシシンジュクシンジュクスミトモビル46カイ","prefecture_code":13},"0247":{"zip_code":"1630247","prefecture":"東京都","prefecture_kana":"トウキョウト","city":"新宿区","city_kana":"シンジュクク","town":"西新宿新宿住友ビル　４７階","town_kana":"ニシシンジュクシンジュクスミトモビル47カイ","prefecture_code":13},"0248":{"zip_code":"1630248","prefecture":"東京都","prefecture_kana":"トウキョウト","city":"新宿区","city_kana":"シンジュクク","town":"西新宿新宿住友ビル　４８階","town_kana":"ニシシンジュクシンジュクスミトモビル48カイ","prefecture_code":13},"0249":{"zip_code":"1630249","prefecture":"東京都","prefecture_kana":"トウキョウト","city":"新宿区","city_kana":"シンジュクク","town":"西新宿新宿住友ビル　４９階","town_kana":"ニシシンジュクシンジュクスミトモビル49カイ","prefecture_code":13},"0250":{"zip_code":"1630250","prefecture":"東京都","prefecture_kana":"トウキョウト","city":"新宿区","city_kana":"シンジュクク","town":"西新宿新宿住友ビル　５０階","town_kana":"ニシシンジュクシンジュクスミトモビル50カイ","prefecture_code":13},"0251":{"zip_code":"1630251","prefecture":"東京都","prefecture_kana":"トウキョウト","city":"新宿区","city_kana":"シンジュクク","town":"西新宿新宿住友ビル　５１階","town_kana":"ニシシンジュクシンジュクスミトモビル51カイ","prefecture_code":13},"0252":{"zip_code":"1630252","prefecture":"東京都","prefecture_kana":"トウキョウト","city":"新宿区","city_kana":"シンジュクク","town":"西新宿新宿住友ビル　５２階","town_kana":"ニシシンジュクシンジュクスミトモビル52カイ","prefecture_code":13},"0690":{"zip_code":"1630690","prefecture":"東京都","prefecture_kana":"トウキョウト","city":"新宿区","city_kana":"シンジュクク","town":"西新宿新宿センタービル","town_kana":"ニシシンジュクシンジュクセンタービル","prefecture_code":13},"0601":{"zip_code":"1630601","prefecture":"東京都","prefecture_kana":"トウキョウト","city":"新宿区","city_kana":"シンジュクク","town":"西新宿新宿センタービル　１階","town_kana":"ニシシンジュクシンジュクセンタービル1カイ","prefecture_code":13},"0602":{"zip_code":"1630602","prefecture":"東京都","prefecture_kana":"トウキョウト","city":"新宿区","city_kana":"シンジュクク","town":"西新宿新宿センタービル　２階","town_kana":"ニシシンジュクシンジュクセンタービル2カイ","prefecture_code":13},"0603":{"zip_code":"1630603","prefecture":"東京都","prefecture_kana":"トウキョウト","city":"新宿区","city_kana":"シンジュクク","town":"西新宿新宿センタービル　３階","town_kana":"ニシシンジュクシンジュクセンタービル3カイ","prefecture_code":13},"0604":{"zip_code":"1630604","prefecture":"東京都","prefecture_kana":"トウキョウト","city":"新宿区","city_kana":"シンジュクク","town":"西新宿新宿センタービル　４階","town_kana":"ニシシンジュクシンジュクセンタービル4カイ","prefecture_code":13},"0605":{"zip_code":"1630605","prefecture":"東京都","prefecture_kana":"トウキョウト","city":"新宿区","city_kana":"シンジュクク","town":"西新宿新宿センタービル　５階","town_kana":"ニシシンジュクシンジュクセンタービル5カイ","prefecture_code":13},"0606":{"zip_code":"1630606","prefecture":"東京都","prefecture_kana":"トウキョウト","city":"新宿区","city_kana":"シンジュクク","town":"西新宿新宿センタービル　６階","town_kana":"ニシシンジュクシンジュクセンタービル6カイ","prefecture_code":13},"0607":{"zip_code":"1630607","prefecture":"東京都","prefecture_kana":"トウキョウト","city":"新宿区","city_kana":"シンジュクク","town":"西新宿新宿センタービル　７階","town_kana":"ニシシンジュクシンジュクセンタービル7カイ","prefecture_code":13},"0608":{"zip_code":"1630608","prefecture":"東京都","prefecture_kana":"トウキョウト","city":"新宿区","city_kana":"シンジュクク","town":"西新宿新宿センタービル　８階","town_kana":"ニシシンジュクシンジュクセンタービル8カイ","prefecture_code":13},"0609":{"zip_code":"1630609","prefecture":"東京都","prefecture_kana":"トウキョウト","city":"新宿区","city_kana":"シンジュクク","town":"西新宿新宿センタービル　９階","town_kana":"ニシシンジュクシンジュクセンタービル9カイ","prefecture_code":13},"0610":{"zip_code":"1630610","prefecture":"東京都","prefecture_kana":"トウキョウト","city":"新宿区","city_kana":"シンジュクク","town":"西新宿新宿センタービル　１０階","town_kana":"ニシシンジュクシンジュクセンタービル10カイ","prefecture_code":13},"0611":{"zip_code":"1630611","prefecture":"東京都","prefecture_kana":"トウキョウト","city":"新宿区","city_kana":"シンジュクク","town":"西新宿新宿センタービル　１１階","town_kana":"ニシシンジュクシンジュクセンタービル11カイ","prefecture_code":13},"0612":{"zip_code":"1630612","prefecture":"東京都","prefecture_kana":"トウキョウト","city":"新宿区","city_kana":"シンジュクク","town":"西新宿新宿センタービル　１２階","town_kana":"ニシシンジュクシンジュクセンタービル12カイ","prefecture_code":13},"0613":{"zip_code":"1630613","prefecture":"東京都","prefecture_kana":"トウキョウト","city":"新宿区","city_kana":"シンジュクク","town":"西新宿新宿センタービル　１３階","town_kana":"ニシシンジュクシンジュクセンタービル13カイ","prefecture_code":13},"0614":{"zip_code":"1630614","prefecture":"東京都","prefecture_kana":"トウキョウト","city":"新宿区","city_kana":"シンジュクク","town":"西新宿新宿センタービル　１４階","town_kana":"ニシシンジュクシンジュクセンタービル14カイ","prefecture_code":13},"0615":{"zip_code":"1630615","prefecture":"東京都","prefecture_kana":"トウキョウト","city":"新宿区","city_kana":"シンジュクク","town":"西新宿新宿センタービル　１５階","town_kana":"ニシシンジュクシンジュクセンタービル15カイ","prefecture_code":13},"0616":{"zip_code":"1630616","prefecture":"東京都","prefecture_kana":"トウキョウト","city":"新宿区","city_kana":"シンジュクク","town":"西新宿新宿センタービル　１６階","town_kana":"ニシシンジュクシンジュクセンタービル16カイ","prefecture_code":13},"0617":{"zip_code":"1630617","prefecture":"東京都","prefecture_kana":"トウキョウト","city":"新宿区","city_kana":"シンジュクク","town":"西新宿新宿センタービル　１７階","town_kana":"ニシシンジュクシンジュクセンタービル17カイ","prefecture_code":13},"0618":{"zip_code":"1630618","prefecture":"東京都","prefecture_kana":"トウキョウト","city":"新宿区","city_kana":"シンジュクク","town":"西新宿新宿センタービル　１８階","town_kana":"ニシシンジュクシンジュクセンタービル18カイ","prefecture_code":13},"0619":{"zip_code":"1630619","prefecture":"東京都","prefecture_kana":"トウキョウト","city":"新宿区","city_kana":"シンジュクク","town":"西新宿新宿センタービル　１９階","town_kana":"ニシシンジュクシンジュクセンタービル19カイ","prefecture_code":13},"0620":{"zip_code":"1630620","prefecture":"東京都","prefecture_kana":"トウキョウト","city":"新宿区","city_kana":"シンジュクク","town":"西新宿新宿センタービル　２０階","town_kana":"ニシシンジュクシンジュクセンタービル20カイ","prefecture_code":13},"0621":{"zip_code":"1630621","prefecture":"東京都","prefecture_kana":"トウキョウト","city":"新宿区","city_kana":"シンジュクク","town":"西新宿新宿センタービル　２１階","town_kana":"ニシシンジュクシンジュクセンタービル21カイ","prefecture_code":13},"0622":{"zip_code":"1630622","prefecture":"東京都","prefecture_kana":"トウキョウト","city":"新宿区","city_kana":"シンジュクク","town":"西新宿新宿センタービル　２２階","town_kana":"ニシシンジュクシンジュクセンタービル22カイ","prefecture_code":13},"0623":{"zip_code":"1630623","prefecture":"東京都","prefecture_kana":"トウキョウト","city":"新宿区","city_kana":"シンジュクク","town":"西新宿新宿センタービル　２３階","town_kana":"ニシシンジュクシンジュクセンタービル23カイ","prefecture_code":13},"0624":{"zip_code":"1630624","prefecture":"東京都","prefecture_kana":"トウキョウト","city":"新宿区","city_kana":"シンジュクク","town":"西新宿新宿センタービル　２４階","town_kana":"ニシシンジュクシンジュクセンタービル24カイ","prefecture_code":13},"0625":{"zip_code":"1630625","prefecture":"東京都","prefecture_kana":"トウキョウト","city":"新宿区","city_kana":"シンジュクク","town":"西新宿新宿センタービル　２５階","town_kana":"ニシシンジュクシンジュクセンタービル25カイ","prefecture_code":13},"0626":{"zip_code":"1630626","prefecture":"東京都","prefecture_kana":"トウキョウト","city":"新宿区","city_kana":"シンジュクク","town":"西新宿新宿センタービル　２６階","town_kana":"ニシシンジュクシンジュクセンタービル26カイ","prefecture_code":13},"0627":{"zip_code":"1630627","prefecture":"東京都","prefecture_kana":"トウキョウト","city":"新宿区","city_kana":"シンジュクク","town":"西新宿新宿センタービル　２７階","town_kana":"ニシシンジュクシンジュクセンタービル27カイ","prefecture_code":13},"0628":{"zip_code":"1630628","prefecture":"東京都","prefecture_kana":"トウキョウト","city":"新宿区","city_kana":"シンジュクク","town":"西新宿新宿センタービル　２８階","town_kana":"ニシシンジュクシンジュクセンタービル28カイ","prefecture_code":13},"0629":{"zip_code":"1630629","prefecture":"東京都","prefecture_kana":"トウキョウト","city":"新宿区","city_kana":"シンジュクク","town":"西新宿新宿センタービル　２９階","town_kana":"ニシシンジュクシンジュクセンタービル29カイ","prefecture_code":13},"0630":{"zip_code":"1630630","prefecture":"東京都","prefecture_kana":"トウキョウト","city":"新宿区","city_kana":"シンジュクク","town":"西新宿新宿センタービル　３０階","town_kana":"ニシシンジュクシンジュクセンタービル30カイ","prefecture_code":13},"0631":{"zip_code":"1630631","prefecture":"東京都","prefecture_kana":"トウキョウト","city":"新宿区","city_kana":"シンジュクク","town":"西新宿新宿センタービル　３１階","town_kana":"ニシシンジュクシンジュクセンタービル31カイ","prefecture_code":13},"0632":{"zip_code":"1630632","prefecture":"東京都","prefecture_kana":"トウキョウト","city":"新宿区","city_kana":"シンジュクク","town":"西新宿新宿センタービル　３２階","town_kana":"ニシシンジュクシンジュクセンタービル32カイ","prefecture_code":13},"0633":{"zip_code":"1630633","prefecture":"東京都","prefecture_kana":"トウキョウト","city":"新宿区","city_kana":"シンジュクク","town":"西新宿新宿センタービル　３３階","town_kana":"ニシシンジュクシンジュクセンタービル33カイ","prefecture_code":13},"0634":{"zip_code":"1630634","prefecture":"東京都","prefecture_kana":"トウキョウト","city":"新宿区","city_kana":"シンジュクク","town":"西新宿新宿センタービル　３４階","town_kana":"ニシシンジュクシンジュクセンタービル34カイ","prefecture_code":13},"0635":{"zip_code":"1630635","prefecture":"東京都","prefecture_kana":"トウキョウト","city":"新宿区","city_kana":"シンジュクク","town":"西新宿新宿センタービル　３５階","town_kana":"ニシシンジュクシンジュクセンタービル35カイ","prefecture_code":13},"0636":{"zip_code":"1630636","prefecture":"東京都","prefecture_kana":"トウキョウト","city":"新宿区","city_kana":"シンジュクク","town":"西新宿新宿センタービル　３６階","town_kana":"ニシシンジュクシンジュクセンタービル36カイ","prefecture_code":13},"0637":{"zip_code":"1630637","prefecture":"東京都","prefecture_kana":"トウキョウト","city":"新宿区","city_kana":"シンジュクク","town":"西新宿新宿センタービル　３７階","town_kana":"ニシシンジュクシンジュクセンタービル37カイ","prefecture_code":13},"0638":{"zip_code":"1630638","prefecture":"東京都","prefecture_kana":"トウキョウト","city":"新宿区","city_kana":"シンジュクク","town":"西新宿新宿センタービル　３８階","town_kana":"ニシシンジュクシンジュクセンタービル38カイ","prefecture_code":13},"0639":{"zip_code":"1630639","prefecture":"東京都","prefecture_kana":"トウキョウト","city":"新宿区","city_kana":"シンジュクク","town":"西新宿新宿センタービル　３９階","town_kana":"ニシシンジュクシンジュクセンタービル39カイ","prefecture_code":13},"0640":{"zip_code":"1630640","prefecture":"東京都","prefecture_kana":"トウキョウト","city":"新宿区","city_kana":"シンジュクク","town":"西新宿新宿センタービル　４０階","town_kana":"ニシシンジュクシンジュクセンタービル40カイ","prefecture_code":13},"0641":{"zip_code":"1630641","prefecture":"東京都","prefecture_kana":"トウキョウト","city":"新宿区","city_kana":"シンジュクク","town":"西新宿新宿センタービル　４１階","town_kana":"ニシシンジュクシンジュクセンタービル41カイ","prefecture_code":13},"0642":{"zip_code":"1630642","prefecture":"東京都","prefecture_kana":"トウキョウト","city":"新宿区","city_kana":"シンジュクク","town":"西新宿新宿センタービル　４２階","town_kana":"ニシシンジュクシンジュクセンタービル42カイ","prefecture_code":13},"0643":{"zip_code":"1630643","prefecture":"東京都","prefecture_kana":"トウキョウト","city":"新宿区","city_kana":"シンジュクク","town":"西新宿新宿センタービル　４３階","town_kana":"ニシシンジュクシンジュクセンタービル43カイ","prefecture_code":13},"0644":{"zip_code":"1630644","prefecture":"東京都","prefecture_kana":"トウキョウト","city":"新宿区","city_kana":"シンジュクク","town":"西新宿新宿センタービル　４４階","town_kana":"ニシシンジュクシンジュクセンタービル44カイ","prefecture_code":13},"0645":{"zip_code":"1630645","prefecture":"東京都","prefecture_kana":"トウキョウト","city":"新宿区","city_kana":"シンジュクク","town":"西新宿新宿センタービル　４５階","town_kana":"ニシシンジュクシンジュクセンタービル45カイ","prefecture_code":13},"0646":{"zip_code":"1630646","prefecture":"東京都","prefecture_kana":"トウキョウト","city":"新宿区","city_kana":"シンジュクク","town":"西新宿新宿センタービル　４６階","town_kana":"ニシシンジュクシンジュクセンタービル46カイ","prefecture_code":13},"0647":{"zip_code":"1630647","prefecture":"東京都","prefecture_kana":"トウキョウト","city":"新宿区","city_kana":"シンジュクク","town":"西新宿新宿センタービル　４７階","town_kana":"ニシシンジュクシンジュクセンタービル47カイ","prefecture_code":13},"0648":{"zip_code":"1630648","prefecture":"東京都","prefecture_kana":"トウキョウト","city":"新宿区","city_kana":"シンジュクク","town":"西新宿新宿センタービル　４８階","town_kana":"ニシシンジュクシンジュクセンタービル48カイ","prefecture_code":13},"0649":{"zip_code":"1630649","prefecture":"東京都","prefecture_kana":"トウキョウト","city":"新宿区","city_kana":"シンジュクク","town":"西新宿新宿センタービル　４９階","town_kana":"ニシシンジュクシンジュクセンタービル49カイ","prefecture_code":13},"0650":{"zip_code":"1630650","prefecture":"東京都","prefecture_kana":"トウキョウト","city":"新宿区","city_kana":"シンジュクク","town":"西新宿新宿センタービル　５０階","town_kana":"ニシシンジュクシンジュクセンタービル50カイ","prefecture_code":13},"0651":{"zip_code":"1630651","prefecture":"東京都","prefecture_kana":"トウキョウト","city":"新宿区","city_kana":"シンジュクク","town":"西新宿新宿センタービル　５１階","town_kana":"ニシシンジュクシンジュクセンタービル51カイ","prefecture_code":13},"0652":{"zip_code":"1630652","prefecture":"東京都","prefecture_kana":"トウキョウト","city":"新宿区","city_kana":"シンジュクク","town":"西新宿新宿センタービル　５２階","town_kana":"ニシシンジュクシンジュクセンタービル52カイ","prefecture_code":13},"0653":{"zip_code":"1630653","prefecture":"東京都","prefecture_kana":"トウキョウト","city":"新宿区","city_kana":"シンジュクク","town":"西新宿新宿センタービル　５３階","town_kana":"ニシシンジュクシンジュクセンタービル53カイ","prefecture_code":13},"0654":{"zip_code":"1630654","prefecture":"東京都","prefecture_kana":"トウキョウト","city":"新宿区","city_kana":"シンジュクク","town":"西新宿新宿センタービル　５４階","town_kana":"ニシシンジュクシンジュクセンタービル54カイ","prefecture_code":13},"0590":{"zip_code":"1630590","prefecture":"東京都","prefecture_kana":"トウキョウト","city":"新宿区","city_kana":"シンジュクク","town":"西新宿新宿野村ビル","town_kana":"ニシシンジュクシンジュクノムラビル","prefecture_code":13},"0501":{"zip_code":"1630501","prefecture":"東京都","prefecture_kana":"トウキョウト","city":"新宿区","city_kana":"シンジュクク","town":"西新宿新宿野村ビル　１階","town_kana":"ニシシンジュクシンジュクノムラビル1カイ","prefecture_code":13},"0502":{"zip_code":"1630502","prefecture":"東京都","prefecture_kana":"トウキョウト","city":"新宿区","city_kana":"シンジュクク","town":"西新宿新宿野村ビル　２階","town_kana":"ニシシンジュクシンジュクノムラビル2カイ","prefecture_code":13},"0503":{"zip_code":"1630503","prefecture":"東京都","prefecture_kana":"トウキョウト","city":"新宿区","city_kana":"シンジュクク","town":"西新宿新宿野村ビル　３階","town_kana":"ニシシンジュクシンジュクノムラビル3カイ","prefecture_code":13},"0504":{"zip_code":"1630504","prefecture":"東京都","prefecture_kana":"トウキョウト","city":"新宿区","city_kana":"シンジュクク","town":"西新宿新宿野村ビル　４階","town_kana":"ニシシンジュクシンジュクノムラビル4カイ","prefecture_code":13},"0505":{"zip_code":"1630505","prefecture":"東京都","prefecture_kana":"トウキョウト","city":"新宿区","city_kana":"シンジュクク","town":"西新宿新宿野村ビル　５階","town_kana":"ニシシンジュクシンジュクノムラビル5カイ","prefecture_code":13},"0506":{"zip_code":"1630506","prefecture":"東京都","prefecture_kana":"トウキョウト","city":"新宿区","city_kana":"シンジュクク","town":"西新宿新宿野村ビル　６階","town_kana":"ニシシンジュクシンジュクノムラビル6カイ","prefecture_code":13},"0507":{"zip_code":"1630507","prefecture":"東京都","prefecture_kana":"トウキョウト","city":"新宿区","city_kana":"シンジュクク","town":"西新宿新宿野村ビル　７階","town_kana":"ニシシンジュクシンジュクノムラビル7カイ","prefecture_code":13},"0508":{"zip_code":"1630508","prefecture":"東京都","prefecture_kana":"トウキョウト","city":"新宿区","city_kana":"シンジュクク","town":"西新宿新宿野村ビル　８階","town_kana":"ニシシンジュクシンジュクノムラビル8カイ","prefecture_code":13},"0509":{"zip_code":"1630509","prefecture":"東京都","prefecture_kana":"トウキョウト","city":"新宿区","city_kana":"シンジュクク","town":"西新宿新宿野村ビル　９階","town_kana":"ニシシンジュクシンジュクノムラビル9カイ","prefecture_code":13},"0510":{"zip_code":"1630510","prefecture":"東京都","prefecture_kana":"トウキョウト","city":"新宿区","city_kana":"シンジュクク","town":"西新宿新宿野村ビル　１０階","town_kana":"ニシシンジュクシンジュクノムラビル10カイ","prefecture_code":13},"0511":{"zip_code":"1630511","prefecture":"東京都","prefecture_kana":"トウキョウト","city":"新宿区","city_kana":"シンジュクク","town":"西新宿新宿野村ビル　１１階","town_kana":"ニシシンジュクシンジュクノムラビル11カイ","prefecture_code":13},"0512":{"zip_code":"1630512","prefecture":"東京都","prefecture_kana":"トウキョウト","city":"新宿区","city_kana":"シンジュクク","town":"西新宿新宿野村ビル　１２階","town_kana":"ニシシンジュクシンジュクノムラビル12カイ","prefecture_code":13},"0513":{"zip_code":"1630513","prefecture":"東京都","prefecture_kana":"トウキョウト","city":"新宿区","city_kana":"シンジュクク","town":"西新宿新宿野村ビル　１３階","town_kana":"ニシシンジュクシンジュクノムラビル13カイ","prefecture_code":13},"0514":{"zip_code":"1630514","prefecture":"東京都","prefecture_kana":"トウキョウト","city":"新宿区","city_kana":"シンジュクク","town":"西新宿新宿野村ビル　１４階","town_kana":"ニシシンジュクシンジュクノムラビル14カイ","prefecture_code":13},"0515":{"zip_code":"1630515","prefecture":"東京都","prefecture_kana":"トウキョウト","city":"新宿区","city_kana":"シンジュクク","town":"西新宿新宿野村ビル　１５階","town_kana":"ニシシンジュクシンジュクノムラビル15カイ","prefecture_code":13},"0516":{"zip_code":"1630516","prefecture":"東京都","prefecture_kana":"トウキョウト","city":"新宿区","city_kana":"シンジュクク","town":"西新宿新宿野村ビル　１６階","town_kana":"ニシシンジュクシンジュクノムラビル16カイ","prefecture_code":13},"0517":{"zip_code":"1630517","prefecture":"東京都","prefecture_kana":"トウキョウト","city":"新宿区","city_kana":"シンジュクク","town":"西新宿新宿野村ビル　１７階","town_kana":"ニシシンジュクシンジュクノムラビル17カイ","prefecture_code":13},"0518":{"zip_code":"1630518","prefecture":"東京都","prefecture_kana":"トウキョウト","city":"新宿区","city_kana":"シンジュクク","town":"西新宿新宿野村ビル　１８階","town_kana":"ニシシンジュクシンジュクノムラビル18カイ","prefecture_code":13},"0519":{"zip_code":"1630519","prefecture":"東京都","prefecture_kana":"トウキョウト","city":"新宿区","city_kana":"シンジュクク","town":"西新宿新宿野村ビル　１９階","town_kana":"ニシシンジュクシンジュクノムラビル19カイ","prefecture_code":13},"0520":{"zip_code":"1630520","prefecture":"東京都","prefecture_kana":"トウキョウト","city":"新宿区","city_kana":"シンジュクク","town":"西新宿新宿野村ビル　２０階","town_kana":"ニシシンジュクシンジュクノムラビル20カイ","prefecture_code":13},"0521":{"zip_code":"1630521","prefecture":"東京都","prefecture_kana":"トウキョウト","city":"新宿区","city_kana":"シンジュクク","town":"西新宿新宿野村ビル　２１階","town_kana":"ニシシンジュクシンジュクノムラビル21カイ","prefecture_code":13},"0522":{"zip_code":"1630522","prefecture":"東京都","prefecture_kana":"トウキョウト","city":"新宿区","city_kana":"シンジュクク","town":"西新宿新宿野村ビル　２２階","town_kana":"ニシシンジュクシンジュクノムラビル22カイ","prefecture_code":13},"0523":{"zip_code":"1630523","prefecture":"東京都","prefecture_kana":"トウキョウト","city":"新宿区","city_kana":"シンジュクク","town":"西新宿新宿野村ビル　２３階","town_kana":"ニシシンジュクシンジュクノムラビル23カイ","prefecture_code":13},"0524":{"zip_code":"1630524","prefecture":"東京都","prefecture_kana":"トウキョウト","city":"新宿区","city_kana":"シンジュクク","town":"西新宿新宿野村ビル　２４階","town_kana":"ニシシンジュクシンジュクノムラビル24カイ","prefecture_code":13},"0525":{"zip_code":"1630525","prefecture":"東京都","prefecture_kana":"トウキョウト","city":"新宿区","city_kana":"シンジュクク","town":"西新宿新宿野村ビル　２５階","town_kana":"ニシシンジュクシンジュクノムラビル25カイ","prefecture_code":13},"0526":{"zip_code":"1630526","prefecture":"東京都","prefecture_kana":"トウキョウト","city":"新宿区","city_kana":"シンジュクク","town":"西新宿新宿野村ビル　２６階","town_kana":"ニシシンジュクシンジュクノムラビル26カイ","prefecture_code":13},"0527":{"zip_code":"1630527","prefecture":"東京都","prefecture_kana":"トウキョウト","city":"新宿区","city_kana":"シンジュクク","town":"西新宿新宿野村ビル　２７階","town_kana":"ニシシンジュクシンジュクノムラビル27カイ","prefecture_code":13},"0528":{"zip_code":"1630528","prefecture":"東京都","prefecture_kana":"トウキョウト","city":"新宿区","city_kana":"シンジュクク","town":"西新宿新宿野村ビル　２８階","town_kana":"ニシシンジュクシンジュクノムラビル28カイ","prefecture_code":13},"0529":{"zip_code":"1630529","prefecture":"東京都","prefecture_kana":"トウキョウト","city":"新宿区","city_kana":"シンジュクク","town":"西新宿新宿野村ビル　２９階","town_kana":"ニシシンジュクシンジュクノムラビル29カイ","prefecture_code":13},"0530":{"zip_code":"1630530","prefecture":"東京都","prefecture_kana":"トウキョウト","city":"新宿区","city_kana":"シンジュクク","town":"西新宿新宿野村ビル　３０階","town_kana":"ニシシンジュクシンジュクノムラビル30カイ","prefecture_code":13},"0531":{"zip_code":"1630531","prefecture":"東京都","prefecture_kana":"トウキョウト","city":"新宿区","city_kana":"シンジュクク","town":"西新宿新宿野村ビル　３１階","town_kana":"ニシシンジュクシンジュクノムラビル31カイ","prefecture_code":13},"0532":{"zip_code":"1630532","prefecture":"東京都","prefecture_kana":"トウキョウト","city":"新宿区","city_kana":"シンジュクク","town":"西新宿新宿野村ビル　３２階","town_kana":"ニシシンジュクシンジュクノムラビル32カイ","prefecture_code":13},"0533":{"zip_code":"1630533","prefecture":"東京都","prefecture_kana":"トウキョウト","city":"新宿区","city_kana":"シンジュクク","town":"西新宿新宿野村ビル　３３階","town_kana":"ニシシンジュクシンジュクノムラビル33カイ","prefecture_code":13},"0534":{"zip_code":"1630534","prefecture":"東京都","prefecture_kana":"トウキョウト","city":"新宿区","city_kana":"シンジュクク","town":"西新宿新宿野村ビル　３４階","town_kana":"ニシシンジュクシンジュクノムラビル34カイ","prefecture_code":13},"0535":{"zip_code":"1630535","prefecture":"東京都","prefecture_kana":"トウキョウト","city":"新宿区","city_kana":"シンジュクク","town":"西新宿新宿野村ビル　３５階","town_kana":"ニシシンジュクシンジュクノムラビル35カイ","prefecture_code":13},"0536":{"zip_code":"1630536","prefecture":"東京都","prefecture_kana":"トウキョウト","city":"新宿区","city_kana":"シンジュクク","town":"西新宿新宿野村ビル　３６階","town_kana":"ニシシンジュクシンジュクノムラビル36カイ","prefecture_code":13},"0537":{"zip_code":"1630537","prefecture":"東京都","prefecture_kana":"トウキョウト","city":"新宿区","city_kana":"シンジュクク","town":"西新宿新宿野村ビル　３７階","town_kana":"ニシシンジュクシンジュクノムラビル37カイ","prefecture_code":13},"0538":{"zip_code":"1630538","prefecture":"東京都","prefecture_kana":"トウキョウト","city":"新宿区","city_kana":"シンジュクク","town":"西新宿新宿野村ビル　３８階","town_kana":"ニシシンジュクシンジュクノムラビル38カイ","prefecture_code":13},"0539":{"zip_code":"1630539","prefecture":"東京都","prefecture_kana":"トウキョウト","city":"新宿区","city_kana":"シンジュクク","town":"西新宿新宿野村ビル　３９階","town_kana":"ニシシンジュクシンジュクノムラビル39カイ","prefecture_code":13},"0540":{"zip_code":"1630540","prefecture":"東京都","prefecture_kana":"トウキョウト","city":"新宿区","city_kana":"シンジュクク","town":"西新宿新宿野村ビル　４０階","town_kana":"ニシシンジュクシンジュクノムラビル40カイ","prefecture_code":13},"0541":{"zip_code":"1630541","prefecture":"東京都","prefecture_kana":"トウキョウト","city":"新宿区","city_kana":"シンジュクク","town":"西新宿新宿野村ビル　４１階","town_kana":"ニシシンジュクシンジュクノムラビル41カイ","prefecture_code":13},"0542":{"zip_code":"1630542","prefecture":"東京都","prefecture_kana":"トウキョウト","city":"新宿区","city_kana":"シンジュクク","town":"西新宿新宿野村ビル　４２階","town_kana":"ニシシンジュクシンジュクノムラビル42カイ","prefecture_code":13},"0543":{"zip_code":"1630543","prefecture":"東京都","prefecture_kana":"トウキョウト","city":"新宿区","city_kana":"シンジュクク","town":"西新宿新宿野村ビル　４３階","town_kana":"ニシシンジュクシンジュクノムラビル43カイ","prefecture_code":13},"0544":{"zip_code":"1630544","prefecture":"東京都","prefecture_kana":"トウキョウト","city":"新宿区","city_kana":"シンジュクク","town":"西新宿新宿野村ビル　４４階","town_kana":"ニシシンジュクシンジュクノムラビル44カイ","prefecture_code":13},"0545":{"zip_code":"1630545","prefecture":"東京都","prefecture_kana":"トウキョウト","city":"新宿区","city_kana":"シンジュクク","town":"西新宿新宿野村ビル　４５階","town_kana":"ニシシンジュクシンジュクノムラビル45カイ","prefecture_code":13},"0546":{"zip_code":"1630546","prefecture":"東京都","prefecture_kana":"トウキョウト","city":"新宿区","city_kana":"シンジュクク","town":"西新宿新宿野村ビル　４６階","town_kana":"ニシシンジュクシンジュクノムラビル46カイ","prefecture_code":13},"0547":{"zip_code":"1630547","prefecture":"東京都","prefecture_kana":"トウキョウト","city":"新宿区","city_kana":"シンジュクク","town":"西新宿新宿野村ビル　４７階","town_kana":"ニシシンジュクシンジュクノムラビル47カイ","prefecture_code":13},"0548":{"zip_code":"1630548","prefecture":"東京都","prefecture_kana":"トウキョウト","city":"新宿区","city_kana":"シンジュクク","town":"西新宿新宿野村ビル　４８階","town_kana":"ニシシンジュクシンジュクノムラビル48カイ","prefecture_code":13},"0549":{"zip_code":"1630549","prefecture":"東京都","prefecture_kana":"トウキョウト","city":"新宿区","city_kana":"シンジュクク","town":"西新宿新宿野村ビル　４９階","town_kana":"ニシシンジュクシンジュクノムラビル49カイ","prefecture_code":13},"0550":{"zip_code":"1630550","prefecture":"東京都","prefecture_kana":"トウキョウト","city":"新宿区","city_kana":"シンジュクク","town":"西新宿新宿野村ビル　５０階","town_kana":"ニシシンジュクシンジュクノムラビル50カイ","prefecture_code":13},"1090":{"zip_code":"1631090","prefecture":"東京都","prefecture_kana":"トウキョウト","city":"新宿区","city_kana":"シンジュクク","town":"西新宿新宿パークタワー","town_kana":"ニシシンジュクシンジュクパークタワー","prefecture_code":13},"1001":{"zip_code":"1631001","prefecture":"東京都","prefecture_kana":"トウキョウト","city":"新宿区","city_kana":"シンジュクク","town":"西新宿新宿パークタワー　１階","town_kana":"ニシシンジュクシンジュクパークタワー1カイ","prefecture_code":13},"1002":{"zip_code":"1631002","prefecture":"東京都","prefecture_kana":"トウキョウト","city":"新宿区","city_kana":"シンジュクク","town":"西新宿新宿パークタワー　２階","town_kana":"ニシシンジュクシンジュクパークタワー2カイ","prefecture_code":13},"1003":{"zip_code":"1631003","prefecture":"東京都","prefecture_kana":"トウキョウト","city":"新宿区","city_kana":"シンジュクク","town":"西新宿新宿パークタワー　３階","town_kana":"ニシシンジュクシンジュクパークタワー3カイ","prefecture_code":13},"1004":{"zip_code":"1631004","prefecture":"東京都","prefecture_kana":"トウキョウト","city":"新宿区","city_kana":"シンジュクク","town":"西新宿新宿パークタワー　４階","town_kana":"ニシシンジュクシンジュクパークタワー4カイ","prefecture_code":13},"1005":{"zip_code":"1631005","prefecture":"東京都","prefecture_kana":"トウキョウト","city":"新宿区","city_kana":"シンジュクク","town":"西新宿新宿パークタワー　５階","town_kana":"ニシシンジュクシンジュクパークタワー5カイ","prefecture_code":13},"1006":{"zip_code":"1631006","prefecture":"東京都","prefecture_kana":"トウキョウト","city":"新宿区","city_kana":"シンジュクク","town":"西新宿新宿パークタワー　６階","town_kana":"ニシシンジュクシンジュクパークタワー6カイ","prefecture_code":13},"1007":{"zip_code":"1631007","prefecture":"東京都","prefecture_kana":"トウキョウト","city":"新宿区","city_kana":"シンジュクク","town":"西新宿新宿パークタワー　７階","town_kana":"ニシシンジュクシンジュクパークタワー7カイ","prefecture_code":13},"1008":{"zip_code":"1631008","prefecture":"東京都","prefecture_kana":"トウキョウト","city":"新宿区","city_kana":"シンジュクク","town":"西新宿新宿パークタワー　８階","town_kana":"ニシシンジュクシンジュクパークタワー8カイ","prefecture_code":13},"1009":{"zip_code":"1631009","prefecture":"東京都","prefecture_kana":"トウキョウト","city":"新宿区","city_kana":"シンジュクク","town":"西新宿新宿パークタワー　９階","town_kana":"ニシシンジュクシンジュクパークタワー9カイ","prefecture_code":13},"1010":{"zip_code":"1631010","prefecture":"東京都","prefecture_kana":"トウキョウト","city":"新宿区","city_kana":"シンジュクク","town":"西新宿新宿パークタワー　１０階","town_kana":"ニシシンジュクシンジュクパークタワー10カイ","prefecture_code":13},"1011":{"zip_code":"1631011","prefecture":"東京都","prefecture_kana":"トウキョウト","city":"新宿区","city_kana":"シンジュクク","town":"西新宿新宿パークタワー　１１階","town_kana":"ニシシンジュクシンジュクパークタワー11カイ","prefecture_code":13},"1012":{"zip_code":"1631012","prefecture":"東京都","prefecture_kana":"トウキョウト","city":"新宿区","city_kana":"シンジュクク","town":"西新宿新宿パークタワー　１２階","town_kana":"ニシシンジュクシンジュクパークタワー12カイ","prefecture_code":13},"1013":{"zip_code":"1631013","prefecture":"東京都","prefecture_kana":"トウキョウト","city":"新宿区","city_kana":"シンジュクク","town":"西新宿新宿パークタワー　１３階","town_kana":"ニシシンジュクシンジュクパークタワー13カイ","prefecture_code":13},"1014":{"zip_code":"1631014","prefecture":"東京都","prefecture_kana":"トウキョウト","city":"新宿区","city_kana":"シンジュクク","town":"西新宿新宿パークタワー　１４階","town_kana":"ニシシンジュクシンジュクパークタワー14カイ","prefecture_code":13},"1015":{"zip_code":"1631015","prefecture":"東京都","prefecture_kana":"トウキョウト","city":"新宿区","city_kana":"シンジュクク","town":"西新宿新宿パークタワー　１５階","town_kana":"ニシシンジュクシンジュクパークタワー15カイ","prefecture_code":13},"1016":{"zip_code":"1631016","prefecture":"東京都","prefecture_kana":"トウキョウト","city":"新宿区","city_kana":"シンジュクク","town":"西新宿新宿パークタワー　１６階","town_kana":"ニシシンジュクシンジュクパークタワー16カイ","prefecture_code":13},"1017":{"zip_code":"1631017","prefecture":"東京都","prefecture_kana":"トウキョウト","city":"新宿区","city_kana":"シンジュクク","town":"西新宿新宿パークタワー　１７階","town_kana":"ニシシンジュクシンジュクパークタワー17カイ","prefecture_code":13},"1018":{"zip_code":"1631018","prefecture":"東京都","prefecture_kana":"トウキョウト","city":"新宿区","city_kana":"シンジュクク","town":"西新宿新宿パークタワー　１８階","town_kana":"ニシシンジュクシンジュクパークタワー18カイ","prefecture_code":13},"1019":{"zip_code":"1631019","prefecture":"東京都","prefecture_kana":"トウキョウト","city":"新宿区","city_kana":"シンジュクク","town":"西新宿新宿パークタワー　１９階","town_kana":"ニシシンジュクシンジュクパークタワー19カイ","prefecture_code":13},"1020":{"zip_code":"1631020","prefecture":"東京都","prefecture_kana":"トウキョウト","city":"新宿区","city_kana":"シンジュクク","town":"西新宿新宿パークタワー　２０階","town_kana":"ニシシンジュクシンジュクパークタワー20カイ","prefecture_code":13},"1021":{"zip_code":"1631021","prefecture":"東京都","prefecture_kana":"トウキョウト","city":"新宿区","city_kana":"シンジュクク","town":"西新宿新宿パークタワー　２１階","town_kana":"ニシシンジュクシンジュクパークタワー21カイ","prefecture_code":13},"1022":{"zip_code":"1631022","prefecture":"東京都","prefecture_kana":"トウキョウト","city":"新宿区","city_kana":"シンジュクク","town":"西新宿新宿パークタワー　２２階","town_kana":"ニシシンジュクシンジュクパークタワー22カイ","prefecture_code":13},"1023":{"zip_code":"1631023","prefecture":"東京都","prefecture_kana":"トウキョウト","city":"新宿区","city_kana":"シンジュクク","town":"西新宿新宿パークタワー　２３階","town_kana":"ニシシンジュクシンジュクパークタワー23カイ","prefecture_code":13},"1024":{"zip_code":"1631024","prefecture":"東京都","prefecture_kana":"トウキョウト","city":"新宿区","city_kana":"シンジュクク","town":"西新宿新宿パークタワー　２４階","town_kana":"ニシシンジュクシンジュクパークタワー24カイ","prefecture_code":13},"1025":{"zip_code":"1631025","prefecture":"東京都","prefecture_kana":"トウキョウト","city":"新宿区","city_kana":"シンジュクク","town":"西新宿新宿パークタワー　２５階","town_kana":"ニシシンジュクシンジュクパークタワー25カイ","prefecture_code":13},"1026":{"zip_code":"1631026","prefecture":"東京都","prefecture_kana":"トウキョウト","city":"新宿区","city_kana":"シンジュクク","town":"西新宿新宿パークタワー　２６階","town_kana":"ニシシンジュクシンジュクパークタワー26カイ","prefecture_code":13},"1027":{"zip_code":"1631027","prefecture":"東京都","prefecture_kana":"トウキョウト","city":"新宿区","city_kana":"シンジュクク","town":"西新宿新宿パークタワー　２７階","town_kana":"ニシシンジュクシンジュクパークタワー27カイ","prefecture_code":13},"1028":{"zip_code":"1631028","prefecture":"東京都","prefecture_kana":"トウキョウト","city":"新宿区","city_kana":"シンジュクク","town":"西新宿新宿パークタワー　２８階","town_kana":"ニシシンジュクシンジュクパークタワー28カイ","prefecture_code":13},"1029":{"zip_code":"1631029","prefecture":"東京都","prefecture_kana":"トウキョウト","city":"新宿区","city_kana":"シンジュクク","town":"西新宿新宿パークタワー　２９階","town_kana":"ニシシンジュクシンジュクパークタワー29カイ","prefecture_code":13},"1030":{"zip_code":"1631030","prefecture":"東京都","prefecture_kana":"トウキョウト","city":"新宿区","city_kana":"シンジュクク","town":"西新宿新宿パークタワー　３０階","town_kana":"ニシシンジュクシンジュクパークタワー30カイ","prefecture_code":13},"1031":{"zip_code":"1631031","prefecture":"東京都","prefecture_kana":"トウキョウト","city":"新宿区","city_kana":"シンジュクク","town":"西新宿新宿パークタワー　３１階","town_kana":"ニシシンジュクシンジュクパークタワー31カイ","prefecture_code":13},"1032":{"zip_code":"1631032","prefecture":"東京都","prefecture_kana":"トウキョウト","city":"新宿区","city_kana":"シンジュクク","town":"西新宿新宿パークタワー　３２階","town_kana":"ニシシンジュクシンジュクパークタワー32カイ","prefecture_code":13},"1033":{"zip_code":"1631033","prefecture":"東京都","prefecture_kana":"トウキョウト","city":"新宿区","city_kana":"シンジュクク","town":"西新宿新宿パークタワー　３３階","town_kana":"ニシシンジュクシンジュクパークタワー33カイ","prefecture_code":13},"1034":{"zip_code":"1631034","prefecture":"東京都","prefecture_kana":"トウキョウト","city":"新宿区","city_kana":"シンジュクク","town":"西新宿新宿パークタワー　３４階","town_kana":"ニシシンジュクシンジュクパークタワー34カイ","prefecture_code":13},"1035":{"zip_code":"1631035","prefecture":"東京都","prefecture_kana":"トウキョウト","city":"新宿区","city_kana":"シンジュクク","town":"西新宿新宿パークタワー　３５階","town_kana":"ニシシンジュクシンジュクパークタワー35カイ","prefecture_code":13},"1036":{"zip_code":"1631036","prefecture":"東京都","prefecture_kana":"トウキョウト","city":"新宿区","city_kana":"シンジュクク","town":"西新宿新宿パークタワー　３６階","town_kana":"ニシシンジュクシンジュクパークタワー36カイ","prefecture_code":13},"1037":{"zip_code":"1631037","prefecture":"東京都","prefecture_kana":"トウキョウト","city":"新宿区","city_kana":"シンジュクク","town":"西新宿新宿パークタワー　３７階","town_kana":"ニシシンジュクシンジュクパークタワー37カイ","prefecture_code":13},"1038":{"zip_code":"1631038","prefecture":"東京都","prefecture_kana":"トウキョウト","city":"新宿区","city_kana":"シンジュクク","town":"西新宿新宿パークタワー　３８階","town_kana":"ニシシンジュクシンジュクパークタワー38カイ","prefecture_code":13},"1039":{"zip_code":"1631039","prefecture":"東京都","prefecture_kana":"トウキョウト","city":"新宿区","city_kana":"シンジュクク","town":"西新宿新宿パークタワー　３９階","town_kana":"ニシシンジュクシンジュクパークタワー39カイ","prefecture_code":13},"1040":{"zip_code":"1631040","prefecture":"東京都","prefecture_kana":"トウキョウト","city":"新宿区","city_kana":"シンジュクク","town":"西新宿新宿パークタワー　４０階","town_kana":"ニシシンジュクシンジュクパークタワー40カイ","prefecture_code":13},"1041":{"zip_code":"1631041","prefecture":"東京都","prefecture_kana":"トウキョウト","city":"新宿区","city_kana":"シンジュクク","town":"西新宿新宿パークタワー　４１階","town_kana":"ニシシンジュクシンジュクパークタワー41カイ","prefecture_code":13},"1042":{"zip_code":"1631042","prefecture":"東京都","prefecture_kana":"トウキョウト","city":"新宿区","city_kana":"シンジュクク","town":"西新宿新宿パークタワー　４２階","town_kana":"ニシシンジュクシンジュクパークタワー42カイ","prefecture_code":13},"1043":{"zip_code":"1631043","prefecture":"東京都","prefecture_kana":"トウキョウト","city":"新宿区","city_kana":"シンジュクク","town":"西新宿新宿パークタワー　４３階","town_kana":"ニシシンジュクシンジュクパークタワー43カイ","prefecture_code":13},"1044":{"zip_code":"1631044","prefecture":"東京都","prefecture_kana":"トウキョウト","city":"新宿区","city_kana":"シンジュクク","town":"西新宿新宿パークタワー　４４階","town_kana":"ニシシンジュクシンジュクパークタワー44カイ","prefecture_code":13},"1045":{"zip_code":"1631045","prefecture":"東京都","prefecture_kana":"トウキョウト","city":"新宿区","city_kana":"シンジュクク","town":"西新宿新宿パークタワー　４５階","town_kana":"ニシシンジュクシンジュクパークタワー45カイ","prefecture_code":13},"1046":{"zip_code":"1631046","prefecture":"東京都","prefecture_kana":"トウキョウト","city":"新宿区","city_kana":"シンジュクク","town":"西新宿新宿パークタワー　４６階","town_kana":"ニシシンジュクシンジュクパークタワー46カイ","prefecture_code":13},"1047":{"zip_code":"1631047","prefecture":"東京都","prefecture_kana":"トウキョウト","city":"新宿区","city_kana":"シンジュクク","town":"西新宿新宿パークタワー　４７階","town_kana":"ニシシンジュクシンジュクパークタワー47カイ","prefecture_code":13},"1048":{"zip_code":"1631048","prefecture":"東京都","prefecture_kana":"トウキョウト","city":"新宿区","city_kana":"シンジュクク","town":"西新宿新宿パークタワー　４８階","town_kana":"ニシシンジュクシンジュクパークタワー48カイ","prefecture_code":13},"1049":{"zip_code":"1631049","prefecture":"東京都","prefecture_kana":"トウキョウト","city":"新宿区","city_kana":"シンジュクク","town":"西新宿新宿パークタワー　４９階","town_kana":"ニシシンジュクシンジュクパークタワー49カイ","prefecture_code":13},"1050":{"zip_code":"1631050","prefecture":"東京都","prefecture_kana":"トウキョウト","city":"新宿区","city_kana":"シンジュクク","town":"西新宿新宿パークタワー　５０階","town_kana":"ニシシンジュクシンジュクパークタワー50カイ","prefecture_code":13},"1051":{"zip_code":"1631051","prefecture":"東京都","prefecture_kana":"トウキョウト","city":"新宿区","city_kana":"シンジュクク","town":"西新宿新宿パークタワー　５１階","town_kana":"ニシシンジュクシンジュクパークタワー51カイ","prefecture_code":13},"1052":{"zip_code":"1631052","prefecture":"東京都","prefecture_kana":"トウキョウト","city":"新宿区","city_kana":"シンジュクク","town":"西新宿新宿パークタワー　５２階","town_kana":"ニシシンジュクシンジュクパークタワー52カイ","prefecture_code":13},"0490":{"zip_code":"1630490","prefecture":"東京都","prefecture_kana":"トウキョウト","city":"新宿区","city_kana":"シンジュクク","town":"西新宿新宿三井ビル","town_kana":"ニシシンジュクシンジュクミツイビル","prefecture_code":13},"0401":{"zip_code":"1630401","prefecture":"東京都","prefecture_kana":"トウキョウト","city":"新宿区","city_kana":"シンジュクク","town":"西新宿新宿三井ビル　１階","town_kana":"ニシシンジュクシンジュクミツイビル1カイ","prefecture_code":13},"0402":{"zip_code":"1630402","prefecture":"東京都","prefecture_kana":"トウキョウト","city":"新宿区","city_kana":"シンジュクク","town":"西新宿新宿三井ビル　２階","town_kana":"ニシシンジュクシンジュクミツイビル2カイ","prefecture_code":13},"0403":{"zip_code":"1630403","prefecture":"東京都","prefecture_kana":"トウキョウト","city":"新宿区","city_kana":"シンジュクク","town":"西新宿新宿三井ビル　３階","town_kana":"ニシシンジュクシンジュクミツイビル3カイ","prefecture_code":13},"0404":{"zip_code":"1630404","prefecture":"東京都","prefecture_kana":"トウキョウト","city":"新宿区","city_kana":"シンジュクク","town":"西新宿新宿三井ビル　４階","town_kana":"ニシシンジュクシンジュクミツイビル4カイ","prefecture_code":13},"0405":{"zip_code":"1630405","prefecture":"東京都","prefecture_kana":"トウキョウト","city":"新宿区","city_kana":"シンジュクク","town":"西新宿新宿三井ビル　５階","town_kana":"ニシシンジュクシンジュクミツイビル5カイ","prefecture_code":13},"0406":{"zip_code":"1630406","prefecture":"東京都","prefecture_kana":"トウキョウト","city":"新宿区","city_kana":"シンジュクク","town":"西新宿新宿三井ビル　６階","town_kana":"ニシシンジュクシンジュクミツイビル6カイ","prefecture_code":13},"0407":{"zip_code":"1630407","prefecture":"東京都","prefecture_kana":"トウキョウト","city":"新宿区","city_kana":"シンジュクク","town":"西新宿新宿三井ビル　７階","town_kana":"ニシシンジュクシンジュクミツイビル7カイ","prefecture_code":13},"0408":{"zip_code":"1630408","prefecture":"東京都","prefecture_kana":"トウキョウト","city":"新宿区","city_kana":"シンジュクク","town":"西新宿新宿三井ビル　８階","town_kana":"ニシシンジュクシンジュクミツイビル8カイ","prefecture_code":13},"0409":{"zip_code":"1630409","prefecture":"東京都","prefecture_kana":"トウキョウト","city":"新宿区","city_kana":"シンジュクク","town":"西新宿新宿三井ビル　９階","town_kana":"ニシシンジュクシンジュクミツイビル9カイ","prefecture_code":13},"0410":{"zip_code":"1630410","prefecture":"東京都","prefecture_kana":"トウキョウト","city":"新宿区","city_kana":"シンジュクク","town":"西新宿新宿三井ビル　１０階","town_kana":"ニシシンジュクシンジュクミツイビル10カイ","prefecture_code":13},"0411":{"zip_code":"1630411","prefecture":"東京都","prefecture_kana":"トウキョウト","city":"新宿区","city_kana":"シンジュクク","town":"西新宿新宿三井ビル　１１階","town_kana":"ニシシンジュクシンジュクミツイビル11カイ","prefecture_code":13},"0412":{"zip_code":"1630412","prefecture":"東京都","prefecture_kana":"トウキョウト","city":"新宿区","city_kana":"シンジュクク","town":"西新宿新宿三井ビル　１２階","town_kana":"ニシシンジュクシンジュクミツイビル12カイ","prefecture_code":13},"0413":{"zip_code":"1630413","prefecture":"東京都","prefecture_kana":"トウキョウト","city":"新宿区","city_kana":"シンジュクク","town":"西新宿新宿三井ビル　１３階","town_kana":"ニシシンジュクシンジュクミツイビル13カイ","prefecture_code":13},"0414":{"zip_code":"1630414","prefecture":"東京都","prefecture_kana":"トウキョウト","city":"新宿区","city_kana":"シンジュクク","town":"西新宿新宿三井ビル　１４階","town_kana":"ニシシンジュクシンジュクミツイビル14カイ","prefecture_code":13},"0415":{"zip_code":"1630415","prefecture":"東京都","prefecture_kana":"トウキョウト","city":"新宿区","city_kana":"シンジュクク","town":"西新宿新宿三井ビル　１５階","town_kana":"ニシシンジュクシンジュクミツイビル15カイ","prefecture_code":13},"0416":{"zip_code":"1630416","prefecture":"東京都","prefecture_kana":"トウキョウト","city":"新宿区","city_kana":"シンジュクク","town":"西新宿新宿三井ビル　１６階","town_kana":"ニシシンジュクシンジュクミツイビル16カイ","prefecture_code":13},"0417":{"zip_code":"1630417","prefecture":"東京都","prefecture_kana":"トウキョウト","city":"新宿区","city_kana":"シンジュクク","town":"西新宿新宿三井ビル　１７階","town_kana":"ニシシンジュクシンジュクミツイビル17カイ","prefecture_code":13},"0418":{"zip_code":"1630418","prefecture":"東京都","prefecture_kana":"トウキョウト","city":"新宿区","city_kana":"シンジュクク","town":"西新宿新宿三井ビル　１８階","town_kana":"ニシシンジュクシンジュクミツイビル18カイ","prefecture_code":13},"0419":{"zip_code":"1630419","prefecture":"東京都","prefecture_kana":"トウキョウト","city":"新宿区","city_kana":"シンジュクク","town":"西新宿新宿三井ビル　１９階","town_kana":"ニシシンジュクシンジュクミツイビル19カイ","prefecture_code":13},"0420":{"zip_code":"1630420","prefecture":"東京都","prefecture_kana":"トウキョウト","city":"新宿区","city_kana":"シンジュクク","town":"西新宿新宿三井ビル　２０階","town_kana":"ニシシンジュクシンジュクミツイビル20カイ","prefecture_code":13},"0421":{"zip_code":"1630421","prefecture":"東京都","prefecture_kana":"トウキョウト","city":"新宿区","city_kana":"シンジュクク","town":"西新宿新宿三井ビル　２１階","town_kana":"ニシシンジュクシンジュクミツイビル21カイ","prefecture_code":13},"0422":{"zip_code":"1630422","prefecture":"東京都","prefecture_kana":"トウキョウト","city":"新宿区","city_kana":"シンジュクク","town":"西新宿新宿三井ビル　２２階","town_kana":"ニシシンジュクシンジュクミツイビル22カイ","prefecture_code":13},"0423":{"zip_code":"1630423","prefecture":"東京都","prefecture_kana":"トウキョウト","city":"新宿区","city_kana":"シンジュクク","town":"西新宿新宿三井ビル　２３階","town_kana":"ニシシンジュクシンジュクミツイビル23カイ","prefecture_code":13},"0424":{"zip_code":"1630424","prefecture":"東京都","prefecture_kana":"トウキョウト","city":"新宿区","city_kana":"シンジュクク","town":"西新宿新宿三井ビル　２４階","town_kana":"ニシシンジュクシンジュクミツイビル24カイ","prefecture_code":13},"0425":{"zip_code":"1630425","prefecture":"東京都","prefecture_kana":"トウキョウト","city":"新宿区","city_kana":"シンジュクク","town":"西新宿新宿三井ビル　２５階","town_kana":"ニシシンジュクシンジュクミツイビル25カイ","prefecture_code":13},"0426":{"zip_code":"1630426","prefecture":"東京都","prefecture_kana":"トウキョウト","city":"新宿区","city_kana":"シンジュクク","town":"西新宿新宿三井ビル　２６階","town_kana":"ニシシンジュクシンジュクミツイビル26カイ","prefecture_code":13},"0427":{"zip_code":"1630427","prefecture":"東京都","prefecture_kana":"トウキョウト","city":"新宿区","city_kana":"シンジュクク","town":"西新宿新宿三井ビル　２７階","town_kana":"ニシシンジュクシンジュクミツイビル27カイ","prefecture_code":13},"0428":{"zip_code":"1630428","prefecture":"東京都","prefecture_kana":"トウキョウト","city":"新宿区","city_kana":"シンジュクク","town":"西新宿新宿三井ビル　２８階","town_kana":"ニシシンジュクシンジュクミツイビル28カイ","prefecture_code":13},"0429":{"zip_code":"1630429","prefecture":"東京都","prefecture_kana":"トウキョウト","city":"新宿区","city_kana":"シンジュクク","town":"西新宿新宿三井ビル　２９階","town_kana":"ニシシンジュクシンジュクミツイビル29カイ","prefecture_code":13},"0430":{"zip_code":"1630430","prefecture":"東京都","prefecture_kana":"トウキョウト","city":"新宿区","city_kana":"シンジュクク","town":"西新宿新宿三井ビル　３０階","town_kana":"ニシシンジュクシンジュクミツイビル30カイ","prefecture_code":13},"0431":{"zip_code":"1630431","prefecture":"東京都","prefecture_kana":"トウキョウト","city":"新宿区","city_kana":"シンジュクク","town":"西新宿新宿三井ビル　３１階","town_kana":"ニシシンジュクシンジュクミツイビル31カイ","prefecture_code":13},"0432":{"zip_code":"1630432","prefecture":"東京都","prefecture_kana":"トウキョウト","city":"新宿区","city_kana":"シンジュクク","town":"西新宿新宿三井ビル　３２階","town_kana":"ニシシンジュクシンジュクミツイビル32カイ","prefecture_code":13},"0433":{"zip_code":"1630433","prefecture":"東京都","prefecture_kana":"トウキョウト","city":"新宿区","city_kana":"シンジュクク","town":"西新宿新宿三井ビル　３３階","town_kana":"ニシシンジュクシンジュクミツイビル33カイ","prefecture_code":13},"0434":{"zip_code":"1630434","prefecture":"東京都","prefecture_kana":"トウキョウト","city":"新宿区","city_kana":"シンジュクク","town":"西新宿新宿三井ビル　３４階","town_kana":"ニシシンジュクシンジュクミツイビル34カイ","prefecture_code":13},"0435":{"zip_code":"1630435","prefecture":"東京都","prefecture_kana":"トウキョウト","city":"新宿区","city_kana":"シンジュクク","town":"西新宿新宿三井ビル　３５階","town_kana":"ニシシンジュクシンジュクミツイビル35カイ","prefecture_code":13},"0436":{"zip_code":"1630436","prefecture":"東京都","prefecture_kana":"トウキョウト","city":"新宿区","city_kana":"シンジュクク","town":"西新宿新宿三井ビル　３６階","town_kana":"ニシシンジュクシンジュクミツイビル36カイ","prefecture_code":13},"0437":{"zip_code":"1630437","prefecture":"東京都","prefecture_kana":"トウキョウト","city":"新宿区","city_kana":"シンジュクク","town":"西新宿新宿三井ビル　３７階","town_kana":"ニシシンジュクシンジュクミツイビル37カイ","prefecture_code":13},"0438":{"zip_code":"1630438","prefecture":"東京都","prefecture_kana":"トウキョウト","city":"新宿区","city_kana":"シンジュクク","town":"西新宿新宿三井ビル　３８階","town_kana":"ニシシンジュクシンジュクミツイビル38カイ","prefecture_code":13},"0439":{"zip_code":"1630439","prefecture":"東京都","prefecture_kana":"トウキョウト","city":"新宿区","city_kana":"シンジュクク","town":"西新宿新宿三井ビル　３９階","town_kana":"ニシシンジュクシンジュクミツイビル39カイ","prefecture_code":13},"0440":{"zip_code":"1630440","prefecture":"東京都","prefecture_kana":"トウキョウト","city":"新宿区","city_kana":"シンジュクク","town":"西新宿新宿三井ビル　４０階","town_kana":"ニシシンジュクシンジュクミツイビル40カイ","prefecture_code":13},"0441":{"zip_code":"1630441","prefecture":"東京都","prefecture_kana":"トウキョウト","city":"新宿区","city_kana":"シンジュクク","town":"西新宿新宿三井ビル　４１階","town_kana":"ニシシンジュクシンジュクミツイビル41カイ","prefecture_code":13},"0442":{"zip_code":"1630442","prefecture":"東京都","prefecture_kana":"トウキョウト","city":"新宿区","city_kana":"シンジュクク","town":"西新宿新宿三井ビル　４２階","town_kana":"ニシシンジュクシンジュクミツイビル42カイ","prefecture_code":13},"0443":{"zip_code":"1630443","prefecture":"東京都","prefecture_kana":"トウキョウト","city":"新宿区","city_kana":"シンジュクク","town":"西新宿新宿三井ビル　４３階","town_kana":"ニシシンジュクシンジュクミツイビル43カイ","prefecture_code":13},"0444":{"zip_code":"1630444","prefecture":"東京都","prefecture_kana":"トウキョウト","city":"新宿区","city_kana":"シンジュクク","town":"西新宿新宿三井ビル　４４階","town_kana":"ニシシンジュクシンジュクミツイビル44カイ","prefecture_code":13},"0445":{"zip_code":"1630445","prefecture":"東京都","prefecture_kana":"トウキョウト","city":"新宿区","city_kana":"シンジュクク","town":"西新宿新宿三井ビル　４５階","town_kana":"ニシシンジュクシンジュクミツイビル45カイ","prefecture_code":13},"0446":{"zip_code":"1630446","prefecture":"東京都","prefecture_kana":"トウキョウト","city":"新宿区","city_kana":"シンジュクク","town":"西新宿新宿三井ビル　４６階","town_kana":"ニシシンジュクシンジュクミツイビル46カイ","prefecture_code":13},"0447":{"zip_code":"1630447","prefecture":"東京都","prefecture_kana":"トウキョウト","city":"新宿区","city_kana":"シンジュクク","town":"西新宿新宿三井ビル　４７階","town_kana":"ニシシンジュクシンジュクミツイビル47カイ","prefecture_code":13},"0448":{"zip_code":"1630448","prefecture":"東京都","prefecture_kana":"トウキョウト","city":"新宿区","city_kana":"シンジュクク","town":"西新宿新宿三井ビル　４８階","town_kana":"ニシシンジュクシンジュクミツイビル48カイ","prefecture_code":13},"0449":{"zip_code":"1630449","prefecture":"東京都","prefecture_kana":"トウキョウト","city":"新宿区","city_kana":"シンジュクク","town":"西新宿新宿三井ビル　４９階","town_kana":"ニシシンジュクシンジュクミツイビル49カイ","prefecture_code":13},"0450":{"zip_code":"1630450","prefecture":"東京都","prefecture_kana":"トウキョウト","city":"新宿区","city_kana":"シンジュクク","town":"西新宿新宿三井ビル　５０階","town_kana":"ニシシンジュクシンジュクミツイビル50カイ","prefecture_code":13},"0451":{"zip_code":"1630451","prefecture":"東京都","prefecture_kana":"トウキョウト","city":"新宿区","city_kana":"シンジュクク","town":"西新宿新宿三井ビル　５１階","town_kana":"ニシシンジュクシンジュクミツイビル51カイ","prefecture_code":13},"0452":{"zip_code":"1630452","prefecture":"東京都","prefecture_kana":"トウキョウト","city":"新宿区","city_kana":"シンジュクク","town":"西新宿新宿三井ビル　５２階","town_kana":"ニシシンジュクシンジュクミツイビル52カイ","prefecture_code":13},"0453":{"zip_code":"1630453","prefecture":"東京都","prefecture_kana":"トウキョウト","city":"新宿区","city_kana":"シンジュクク","town":"西新宿新宿三井ビル　５３階","town_kana":"ニシシンジュクシンジュクミツイビル53カイ","prefecture_code":13},"0454":{"zip_code":"1630454","prefecture":"東京都","prefecture_kana":"トウキョウト","city":"新宿区","city_kana":"シンジュクク","town":"西新宿新宿三井ビル　５４階","town_kana":"ニシシンジュクシンジュクミツイビル54カイ","prefecture_code":13},"0455":{"zip_code":"1630455","prefecture":"東京都","prefecture_kana":"トウキョウト","city":"新宿区","city_kana":"シンジュクク","town":"西新宿新宿三井ビル　５５階","town_kana":"ニシシンジュクシンジュクミツイビル55カイ","prefecture_code":13},"0990":{"zip_code":"1630990","prefecture":"東京都","prefecture_kana":"トウキョウト","city":"新宿区","city_kana":"シンジュクク","town":"西新宿新宿モノリス","town_kana":"ニシシンジュクシンジュクモノリス","prefecture_code":13},"0901":{"zip_code":"1630901","prefecture":"東京都","prefecture_kana":"トウキョウト","city":"新宿区","city_kana":"シンジュクク","town":"西新宿新宿モノリス　１階","town_kana":"ニシシンジュクシンジュクモノリス1カイ","prefecture_code":13},"0902":{"zip_code":"1630902","prefecture":"東京都","prefecture_kana":"トウキョウト","city":"新宿区","city_kana":"シンジュクク","town":"西新宿新宿モノリス　２階","town_kana":"ニシシンジュクシンジュクモノリス2カイ","prefecture_code":13},"0903":{"zip_code":"1630903","prefecture":"東京都","prefecture_kana":"トウキョウト","city":"新宿区","city_kana":"シンジュクク","town":"西新宿新宿モノリス　３階","town_kana":"ニシシンジュクシンジュクモノリス3カイ","prefecture_code":13},"0904":{"zip_code":"1630904","prefecture":"東京都","prefecture_kana":"トウキョウト","city":"新宿区","city_kana":"シンジュクク","town":"西新宿新宿モノリス　４階","town_kana":"ニシシンジュクシンジュクモノリス4カイ","prefecture_code":13},"0905":{"zip_code":"1630905","prefecture":"東京都","prefecture_kana":"トウキョウト","city":"新宿区","city_kana":"シンジュクク","town":"西新宿新宿モノリス　５階","town_kana":"ニシシンジュクシンジュクモノリス5カイ","prefecture_code":13},"0906":{"zip_code":"1630906","prefecture":"東京都","prefecture_kana":"トウキョウト","city":"新宿区","city_kana":"シンジュクク","town":"西新宿新宿モノリス　６階","town_kana":"ニシシンジュクシンジュクモノリス6カイ","prefecture_code":13},"0907":{"zip_code":"1630907","prefecture":"東京都","prefecture_kana":"トウキョウト","city":"新宿区","city_kana":"シンジュクク","town":"西新宿新宿モノリス　７階","town_kana":"ニシシンジュクシンジュクモノリス7カイ","prefecture_code":13},"0908":{"zip_code":"1630908","prefecture":"東京都","prefecture_kana":"トウキョウト","city":"新宿区","city_kana":"シンジュクク","town":"西新宿新宿モノリス　８階","town_kana":"ニシシンジュクシンジュクモノリス8カイ","prefecture_code":13},"0909":{"zip_code":"1630909","prefecture":"東京都","prefecture_kana":"トウキョウト","city":"新宿区","city_kana":"シンジュクク","town":"西新宿新宿モノリス　９階","town_kana":"ニシシンジュクシンジュクモノリス9カイ","prefecture_code":13},"0910":{"zip_code":"1630910","prefecture":"東京都","prefecture_kana":"トウキョウト","city":"新宿区","city_kana":"シンジュクク","town":"西新宿新宿モノリス　１０階","town_kana":"ニシシンジュクシンジュクモノリス10カイ","prefecture_code":13},"0911":{"zip_code":"1630911","prefecture":"東京都","prefecture_kana":"トウキョウト","city":"新宿区","city_kana":"シンジュクク","town":"西新宿新宿モノリス　１１階","town_kana":"ニシシンジュクシンジュクモノリス11カイ","prefecture_code":13},"0912":{"zip_code":"1630912","prefecture":"東京都","prefecture_kana":"トウキョウト","city":"新宿区","city_kana":"シンジュクク","town":"西新宿新宿モノリス　１２階","town_kana":"ニシシンジュクシンジュクモノリス12カイ","prefecture_code":13},"0913":{"zip_code":"1630913","prefecture":"東京都","prefecture_kana":"トウキョウト","city":"新宿区","city_kana":"シンジュクク","town":"西新宿新宿モノリス　１３階","town_kana":"ニシシンジュクシンジュクモノリス13カイ","prefecture_code":13},"0914":{"zip_code":"1630914","prefecture":"東京都","prefecture_kana":"トウキョウト","city":"新宿区","city_kana":"シンジュクク","town":"西新宿新宿モノリス　１４階","town_kana":"ニシシンジュクシンジュクモノリス14カイ","prefecture_code":13},"0915":{"zip_code":"1630915","prefecture":"東京都","prefecture_kana":"トウキョウト","city":"新宿区","city_kana":"シンジュクク","town":"西新宿新宿モノリス　１５階","town_kana":"ニシシンジュクシンジュクモノリス15カイ","prefecture_code":13},"0916":{"zip_code":"1630916","prefecture":"東京都","prefecture_kana":"トウキョウト","city":"新宿区","city_kana":"シンジュクク","town":"西新宿新宿モノリス　１６階","town_kana":"ニシシンジュクシンジュクモノリス16カイ","prefecture_code":13},"0917":{"zip_code":"1630917","prefecture":"東京都","prefecture_kana":"トウキョウト","city":"新宿区","city_kana":"シンジュクク","town":"西新宿新宿モノリス　１７階","town_kana":"ニシシンジュクシンジュクモノリス17カイ","prefecture_code":13},"0918":{"zip_code":"1630918","prefecture":"東京都","prefecture_kana":"トウキョウト","city":"新宿区","city_kana":"シンジュクク","town":"西新宿新宿モノリス　１８階","town_kana":"ニシシンジュクシンジュクモノリス18カイ","prefecture_code":13},"0919":{"zip_code":"1630919","prefecture":"東京都","prefecture_kana":"トウキョウト","city":"新宿区","city_kana":"シンジュクク","town":"西新宿新宿モノリス　１９階","town_kana":"ニシシンジュクシンジュクモノリス19カイ","prefecture_code":13},"0920":{"zip_code":"1630920","prefecture":"東京都","prefecture_kana":"トウキョウト","city":"新宿区","city_kana":"シンジュクク","town":"西新宿新宿モノリス　２０階","town_kana":"ニシシンジュクシンジュクモノリス20カイ","prefecture_code":13},"0921":{"zip_code":"1630921","prefecture":"東京都","prefecture_kana":"トウキョウト","city":"新宿区","city_kana":"シンジュクク","town":"西新宿新宿モノリス　２１階","town_kana":"ニシシンジュクシンジュクモノリス21カイ","prefecture_code":13},"0922":{"zip_code":"1630922","prefecture":"東京都","prefecture_kana":"トウキョウト","city":"新宿区","city_kana":"シンジュクク","town":"西新宿新宿モノリス　２２階","town_kana":"ニシシンジュクシンジュクモノリス22カイ","prefecture_code":13},"0923":{"zip_code":"1630923","prefecture":"東京都","prefecture_kana":"トウキョウト","city":"新宿区","city_kana":"シンジュクク","town":"西新宿新宿モノリス　２３階","town_kana":"ニシシンジュクシンジュクモノリス23カイ","prefecture_code":13},"0924":{"zip_code":"1630924","prefecture":"東京都","prefecture_kana":"トウキョウト","city":"新宿区","city_kana":"シンジュクク","town":"西新宿新宿モノリス　２４階","town_kana":"ニシシンジュクシンジュクモノリス24カイ","prefecture_code":13},"0925":{"zip_code":"1630925","prefecture":"東京都","prefecture_kana":"トウキョウト","city":"新宿区","city_kana":"シンジュクク","town":"西新宿新宿モノリス　２５階","town_kana":"ニシシンジュクシンジュクモノリス25カイ","prefecture_code":13},"0926":{"zip_code":"1630926","prefecture":"東京都","prefecture_kana":"トウキョウト","city":"新宿区","city_kana":"シンジュクク","town":"西新宿新宿モノリス　２６階","town_kana":"ニシシンジュクシンジュクモノリス26カイ","prefecture_code":13},"0927":{"zip_code":"1630927","prefecture":"東京都","prefecture_kana":"トウキョウト","city":"新宿区","city_kana":"シンジュクク","town":"西新宿新宿モノリス　２７階","town_kana":"ニシシンジュクシンジュクモノリス27カイ","prefecture_code":13},"0928":{"zip_code":"1630928","prefecture":"東京都","prefecture_kana":"トウキョウト","city":"新宿区","city_kana":"シンジュクク","town":"西新宿新宿モノリス　２８階","town_kana":"ニシシンジュクシンジュクモノリス28カイ","prefecture_code":13},"0929":{"zip_code":"1630929","prefecture":"東京都","prefecture_kana":"トウキョウト","city":"新宿区","city_kana":"シンジュクク","town":"西新宿新宿モノリス　２９階","town_kana":"ニシシンジュクシンジュクモノリス29カイ","prefecture_code":13},"0930":{"zip_code":"1630930","prefecture":"東京都","prefecture_kana":"トウキョウト","city":"新宿区","city_kana":"シンジュクク","town":"西新宿新宿モノリス　３０階","town_kana":"ニシシンジュクシンジュクモノリス30カイ","prefecture_code":13},"6090":{"zip_code":"1636090","prefecture":"東京都","prefecture_kana":"トウキョウト","city":"新宿区","city_kana":"シンジュクク","town":"西新宿住友不動産新宿オークタワー","town_kana":"ニシシンジュクスミトモフドウサンシンジュクオークタワー","prefecture_code":13},"6001":{"zip_code":"1636001","prefecture":"東京都","prefecture_kana":"トウキョウト","city":"新宿区","city_kana":"シンジュクク","town":"西新宿住友不動産新宿オークタワー　１階","town_kana":"ニシシンジュクスミトモフドウサンシンジュクオークタワー1カイ","prefecture_code":13},"6002":{"zip_code":"1636002","prefecture":"東京都","prefecture_kana":"トウキョウト","city":"新宿区","city_kana":"シンジュクク","town":"西新宿住友不動産新宿オークタワー　２階","town_kana":"ニシシンジュクスミトモフドウサンシンジュクオークタワー2カイ","prefecture_code":13},"6003":{"zip_code":"1636003","prefecture":"東京都","prefecture_kana":"トウキョウト","city":"新宿区","city_kana":"シンジュクク","town":"西新宿住友不動産新宿オークタワー　３階","town_kana":"ニシシンジュクスミトモフドウサンシンジュクオークタワー3カイ","prefecture_code":13},"6004":{"zip_code":"1636004","prefecture":"東京都","prefecture_kana":"トウキョウト","city":"新宿区","city_kana":"シンジュクク","town":"西新宿住友不動産新宿オークタワー　４階","town_kana":"ニシシンジュクスミトモフドウサンシンジュクオークタワー4カイ","prefecture_code":13},"6005":{"zip_code":"1636005","prefecture":"東京都","prefecture_kana":"トウキョウト","city":"新宿区","city_kana":"シンジュクク","town":"西新宿住友不動産新宿オークタワー　５階","town_kana":"ニシシンジュクスミトモフドウサンシンジュクオークタワー5カイ","prefecture_code":13},"6006":{"zip_code":"1636006","prefecture":"東京都","prefecture_kana":"トウキョウト","city":"新宿区","city_kana":"シンジュクク","town":"西新宿住友不動産新宿オークタワー　６階","town_kana":"ニシシンジュクスミトモフドウサンシンジュクオークタワー6カイ","prefecture_code":13},"6007":{"zip_code":"1636007","prefecture":"東京都","prefecture_kana":"トウキョウト","city":"新宿区","city_kana":"シンジュクク","town":"西新宿住友不動産新宿オークタワー　７階","town_kana":"ニシシンジュクスミトモフドウサンシンジュクオークタワー7カイ","prefecture_code":13},"6008":{"zip_code":"1636008","prefecture":"東京都","prefecture_kana":"トウキョウト","city":"新宿区","city_kana":"シンジュクク","town":"西新宿住友不動産新宿オークタワー　８階","town_kana":"ニシシンジュクスミトモフドウサンシンジュクオークタワー8カイ","prefecture_code":13},"6009":{"zip_code":"1636009","prefecture":"東京都","prefecture_kana":"トウキョウト","city":"新宿区","city_kana":"シンジュクク","town":"西新宿住友不動産新宿オークタワー　９階","town_kana":"ニシシンジュクスミトモフドウサンシンジュクオークタワー9カイ","prefecture_code":13},"6010":{"zip_code":"1636010","prefecture":"東京都","prefecture_kana":"トウキョウト","city":"新宿区","city_kana":"シンジュクク","town":"西新宿住友不動産新宿オークタワー　１０階","town_kana":"ニシシンジュクスミトモフドウサンシンジュクオークタワー10カイ","prefecture_code":13},"6011":{"zip_code":"1636011","prefecture":"東京都","prefecture_kana":"トウキョウト","city":"新宿区","city_kana":"シンジュクク","town":"西新宿住友不動産新宿オークタワー　１１階","town_kana":"ニシシンジュクスミトモフドウサンシンジュクオークタワー11カイ","prefecture_code":13},"6012":{"zip_code":"1636012","prefecture":"東京都","prefecture_kana":"トウキョウト","city":"新宿区","city_kana":"シンジュクク","town":"西新宿住友不動産新宿オークタワー　１２階","town_kana":"ニシシンジュクスミトモフドウサンシンジュクオークタワー12カイ","prefecture_code":13},"6013":{"zip_code":"1636013","prefecture":"東京都","prefecture_kana":"トウキョウト","city":"新宿区","city_kana":"シンジュクク","town":"西新宿住友不動産新宿オークタワー　１３階","town_kana":"ニシシンジュクスミトモフドウサンシンジュクオークタワー13カイ","prefecture_code":13},"6014":{"zip_code":"1636014","prefecture":"東京都","prefecture_kana":"トウキョウト","city":"新宿区","city_kana":"シンジュクク","town":"西新宿住友不動産新宿オークタワー　１４階","town_kana":"ニシシンジュクスミトモフドウサンシンジュクオークタワー14カイ","prefecture_code":13},"6015":{"zip_code":"1636015","prefecture":"東京都","prefecture_kana":"トウキョウト","city":"新宿区","city_kana":"シンジュクク","town":"西新宿住友不動産新宿オークタワー　１５階","town_kana":"ニシシンジュクスミトモフドウサンシンジュクオークタワー15カイ","prefecture_code":13},"6016":{"zip_code":"1636016","prefecture":"東京都","prefecture_kana":"トウキョウト","city":"新宿区","city_kana":"シンジュクク","town":"西新宿住友不動産新宿オークタワー　１６階","town_kana":"ニシシンジュクスミトモフドウサンシンジュクオークタワー16カイ","prefecture_code":13},"6017":{"zip_code":"1636017","prefecture":"東京都","prefecture_kana":"トウキョウト","city":"新宿区","city_kana":"シンジュクク","town":"西新宿住友不動産新宿オークタワー　１７階","town_kana":"ニシシンジュクスミトモフドウサンシンジュクオークタワー17カイ","prefecture_code":13},"6018":{"zip_code":"1636018","prefecture":"東京都","prefecture_kana":"トウキョウト","city":"新宿区","city_kana":"シンジュクク","town":"西新宿住友不動産新宿オークタワー　１８階","town_kana":"ニシシンジュクスミトモフドウサンシンジュクオークタワー18カイ","prefecture_code":13},"6019":{"zip_code":"1636019","prefecture":"東京都","prefecture_kana":"トウキョウト","city":"新宿区","city_kana":"シンジュクク","town":"西新宿住友不動産新宿オークタワー　１９階","town_kana":"ニシシンジュクスミトモフドウサンシンジュクオークタワー19カイ","prefecture_code":13},"6020":{"zip_code":"1636020","prefecture":"東京都","prefecture_kana":"トウキョウト","city":"新宿区","city_kana":"シンジュクク","town":"西新宿住友不動産新宿オークタワー　２０階","town_kana":"ニシシンジュクスミトモフドウサンシンジュクオークタワー20カイ","prefecture_code":13},"6021":{"zip_code":"1636021","prefecture":"東京都","prefecture_kana":"トウキョウト","city":"新宿区","city_kana":"シンジュクク","town":"西新宿住友不動産新宿オークタワー　２１階","town_kana":"ニシシンジュクスミトモフドウサンシンジュクオークタワー21カイ","prefecture_code":13},"6022":{"zip_code":"1636022","prefecture":"東京都","prefecture_kana":"トウキョウト","city":"新宿区","city_kana":"シンジュクク","town":"西新宿住友不動産新宿オークタワー　２２階","town_kana":"ニシシンジュクスミトモフドウサンシンジュクオークタワー22カイ","prefecture_code":13},"6023":{"zip_code":"1636023","prefecture":"東京都","prefecture_kana":"トウキョウト","city":"新宿区","city_kana":"シンジュクク","town":"西新宿住友不動産新宿オークタワー　２３階","town_kana":"ニシシンジュクスミトモフドウサンシンジュクオークタワー23カイ","prefecture_code":13},"6024":{"zip_code":"1636024","prefecture":"東京都","prefecture_kana":"トウキョウト","city":"新宿区","city_kana":"シンジュクク","town":"西新宿住友不動産新宿オークタワー　２４階","town_kana":"ニシシンジュクスミトモフドウサンシンジュクオークタワー24カイ","prefecture_code":13},"6025":{"zip_code":"1636025","prefecture":"東京都","prefecture_kana":"トウキョウト","city":"新宿区","city_kana":"シンジュクク","town":"西新宿住友不動産新宿オークタワー　２５階","town_kana":"ニシシンジュクスミトモフドウサンシンジュクオークタワー25カイ","prefecture_code":13},"6026":{"zip_code":"1636026","prefecture":"東京都","prefecture_kana":"トウキョウト","city":"新宿区","city_kana":"シンジュクク","town":"西新宿住友不動産新宿オークタワー　２６階","town_kana":"ニシシンジュクスミトモフドウサンシンジュクオークタワー26カイ","prefecture_code":13},"6027":{"zip_code":"1636027","prefecture":"東京都","prefecture_kana":"トウキョウト","city":"新宿区","city_kana":"シンジュクク","town":"西新宿住友不動産新宿オークタワー　２７階","town_kana":"ニシシンジュクスミトモフドウサンシンジュクオークタワー27カイ","prefecture_code":13},"6028":{"zip_code":"1636028","prefecture":"東京都","prefecture_kana":"トウキョウト","city":"新宿区","city_kana":"シンジュクク","town":"西新宿住友不動産新宿オークタワー　２８階","town_kana":"ニシシンジュクスミトモフドウサンシンジュクオークタワー28カイ","prefecture_code":13},"6029":{"zip_code":"1636029","prefecture":"東京都","prefecture_kana":"トウキョウト","city":"新宿区","city_kana":"シンジュクク","town":"西新宿住友不動産新宿オークタワー　２９階","town_kana":"ニシシンジュクスミトモフドウサンシンジュクオークタワー29カイ","prefecture_code":13},"6030":{"zip_code":"1636030","prefecture":"東京都","prefecture_kana":"トウキョウト","city":"新宿区","city_kana":"シンジュクク","town":"西新宿住友不動産新宿オークタワー　３０階","town_kana":"ニシシンジュクスミトモフドウサンシンジュクオークタワー30カイ","prefecture_code":13},"6031":{"zip_code":"1636031","prefecture":"東京都","prefecture_kana":"トウキョウト","city":"新宿区","city_kana":"シンジュクク","town":"西新宿住友不動産新宿オークタワー　３１階","town_kana":"ニシシンジュクスミトモフドウサンシンジュクオークタワー31カイ","prefecture_code":13},"6032":{"zip_code":"1636032","prefecture":"東京都","prefecture_kana":"トウキョウト","city":"新宿区","city_kana":"シンジュクク","town":"西新宿住友不動産新宿オークタワー　３２階","town_kana":"ニシシンジュクスミトモフドウサンシンジュクオークタワー32カイ","prefecture_code":13},"6033":{"zip_code":"1636033","prefecture":"東京都","prefecture_kana":"トウキョウト","city":"新宿区","city_kana":"シンジュクク","town":"西新宿住友不動産新宿オークタワー　３３階","town_kana":"ニシシンジュクスミトモフドウサンシンジュクオークタワー33カイ","prefecture_code":13},"6034":{"zip_code":"1636034","prefecture":"東京都","prefecture_kana":"トウキョウト","city":"新宿区","city_kana":"シンジュクク","town":"西新宿住友不動産新宿オークタワー　３４階","town_kana":"ニシシンジュクスミトモフドウサンシンジュクオークタワー34カイ","prefecture_code":13},"6035":{"zip_code":"1636035","prefecture":"東京都","prefecture_kana":"トウキョウト","city":"新宿区","city_kana":"シンジュクク","town":"西新宿住友不動産新宿オークタワー　３５階","town_kana":"ニシシンジュクスミトモフドウサンシンジュクオークタワー35カイ","prefecture_code":13},"6036":{"zip_code":"1636036","prefecture":"東京都","prefecture_kana":"トウキョウト","city":"新宿区","city_kana":"シンジュクク","town":"西新宿住友不動産新宿オークタワー　３６階","town_kana":"ニシシンジュクスミトモフドウサンシンジュクオークタワー36カイ","prefecture_code":13},"6037":{"zip_code":"1636037","prefecture":"東京都","prefecture_kana":"トウキョウト","city":"新宿区","city_kana":"シンジュクク","town":"西新宿住友不動産新宿オークタワー　３７階","town_kana":"ニシシンジュクスミトモフドウサンシンジュクオークタワー37カイ","prefecture_code":13},"6038":{"zip_code":"1636038","prefecture":"東京都","prefecture_kana":"トウキョウト","city":"新宿区","city_kana":"シンジュクク","town":"西新宿住友不動産新宿オークタワー　３８階","town_kana":"ニシシンジュクスミトモフドウサンシンジュクオークタワー38カイ","prefecture_code":13},"1490":{"zip_code":"1631490","prefecture":"東京都","prefecture_kana":"トウキョウト","city":"新宿区","city_kana":"シンジュクク","town":"西新宿東京オペラシティ","town_kana":"ニシシンジュクトウキョウオペラシティ","prefecture_code":13},"1401":{"zip_code":"1631401","prefecture":"東京都","prefecture_kana":"トウキョウト","city":"新宿区","city_kana":"シンジュクク","town":"西新宿東京オペラシティ　１階","town_kana":"ニシシンジュクトウキョウオペラシティ1カイ","prefecture_code":13},"1402":{"zip_code":"1631402","prefecture":"東京都","prefecture_kana":"トウキョウト","city":"新宿区","city_kana":"シンジュクク","town":"西新宿東京オペラシティ　２階","town_kana":"ニシシンジュクトウキョウオペラシティ2カイ","prefecture_code":13},"1403":{"zip_code":"1631403","prefecture":"東京都","prefecture_kana":"トウキョウト","city":"新宿区","city_kana":"シンジュクク","town":"西新宿東京オペラシティ　３階","town_kana":"ニシシンジュクトウキョウオペラシティ3カイ","prefecture_code":13},"1404":{"zip_code":"1631404","prefecture":"東京都","prefecture_kana":"トウキョウト","city":"新宿区","city_kana":"シンジュクク","town":"西新宿東京オペラシティ　４階","town_kana":"ニシシンジュクトウキョウオペラシティ4カイ","prefecture_code":13},"1405":{"zip_code":"1631405","prefecture":"東京都","prefecture_kana":"トウキョウト","city":"新宿区","city_kana":"シンジュクク","town":"西新宿東京オペラシティ　５階","town_kana":"ニシシンジュクトウキョウオペラシティ5カイ","prefecture_code":13},"1406":{"zip_code":"1631406","prefecture":"東京都","prefecture_kana":"トウキョウト","city":"新宿区","city_kana":"シンジュクク","town":"西新宿東京オペラシティ　６階","town_kana":"ニシシンジュクトウキョウオペラシティ6カイ","prefecture_code":13},"1407":{"zip_code":"1631407","prefecture":"東京都","prefecture_kana":"トウキョウト","city":"新宿区","city_kana":"シンジュクク","town":"西新宿東京オペラシティ　７階","town_kana":"ニシシンジュクトウキョウオペラシティ7カイ","prefecture_code":13},"1408":{"zip_code":"1631408","prefecture":"東京都","prefecture_kana":"トウキョウト","city":"新宿区","city_kana":"シンジュクク","town":"西新宿東京オペラシティ　８階","town_kana":"ニシシンジュクトウキョウオペラシティ8カイ","prefecture_code":13},"1409":{"zip_code":"1631409","prefecture":"東京都","prefecture_kana":"トウキョウト","city":"新宿区","city_kana":"シンジュクク","town":"西新宿東京オペラシティ　９階","town_kana":"ニシシンジュクトウキョウオペラシティ9カイ","prefecture_code":13},"1410":{"zip_code":"1631410","prefecture":"東京都","prefecture_kana":"トウキョウト","city":"新宿区","city_kana":"シンジュクク","town":"西新宿東京オペラシティ　１０階","town_kana":"ニシシンジュクトウキョウオペラシティ10カイ","prefecture_code":13},"1411":{"zip_code":"1631411","prefecture":"東京都","prefecture_kana":"トウキョウト","city":"新宿区","city_kana":"シンジュクク","town":"西新宿東京オペラシティ　１１階","town_kana":"ニシシンジュクトウキョウオペラシティ11カイ","prefecture_code":13},"1412":{"zip_code":"1631412","prefecture":"東京都","prefecture_kana":"トウキョウト","city":"新宿区","city_kana":"シンジュクク","town":"西新宿東京オペラシティ　１２階","town_kana":"ニシシンジュクトウキョウオペラシティ12カイ","prefecture_code":13},"1413":{"zip_code":"1631413","prefecture":"東京都","prefecture_kana":"トウキョウト","city":"新宿区","city_kana":"シンジュクク","town":"西新宿東京オペラシティ　１３階","town_kana":"ニシシンジュクトウキョウオペラシティ13カイ","prefecture_code":13},"1414":{"zip_code":"1631414","prefecture":"東京都","prefecture_kana":"トウキョウト","city":"新宿区","city_kana":"シンジュクク","town":"西新宿東京オペラシティ　１４階","town_kana":"ニシシンジュクトウキョウオペラシティ14カイ","prefecture_code":13},"1415":{"zip_code":"1631415","prefecture":"東京都","prefecture_kana":"トウキョウト","city":"新宿区","city_kana":"シンジュクク","town":"西新宿東京オペラシティ　１５階","town_kana":"ニシシンジュクトウキョウオペラシティ15カイ","prefecture_code":13},"1416":{"zip_code":"1631416","prefecture":"東京都","prefecture_kana":"トウキョウト","city":"新宿区","city_kana":"シンジュクク","town":"西新宿東京オペラシティ　１６階","town_kana":"ニシシンジュクトウキョウオペラシティ16カイ","prefecture_code":13},"1417":{"zip_code":"1631417","prefecture":"東京都","prefecture_kana":"トウキョウト","city":"新宿区","city_kana":"シンジュクク","town":"西新宿東京オペラシティ　１７階","town_kana":"ニシシンジュクトウキョウオペラシティ17カイ","prefecture_code":13},"1418":{"zip_code":"1631418","prefecture":"東京都","prefecture_kana":"トウキョウト","city":"新宿区","city_kana":"シンジュクク","town":"西新宿東京オペラシティ　１８階","town_kana":"ニシシンジュクトウキョウオペラシティ18カイ","prefecture_code":13},"1419":{"zip_code":"1631419","prefecture":"東京都","prefecture_kana":"トウキョウト","city":"新宿区","city_kana":"シンジュクク","town":"西新宿東京オペラシティ　１９階","town_kana":"ニシシンジュクトウキョウオペラシティ19カイ","prefecture_code":13},"1420":{"zip_code":"1631420","prefecture":"東京都","prefecture_kana":"トウキョウト","city":"新宿区","city_kana":"シンジュクク","town":"西新宿東京オペラシティ　２０階","town_kana":"ニシシンジュクトウキョウオペラシティ20カイ","prefecture_code":13},"1421":{"zip_code":"1631421","prefecture":"東京都","prefecture_kana":"トウキョウト","city":"新宿区","city_kana":"シンジュクク","town":"西新宿東京オペラシティ　２１階","town_kana":"ニシシンジュクトウキョウオペラシティ21カイ","prefecture_code":13},"1422":{"zip_code":"1631422","prefecture":"東京都","prefecture_kana":"トウキョウト","city":"新宿区","city_kana":"シンジュクク","town":"西新宿東京オペラシティ　２２階","town_kana":"ニシシンジュクトウキョウオペラシティ22カイ","prefecture_code":13},"1423":{"zip_code":"1631423","prefecture":"東京都","prefecture_kana":"トウキョウト","city":"新宿区","city_kana":"シンジュクク","town":"西新宿東京オペラシティ　２３階","town_kana":"ニシシンジュクトウキョウオペラシティ23カイ","prefecture_code":13},"1424":{"zip_code":"1631424","prefecture":"東京都","prefecture_kana":"トウキョウト","city":"新宿区","city_kana":"シンジュクク","town":"西新宿東京オペラシティ　２４階","town_kana":"ニシシンジュクトウキョウオペラシティ24カイ","prefecture_code":13},"1425":{"zip_code":"1631425","prefecture":"東京都","prefecture_kana":"トウキョウト","city":"新宿区","city_kana":"シンジュクク","town":"西新宿東京オペラシティ　２５階","town_kana":"ニシシンジュクトウキョウオペラシティ25カイ","prefecture_code":13},"1426":{"zip_code":"1631426","prefecture":"東京都","prefecture_kana":"トウキョウト","city":"新宿区","city_kana":"シンジュクク","town":"西新宿東京オペラシティ　２６階","town_kana":"ニシシンジュクトウキョウオペラシティ26カイ","prefecture_code":13},"1427":{"zip_code":"1631427","prefecture":"東京都","prefecture_kana":"トウキョウト","city":"新宿区","city_kana":"シンジュクク","town":"西新宿東京オペラシティ　２７階","town_kana":"ニシシンジュクトウキョウオペラシティ27カイ","prefecture_code":13},"1428":{"zip_code":"1631428","prefecture":"東京都","prefecture_kana":"トウキョウト","city":"新宿区","city_kana":"シンジュクク","town":"西新宿東京オペラシティ　２８階","town_kana":"ニシシンジュクトウキョウオペラシティ28カイ","prefecture_code":13},"1429":{"zip_code":"1631429","prefecture":"東京都","prefecture_kana":"トウキョウト","city":"新宿区","city_kana":"シンジュクク","town":"西新宿東京オペラシティ　２９階","town_kana":"ニシシンジュクトウキョウオペラシティ29カイ","prefecture_code":13},"1430":{"zip_code":"1631430","prefecture":"東京都","prefecture_kana":"トウキョウト","city":"新宿区","city_kana":"シンジュクク","town":"西新宿東京オペラシティ　３０階","town_kana":"ニシシンジュクトウキョウオペラシティ30カイ","prefecture_code":13},"1431":{"zip_code":"1631431","prefecture":"東京都","prefecture_kana":"トウキョウト","city":"新宿区","city_kana":"シンジュクク","town":"西新宿東京オペラシティ　３１階","town_kana":"ニシシンジュクトウキョウオペラシティ31カイ","prefecture_code":13},"1432":{"zip_code":"1631432","prefecture":"東京都","prefecture_kana":"トウキョウト","city":"新宿区","city_kana":"シンジュクク","town":"西新宿東京オペラシティ　３２階","town_kana":"ニシシンジュクトウキョウオペラシティ32カイ","prefecture_code":13},"1433":{"zip_code":"1631433","prefecture":"東京都","prefecture_kana":"トウキョウト","city":"新宿区","city_kana":"シンジュクク","town":"西新宿東京オペラシティ　３３階","town_kana":"ニシシンジュクトウキョウオペラシティ33カイ","prefecture_code":13},"1434":{"zip_code":"1631434","prefecture":"東京都","prefecture_kana":"トウキョウト","city":"新宿区","city_kana":"シンジュクク","town":"西新宿東京オペラシティ　３４階","town_kana":"ニシシンジュクトウキョウオペラシティ34カイ","prefecture_code":13},"1435":{"zip_code":"1631435","prefecture":"東京都","prefecture_kana":"トウキョウト","city":"新宿区","city_kana":"シンジュクク","town":"西新宿東京オペラシティ　３５階","town_kana":"ニシシンジュクトウキョウオペラシティ35カイ","prefecture_code":13},"1436":{"zip_code":"1631436","prefecture":"東京都","prefecture_kana":"トウキョウト","city":"新宿区","city_kana":"シンジュクク","town":"西新宿東京オペラシティ　３６階","town_kana":"ニシシンジュクトウキョウオペラシティ36カイ","prefecture_code":13},"1437":{"zip_code":"1631437","prefecture":"東京都","prefecture_kana":"トウキョウト","city":"新宿区","city_kana":"シンジュクク","town":"西新宿東京オペラシティ　３７階","town_kana":"ニシシンジュクトウキョウオペラシティ37カイ","prefecture_code":13},"1438":{"zip_code":"1631438","prefecture":"東京都","prefecture_kana":"トウキョウト","city":"新宿区","city_kana":"シンジュクク","town":"西新宿東京オペラシティ　３８階","town_kana":"ニシシンジュクトウキョウオペラシティ38カイ","prefecture_code":13},"1439":{"zip_code":"1631439","prefecture":"東京都","prefecture_kana":"トウキョウト","city":"新宿区","city_kana":"シンジュクク","town":"西新宿東京オペラシティ　３９階","town_kana":"ニシシンジュクトウキョウオペラシティ39カイ","prefecture_code":13},"1440":{"zip_code":"1631440","prefecture":"東京都","prefecture_kana":"トウキョウト","city":"新宿区","city_kana":"シンジュクク","town":"西新宿東京オペラシティ　４０階","town_kana":"ニシシンジュクトウキョウオペラシティ40カイ","prefecture_code":13},"1441":{"zip_code":"1631441","prefecture":"東京都","prefecture_kana":"トウキョウト","city":"新宿区","city_kana":"シンジュクク","town":"西新宿東京オペラシティ　４１階","town_kana":"ニシシンジュクトウキョウオペラシティ41カイ","prefecture_code":13},"1442":{"zip_code":"1631442","prefecture":"東京都","prefecture_kana":"トウキョウト","city":"新宿区","city_kana":"シンジュクク","town":"西新宿東京オペラシティ　４２階","town_kana":"ニシシンジュクトウキョウオペラシティ42カイ","prefecture_code":13},"1443":{"zip_code":"1631443","prefecture":"東京都","prefecture_kana":"トウキョウト","city":"新宿区","city_kana":"シンジュクク","town":"西新宿東京オペラシティ　４３階","town_kana":"ニシシンジュクトウキョウオペラシティ43カイ","prefecture_code":13},"1444":{"zip_code":"1631444","prefecture":"東京都","prefecture_kana":"トウキョウト","city":"新宿区","city_kana":"シンジュクク","town":"西新宿東京オペラシティ　４４階","town_kana":"ニシシンジュクトウキョウオペラシティ44カイ","prefecture_code":13},"1445":{"zip_code":"1631445","prefecture":"東京都","prefecture_kana":"トウキョウト","city":"新宿区","city_kana":"シンジュクク","town":"西新宿東京オペラシティ　４５階","town_kana":"ニシシンジュクトウキョウオペラシティ45カイ","prefecture_code":13},"1446":{"zip_code":"1631446","prefecture":"東京都","prefecture_kana":"トウキョウト","city":"新宿区","city_kana":"シンジュクク","town":"西新宿東京オペラシティ　４６階","town_kana":"ニシシンジュクトウキョウオペラシティ46カイ","prefecture_code":13},"1447":{"zip_code":"1631447","prefecture":"東京都","prefecture_kana":"トウキョウト","city":"新宿区","city_kana":"シンジュクク","town":"西新宿東京オペラシティ　４７階","town_kana":"ニシシンジュクトウキョウオペラシティ47カイ","prefecture_code":13},"1448":{"zip_code":"1631448","prefecture":"東京都","prefecture_kana":"トウキョウト","city":"新宿区","city_kana":"シンジュクク","town":"西新宿東京オペラシティ　４８階","town_kana":"ニシシンジュクトウキョウオペラシティ48カイ","prefecture_code":13},"1449":{"zip_code":"1631449","prefecture":"東京都","prefecture_kana":"トウキョウト","city":"新宿区","city_kana":"シンジュクク","town":"西新宿東京オペラシティ　４９階","town_kana":"ニシシンジュクトウキョウオペラシティ49カイ","prefecture_code":13},"1450":{"zip_code":"1631450","prefecture":"東京都","prefecture_kana":"トウキョウト","city":"新宿区","city_kana":"シンジュクク","town":"西新宿東京オペラシティ　５０階","town_kana":"ニシシンジュクトウキョウオペラシティ50カイ","prefecture_code":13},"1451":{"zip_code":"1631451","prefecture":"東京都","prefecture_kana":"トウキョウト","city":"新宿区","city_kana":"シンジュクク","town":"西新宿東京オペラシティ　５１階","town_kana":"ニシシンジュクトウキョウオペラシティ51カイ","prefecture_code":13},"1452":{"zip_code":"1631452","prefecture":"東京都","prefecture_kana":"トウキョウト","city":"新宿区","city_kana":"シンジュクク","town":"西新宿東京オペラシティ　５２階","town_kana":"ニシシンジュクトウキョウオペラシティ52カイ","prefecture_code":13},"1453":{"zip_code":"1631453","prefecture":"東京都","prefecture_kana":"トウキョウト","city":"新宿区","city_kana":"シンジュクク","town":"西新宿東京オペラシティ　５３階","town_kana":"ニシシンジュクトウキョウオペラシティ53カイ","prefecture_code":13},"1454":{"zip_code":"1631454","prefecture":"東京都","prefecture_kana":"トウキョウト","city":"新宿区","city_kana":"シンジュクク","town":"西新宿東京オペラシティ　５４階","town_kana":"ニシシンジュクトウキョウオペラシティ54カイ","prefecture_code":13},"8012":{"zip_code":"1638012","prefecture":"東京都","city":"新宿区","town":"西新宿","prefecture_code":13},"0936":{"zip_code":"1630936","prefecture":"東京都","city":"新宿区","town":"西新宿","prefecture_code":13},"0456":[{"zip_code":"1630456","prefecture":"東京都","city":"新宿区","town":"西新宿","prefecture_code":13},{"zip_code":"1630456","prefecture":"東京都","city":"新宿区","town":"西新宿","prefecture_code":13},{"zip_code":"1630456","prefecture":"東京都","city":"新宿区","town":"西新宿","prefecture_code":13}],"1371":{"zip_code":"1631371","prefecture":"東京都","city":"新宿区","town":"西新宿","prefecture_code":13},"0659":{"zip_code":"1630659","prefecture":"東京都","city":"新宿区","town":"西新宿","prefecture_code":13},"1349":{"zip_code":"1631349","prefecture":"東京都","city":"新宿区","town":"西新宿","prefecture_code":13},"0278":{"zip_code":"1630278","prefecture":"東京都","city":"新宿区","town":"西新宿","prefecture_code":13},"0836":{"zip_code":"1630836","prefecture":"東京都","city":"新宿区","town":"西新宿","prefecture_code":13},"8548":{"zip_code":"1638548","prefecture":"東京都","city":"新宿区","town":"西新宿","prefecture_code":13},"8661":{"zip_code":"1638661","prefecture":"東京都","city":"新宿区","town":"新宿","prefecture_code":13},"8671":{"zip_code":"1638671","prefecture":"東京都","city":"新宿区","town":"新宿","prefecture_code":13},"0557":{"zip_code":"1630557","prefecture":"東京都","city":"新宿区","town":"西新宿","prefecture_code":13},"0675":{"zip_code":"1630675","prefecture":"東京都","city":"新宿区","town":"西新宿","prefecture_code":13},"1588":{"zip_code":"1631588","prefecture":"東京都","city":"新宿区","town":"西新宿","prefecture_code":13},"0676":{"zip_code":"1630676","prefecture":"東京都","city":"新宿区","town":"西新宿","prefecture_code":13},"1533":{"zip_code":"1631533","prefecture":"東京都","city":"新宿区","town":"西新宿","prefecture_code":13},"8680":{"zip_code":"1638680","prefecture":"東京都","city":"新宿区","town":"西新宿","prefecture_code":13},"8003":{"zip_code":"1638003","prefecture":"東京都","city":"新宿区","town":"西新宿","prefecture_code":13},"8535":{"zip_code":"1638535","prefecture":"東京都","city":"新宿区","town":"西新宿","prefecture_code":13},"1488":{"zip_code":"1631488","prefecture":"東京都","city":"新宿区","town":"西新宿","prefecture_code":13},"1537":{"zip_code":"1631537","prefecture":"東京都","city":"新宿区","town":"西新宿","prefecture_code":13},"0478":{"zip_code":"1630478","prefecture":"東京都","city":"新宿区","town":"西新宿","prefecture_code":13},"1455":{"zip_code":"1631455","prefecture":"東京都","city":"新宿区","town":"西新宿","prefecture_code":13},"8666":{"zip_code":"1638666","prefecture":"東京都","city":"新宿区","town":"西新宿","prefecture_code":13},"0831":{"zip_code":"1630831","prefecture":"東京都","city":"新宿区","town":"西新宿","prefecture_code":13},"8626":{"zip_code":"1638626","prefecture":"東京都","city":"新宿区","town":"西新宿","prefecture_code":13},"8639":{"zip_code":"1638639","prefecture":"東京都","city":"新宿区","town":"新宿","prefecture_code":13},"0663":{"zip_code":"1630663","prefecture":"東京都","city":"新宿区","town":"西新宿","prefecture_code":13},"1053":{"zip_code":"1631053","prefecture":"東京都","city":"新宿区","town":"西新宿","prefecture_code":13},"0560":{"zip_code":"1630560","prefecture":"東京都","city":"新宿区","town":"西新宿","prefecture_code":13},"0665":{"zip_code":"1630665","prefecture":"東京都","city":"新宿区","town":"西新宿","prefecture_code":13},"1470":{"zip_code":"1631470","prefecture":"東京都","city":"新宿区","town":"西新宿","prefecture_code":13},"8339":{"zip_code":"1638339","prefecture":"東京都","city":"新宿区","town":"西新宿","prefecture_code":13},"1382":{"zip_code":"1631382","prefecture":"東京都","city":"新宿区","town":"西新宿","prefecture_code":13},"1345":{"zip_code":"1631345","prefecture":"東京都","city":"新宿区","town":"西新宿","prefecture_code":13},"0669":{"zip_code":"1630669","prefecture":"東京都","city":"新宿区","town":"西新宿","prefecture_code":13},"1388":{"zip_code":"1631388","prefecture":"東京都","city":"新宿区","town":"西新宿","prefecture_code":13},"0569":{"zip_code":"1630569","prefecture":"東京都","city":"新宿区","town":"西新宿","prefecture_code":13},"8019":{"zip_code":"1638019","prefecture":"東京都","city":"新宿区","town":"西新宿","prefecture_code":13},"1073":{"zip_code":"1631073","prefecture":"東京都","city":"新宿区","town":"西新宿","prefecture_code":13},"1071":{"zip_code":"1631071","prefecture":"東京都","city":"新宿区","town":"西新宿","prefecture_code":13},"0566":{"zip_code":"1630566","prefecture":"東京都","city":"新宿区","town":"西新宿","prefecture_code":13},"0576":{"zip_code":"1630576","prefecture":"東京都","city":"新宿区","town":"西新宿","prefecture_code":13},"1055":{"zip_code":"1631055","prefecture":"東京都","city":"新宿区","town":"西新宿","prefecture_code":13},"1363":{"zip_code":"1631363","prefecture":"東京都","city":"新宿区","town":"西新宿","prefecture_code":13},"0677":{"zip_code":"1630677","prefecture":"東京都","city":"新宿区","town":"西新宿","prefecture_code":13},"0558":{"zip_code":"1630558","prefecture":"東京都","city":"新宿区","town":"西新宿","prefecture_code":13},"0833":{"zip_code":"1630833","prefecture":"東京都","city":"新宿区","town":"西新宿","prefecture_code":13},"0850":{"zip_code":"1630850","prefecture":"東京都","city":"新宿区","town":"西新宿","prefecture_code":13},"0268":{"zip_code":"1630268","prefecture":"東京都","city":"新宿区","town":"西新宿","prefecture_code":13},"1350":{"zip_code":"1631350","prefecture":"東京都","city":"新宿区","town":"西新宿","prefecture_code":13},"0943":{"zip_code":"1630943","prefecture":"東京都","city":"新宿区","town":"西新宿","prefecture_code":13},"8001":{"zip_code":"1638001","prefecture":"東京都","city":"新宿区","town":"西新宿","prefecture_code":13},"0553":{"zip_code":"1630553","prefecture":"東京都","city":"新宿区","town":"西新宿","prefecture_code":13},"8602":{"zip_code":"1638602","prefecture":"東京都","city":"新宿区","town":"西新宿","prefecture_code":13},"0575":{"zip_code":"1630575","prefecture":"東京都","city":"新宿区","town":"西新宿","prefecture_code":13},"0570":{"zip_code":"1630570","prefecture":"東京都","city":"新宿区","town":"西新宿","prefecture_code":13},"0727":{"zip_code":"1630727","prefecture":"東京都","city":"新宿区","town":"西新宿","prefecture_code":13},"0655":{"zip_code":"1630655","prefecture":"東京都","city":"新宿区","town":"西新宿","prefecture_code":13},"0777":{"zip_code":"1630777","prefecture":"東京都","city":"新宿区","town":"西新宿","prefecture_code":13},"0867":{"zip_code":"1630867","prefecture":"東京都","city":"新宿区","town":"西新宿","prefecture_code":13},"0938":{"zip_code":"1630938","prefecture":"東京都","city":"新宿区","town":"西新宿","prefecture_code":13},"1065":{"zip_code":"1631065","prefecture":"東京都","city":"新宿区","town":"西新宿","prefecture_code":13},"1066":{"zip_code":"1631066","prefecture":"東京都","city":"新宿区","town":"西新宿","prefecture_code":13},"1061":{"zip_code":"1631061","prefecture":"東京都","city":"新宿区","town":"西新宿","prefecture_code":13},"8677":{"zip_code":"1638677","prefecture":"東京都","city":"新宿区","town":"西新宿","prefecture_code":13},"8660":{"zip_code":"1638660","prefecture":"東京都","city":"新宿区","town":"大京町","prefecture_code":13},"8638":{"zip_code":"1638638","prefecture":"東京都","city":"世田谷区","town":"桜丘","prefecture_code":13},"8082":{"zip_code":"1638082","prefecture":"東京都","city":"中野区","town":"本町","prefecture_code":13},"8080":{"zip_code":"1638080","prefecture":"東京都","city":"中野区","town":"本町","prefecture_code":13},"8081":{"zip_code":"1638081","prefecture":"東京都","city":"中野区","town":"本町","prefecture_code":13}}