{"0000":{"zip_code":"1640000","prefecture":"東京都","prefecture_kana":"トウキョウト","city":"中野区","city_kana":"ナカノク","town":"","town_kana":"","prefecture_code":13},"0002":{"zip_code":"1640002","prefecture":"東京都","prefecture_kana":"トウキョウト","city":"中野区","city_kana":"ナカノク","town":"上高田","town_kana":"カミタカダ","prefecture_code":13},"0011":{"zip_code":"1640011","prefecture":"東京都","prefecture_kana":"トウキョウト","city":"中野区","city_kana":"ナカノク","town":"中央","town_kana":"チュウオウ","prefecture_code":13},"0001":{"zip_code":"1640001","prefecture":"東京都","prefecture_kana":"トウキョウト","city":"中野区","city_kana":"ナカノク","town":"中野","town_kana":"ナカノ","prefecture_code":13},"0003":{"zip_code":"1640003","prefecture":"東京都","prefecture_kana":"トウキョウト","city":"中野区","city_kana":"ナカノク","town":"東中野","town_kana":"ヒガシナカノ","prefecture_code":13},"0012":{"zip_code":"1640012","prefecture":"東京都","prefecture_kana":"トウキョウト","city":"中野区","city_kana":"ナカノク","town":"本町","town_kana":"ホンチョウ","prefecture_code":13},"0014":{"zip_code":"1640014","prefecture":"東京都","prefecture_kana":"トウキョウト","city":"中野区","city_kana":"ナカノク","town":"南台","town_kana":"ミナミダイ","prefecture_code":13},"0013":{"zip_code":"1640013","prefecture":"東京都","prefecture_kana":"トウキョウト","city":"中野区","city_kana":"ナカノク","town":"弥生町","town_kana":"ヤヨイチョウ","prefecture_code":13},"8588":{"zip_code":"1648588","prefecture":"東京都","city":"中野区","town":"中野","prefecture_code":13},"8642":{"zip_code":"1648642","prefecture":"東京都","city":"中野区","town":"中野","prefecture_code":13},"8577":{"zip_code":"1648577","prefecture":"東京都","city":"中野区","town":"東中野","prefecture_code":13},"8725":{"zip_code":"1648725","prefecture":"東京都","city":"中野区","town":"本町","prefecture_code":13},"8616":{"zip_code":"1648616","prefecture":"東京都","city":"中野区","town":"中野","prefecture_code":13},"8567":{"zip_code":"1648567","prefecture":"東京都","city":"中野区","town":"東中野","prefecture_code":13},"8504":{"zip_code":"1648504","prefecture":"東京都","city":"中野区","town":"本町","prefecture_code":13},"8601":{"zip_code":"1648601","prefecture":"東京都","city":"中野区","town":"本町","prefecture_code":13},"8505":{"zip_code":"1648505","prefecture":"東京都","city":"中野区","town":"中野","prefecture_code":13},"8611":{"zip_code":"1648611","prefecture":"東京都","city":"中野区","town":"弥生町","prefecture_code":13},"8644":{"zip_code":"1648644","prefecture":"東京都","city":"中野区","town":"弥生町","prefecture_code":13},"8512":{"zip_code":"1648512","prefecture":"東京都","city":"中野区","town":"中野","prefecture_code":13},"8701":{"zip_code":"1648701","prefecture":"東京都","city":"中野区","town":"中野","prefecture_code":13},"8620":{"zip_code":"1648620","prefecture":"東京都","city":"中野区","town":"本町","prefecture_code":13},"8585":{"zip_code":"1648585","prefecture":"東京都","city":"中野区","town":"中野","prefecture_code":13},"8678":{"zip_code":"1648678","prefecture":"東京都","city":"中野区","town":"本町","prefecture_code":13},"8638":{"zip_code":"1648638","prefecture":"東京都","city":"中野区","town":"本町","prefecture_code":13},"8525":{"zip_code":"1648525","prefecture":"東京都","city":"中野区","town":"中野","prefecture_code":13},"8550":{"zip_code":"1648550","prefecture":"東京都","city":"中野区","town":"東中野","prefecture_code":13},"8650":{"zip_code":"1648650","prefecture":"東京都","city":"中野区","town":"中央","prefecture_code":13},"8503":{"zip_code":"1648503","prefecture":"東京都","city":"中野区","town":"中央","prefecture_code":13},"8522":{"zip_code":"1648522","prefecture":"東京都","city":"中野区","town":"中野","prefecture_code":13},"8540":{"zip_code":"1648540","prefecture":"東京都","city":"中野区","town":"中野","prefecture_code":13},"8608":{"zip_code":"1648608","prefecture":"東京都","city":"中野区","town":"中野","prefecture_code":13},"8511":{"zip_code":"1648511","prefecture":"東京都","city":"中野区","town":"中野","prefecture_code":13},"8530":{"zip_code":"1648530","prefecture":"東京都","city":"中野区","town":"中野","prefecture_code":13},"8541":{"zip_code":"1648541","prefecture":"東京都","city":"中野区","town":"中野","prefecture_code":13},"8501":{"zip_code":"1648501","prefecture":"東京都","city":"中野区","town":"中野","prefecture_code":13},"8686":{"zip_code":"1648686","prefecture":"東京都","city":"中野区","town":"中野","prefecture_code":13},"8666":{"zip_code":"1648666","prefecture":"東京都","city":"中野区","town":"弥生町","prefecture_code":13},"8570":{"zip_code":"1648570","prefecture":"東京都","city":"中野区","town":"中野","prefecture_code":13},"8682":{"zip_code":"1648682","prefecture":"東京都","city":"中野区","town":"本町","prefecture_code":13},"8545":{"zip_code":"1648545","prefecture":"東京都","city":"中野区","town":"中野","prefecture_code":13},"8555":{"zip_code":"1648555","prefecture":"東京都","city":"中野区","town":"東中野","prefecture_code":13},"8617":{"zip_code":"1648617","prefecture":"東京都","city":"中野区","town":"弥生町","prefecture_code":13}}