{"0072":{"zip_code":"1690072","prefecture":"東京都","prefecture_kana":"トウキョウト","city":"新宿区","city_kana":"シンジュクク","town":"大久保","town_kana":"オオクボ","prefecture_code":13},"0074":{"zip_code":"1690074","prefecture":"東京都","prefecture_kana":"トウキョウト","city":"新宿区","city_kana":"シンジュクク","town":"北新宿","town_kana":"キタシンジュク","prefecture_code":13},"0075":{"zip_code":"1690075","prefecture":"東京都","prefecture_kana":"トウキョウト","city":"新宿区","city_kana":"シンジュクク","town":"高田馬場","town_kana":"タカダノババ","prefecture_code":13},"0071":{"zip_code":"1690071","prefecture":"東京都","prefecture_kana":"トウキョウト","city":"新宿区","city_kana":"シンジュクク","town":"戸塚町","town_kana":"トツカマチ","prefecture_code":13},"0052":{"zip_code":"1690052","prefecture":"東京都","prefecture_kana":"トウキョウト","city":"新宿区","city_kana":"シンジュクク","town":"戸山","town_kana":"トヤマ","prefecture_code":13},"0051":{"zip_code":"1690051","prefecture":"東京都","prefecture_kana":"トウキョウト","city":"新宿区","city_kana":"シンジュクク","town":"西早稲田","town_kana":"ニシワセダ","prefecture_code":13},"0073":{"zip_code":"1690073","prefecture":"東京都","prefecture_kana":"トウキョウト","city":"新宿区","city_kana":"シンジュクク","town":"百人町","town_kana":"ヒャクニンチョウ","prefecture_code":13},"8885":{"zip_code":"1698885","prefecture":"東京都","city":"新宿区","town":"北新宿","prefecture_code":13},"8631":{"zip_code":"1698631","prefecture":"東京都","city":"新宿区","town":"高田馬場","prefecture_code":13},"8517":{"zip_code":"1698517","prefecture":"東京都","city":"新宿区","town":"百人町","prefecture_code":13},"8520":{"zip_code":"1698520","prefecture":"東京都","city":"新宿区","town":"百人町","prefecture_code":13},"8558":{"zip_code":"1698558","prefecture":"東京都","city":"新宿区","town":"大久保","prefecture_code":13},"8578":{"zip_code":"1698578","prefecture":"東京都","city":"新宿区","town":"高田馬場","prefecture_code":13},"8608":{"zip_code":"1698608","prefecture":"東京都","city":"新宿区","town":"西早稲田","prefecture_code":13},"8550":{"zip_code":"1698550","prefecture":"東京都","city":"新宿区","town":"大久保","prefecture_code":13},"8639":{"zip_code":"1698639","prefecture":"東京都","city":"新宿区","town":"高田馬場","prefecture_code":13},"8531":{"zip_code":"1698531","prefecture":"東京都","city":"新宿区","town":"大久保","prefecture_code":13},"8605":{"zip_code":"1698605","prefecture":"東京都","city":"新宿区","town":"西早稲田","prefecture_code":13},"8577":{"zip_code":"1698577","prefecture":"東京都","city":"新宿区","town":"高田馬場","prefecture_code":13},"8525":{"zip_code":"1698525","prefecture":"東京都","city":"新宿区","town":"百人町","prefecture_code":13},"8655":{"zip_code":"1698655","prefecture":"東京都","city":"新宿区","town":"高田馬場","prefecture_code":13},"8585":{"zip_code":"1698585","prefecture":"東京都","city":"新宿区","town":"北新宿","prefecture_code":13},"8228":{"zip_code":"1698228","prefecture":"東京都","city":"新宿区","town":"北新宿","prefecture_code":13},"8613":{"zip_code":"1698613","prefecture":"東京都","city":"新宿区","town":"戸塚町","prefecture_code":13},"8516":{"zip_code":"1698516","prefecture":"東京都","city":"新宿区","town":"百人町","prefecture_code":13},"8522":{"zip_code":"1698522","prefecture":"東京都","city":"新宿区","town":"百人町","prefecture_code":13},"8518":{"zip_code":"1698518","prefecture":"東京都","city":"新宿区","town":"高田馬場","prefecture_code":13},"8509":{"zip_code":"1698509","prefecture":"東京都","city":"新宿区","town":"西早稲田","prefecture_code":13},"8503":{"zip_code":"1698503","prefecture":"東京都","city":"新宿区","town":"百人町","prefecture_code":13},"8610":{"zip_code":"1698610","prefecture":"東京都","city":"新宿区","town":"西早稲田","prefecture_code":13},"8644":{"zip_code":"1698644","prefecture":"東京都","city":"新宿区","town":"高田馬場","prefecture_code":13},"8568":{"zip_code":"1698568","prefecture":"東京都","city":"新宿区","town":"高田馬場","prefecture_code":13},"8616":{"zip_code":"1698616","prefecture":"東京都","city":"新宿区","town":"西早稲田","prefecture_code":13},"8586":{"zip_code":"1698586","prefecture":"東京都","city":"新宿区","town":"高田馬場","prefecture_code":13},"8664":{"zip_code":"1698664","prefecture":"東京都","city":"新宿区","town":"西早稲田","prefecture_code":13},"8521":{"zip_code":"1698521","prefecture":"東京都","city":"新宿区","town":"百人町","prefecture_code":13},"8611":{"zip_code":"1698611","prefecture":"東京都","city":"新宿区","town":"西早稲田","prefecture_code":13},"8601":{"zip_code":"1698601","prefecture":"東京都","city":"新宿区","town":"大久保","prefecture_code":13},"8561":{"zip_code":"1698561","prefecture":"東京都","city":"新宿区","town":"北新宿","prefecture_code":13},"8526":{"zip_code":"1698526","prefecture":"東京都","city":"新宿区","town":"大久保","prefecture_code":13},"8650":{"zip_code":"1698650","prefecture":"東京都","city":"新宿区","town":"高田馬場","prefecture_code":13},"8612":{"zip_code":"1698612","prefecture":"東京都","city":"新宿区","town":"西早稲田","prefecture_code":13},"8656":{"zip_code":"1698656","prefecture":"東京都","city":"新宿区","town":"高田馬場","prefecture_code":13},"8648":{"zip_code":"1698648","prefecture":"東京都","city":"新宿区","town":"高田馬場","prefecture_code":13},"8012":{"zip_code":"1698012","prefecture":"東京都","city":"新宿区","town":"大久保","prefecture_code":13},"8541":{"zip_code":"1698541","prefecture":"東京都","city":"新宿区","town":"大久保","prefecture_code":13},"8556":{"zip_code":"1698556","prefecture":"東京都","city":"新宿区","town":"大久保","prefecture_code":13},"8570":{"zip_code":"1698570","prefecture":"東京都","city":"新宿区","town":"高田馬場","prefecture_code":13},"8540":{"zip_code":"1698540","prefecture":"東京都","city":"新宿区","town":"大久保","prefecture_code":13},"8535":{"zip_code":"1698535","prefecture":"東京都","city":"新宿区","town":"大久保","prefecture_code":13},"8915":{"zip_code":"1698915","prefecture":"東京都","city":"新宿区","town":"高田馬場","prefecture_code":13},"8668":{"zip_code":"1698668","prefecture":"東京都","city":"新宿区","town":"高田馬場","prefecture_code":13},"8527":{"zip_code":"1698527","prefecture":"東京都","city":"新宿区","town":"大久保","prefecture_code":13},"8677":{"zip_code":"1698677","prefecture":"東京都","city":"新宿区","town":"高田馬場","prefecture_code":13},"8580":{"zip_code":"1698580","prefecture":"東京都","city":"新宿区","town":"高田馬場","prefecture_code":13},"8555":{"zip_code":"1698555","prefecture":"東京都","city":"新宿区","town":"大久保","prefecture_code":13},"8011":{"zip_code":"1698011","prefecture":"東京都","city":"新宿区","town":"高田馬場","prefecture_code":13},"8050":{"zip_code":"1698050","prefecture":"東京都","city":"新宿区","town":"西早稲田","prefecture_code":13},"8077":{"zip_code":"1698077","prefecture":"東京都","city":"新宿区","town":"西早稲田","prefecture_code":13},"8711":{"zip_code":"1698711","prefecture":"東京都","city":"新宿区","town":"高田馬場","prefecture_code":13},"8722":{"zip_code":"1698722","prefecture":"東京都","city":"新宿区","town":"高田馬場","prefecture_code":13},"8701":{"zip_code":"1698701","prefecture":"東京都","city":"新宿区","town":"西新宿","prefecture_code":13}}