{"0000":{"zip_code":"1700000","prefecture":"東京都","prefecture_kana":"トウキョウト","city":"豊島区","city_kana":"トシマク","town":"","town_kana":"","prefecture_code":13},"0014":{"zip_code":"1700014","prefecture":"東京都","prefecture_kana":"トウキョウト","city":"豊島区","city_kana":"トシマク","town":"池袋","town_kana":"イケブクロ","prefecture_code":13},"0011":{"zip_code":"1700011","prefecture":"東京都","prefecture_kana":"トウキョウト","city":"豊島区","city_kana":"トシマク","town":"池袋本町","town_kana":"イケブクロホンチョウ","prefecture_code":13},"0012":{"zip_code":"1700012","prefecture":"東京都","prefecture_kana":"トウキョウト","city":"豊島区","city_kana":"トシマク","town":"上池袋","town_kana":"カミイケブクロ","prefecture_code":13},"0004":{"zip_code":"1700004","prefecture":"東京都","prefecture_kana":"トウキョウト","city":"豊島区","city_kana":"トシマク","town":"北大塚","town_kana":"キタオオツカ","prefecture_code":13},"0003":{"zip_code":"1700003","prefecture":"東京都","prefecture_kana":"トウキョウト","city":"豊島区","city_kana":"トシマク","town":"駒込","town_kana":"コマゴメ","prefecture_code":13},"0002":{"zip_code":"1700002","prefecture":"東京都","prefecture_kana":"トウキョウト","city":"豊島区","city_kana":"トシマク","town":"巣鴨","town_kana":"スガモ","prefecture_code":13},"0001":{"zip_code":"1700001","prefecture":"東京都","prefecture_kana":"トウキョウト","city":"豊島区","city_kana":"トシマク","town":"西巣鴨","town_kana":"ニシスガモ","prefecture_code":13},"0013":{"zip_code":"1700013","prefecture":"東京都","prefecture_kana":"トウキョウト","city":"豊島区","city_kana":"トシマク","town":"東池袋","town_kana":"ヒガシイケブクロ","prefecture_code":13},"6090":{"zip_code":"1706090","prefecture":"東京都","prefecture_kana":"トウキョウト","city":"豊島区","city_kana":"トシマク","town":"東池袋サンシャイン６０","town_kana":"ヒガシイケブクロサンシャイン60","prefecture_code":13},"6001":{"zip_code":"1706001","prefecture":"東京都","prefecture_kana":"トウキョウト","city":"豊島区","city_kana":"トシマク","town":"東池袋サンシャイン６０　１階","town_kana":"ヒガシイケブクロサンシャイン601カイ","prefecture_code":13},"6002":{"zip_code":"1706002","prefecture":"東京都","prefecture_kana":"トウキョウト","city":"豊島区","city_kana":"トシマク","town":"東池袋サンシャイン６０　２階","town_kana":"ヒガシイケブクロサンシャイン602カイ","prefecture_code":13},"6003":{"zip_code":"1706003","prefecture":"東京都","prefecture_kana":"トウキョウト","city":"豊島区","city_kana":"トシマク","town":"東池袋サンシャイン６０　３階","town_kana":"ヒガシイケブクロサンシャイン603カイ","prefecture_code":13},"6004":{"zip_code":"1706004","prefecture":"東京都","prefecture_kana":"トウキョウト","city":"豊島区","city_kana":"トシマク","town":"東池袋サンシャイン６０　４階","town_kana":"ヒガシイケブクロサンシャイン604カイ","prefecture_code":13},"6005":{"zip_code":"1706005","prefecture":"東京都","prefecture_kana":"トウキョウト","city":"豊島区","city_kana":"トシマク","town":"東池袋サンシャイン６０　５階","town_kana":"ヒガシイケブクロサンシャイン605カイ","prefecture_code":13},"6006":{"zip_code":"1706006","prefecture":"東京都","prefecture_kana":"トウキョウト","city":"豊島区","city_kana":"トシマク","town":"東池袋サンシャイン６０　６階","town_kana":"ヒガシイケブクロサンシャイン606カイ","prefecture_code":13},"6007":{"zip_code":"1706007","prefecture":"東京都","prefecture_kana":"トウキョウト","city":"豊島区","city_kana":"トシマク","town":"東池袋サンシャイン６０　７階","town_kana":"ヒガシイケブクロサンシャイン607カイ","prefecture_code":13},"6008":{"zip_code":"1706008","prefecture":"東京都","prefecture_kana":"トウキョウト","city":"豊島区","city_kana":"トシマク","town":"東池袋サンシャイン６０　８階","town_kana":"ヒガシイケブクロサンシャイン608カイ","prefecture_code":13},"6009":{"zip_code":"1706009","prefecture":"東京都","prefecture_kana":"トウキョウト","city":"豊島区","city_kana":"トシマク","town":"東池袋サンシャイン６０　９階","town_kana":"ヒガシイケブクロサンシャイン609カイ","prefecture_code":13},"6010":{"zip_code":"1706010","prefecture":"東京都","prefecture_kana":"トウキョウト","city":"豊島区","city_kana":"トシマク","town":"東池袋サンシャイン６０　１０階","town_kana":"ヒガシイケブクロサンシャイン6010カイ","prefecture_code":13},"6011":{"zip_code":"1706011","prefecture":"東京都","prefecture_kana":"トウキョウト","city":"豊島区","city_kana":"トシマク","town":"東池袋サンシャイン６０　１１階","town_kana":"ヒガシイケブクロサンシャイン6011カイ","prefecture_code":13},"6012":{"zip_code":"1706012","prefecture":"東京都","prefecture_kana":"トウキョウト","city":"豊島区","city_kana":"トシマク","town":"東池袋サンシャイン６０　１２階","town_kana":"ヒガシイケブクロサンシャイン6012カイ","prefecture_code":13},"6013":{"zip_code":"1706013","prefecture":"東京都","prefecture_kana":"トウキョウト","city":"豊島区","city_kana":"トシマク","town":"東池袋サンシャイン６０　１３階","town_kana":"ヒガシイケブクロサンシャイン6013カイ","prefecture_code":13},"6014":{"zip_code":"1706014","prefecture":"東京都","prefecture_kana":"トウキョウト","city":"豊島区","city_kana":"トシマク","town":"東池袋サンシャイン６０　１４階","town_kana":"ヒガシイケブクロサンシャイン6014カイ","prefecture_code":13},"6015":{"zip_code":"1706015","prefecture":"東京都","prefecture_kana":"トウキョウト","city":"豊島区","city_kana":"トシマク","town":"東池袋サンシャイン６０　１５階","town_kana":"ヒガシイケブクロサンシャイン6015カイ","prefecture_code":13},"6016":{"zip_code":"1706016","prefecture":"東京都","prefecture_kana":"トウキョウト","city":"豊島区","city_kana":"トシマク","town":"東池袋サンシャイン６０　１６階","town_kana":"ヒガシイケブクロサンシャイン6016カイ","prefecture_code":13},"6017":{"zip_code":"1706017","prefecture":"東京都","prefecture_kana":"トウキョウト","city":"豊島区","city_kana":"トシマク","town":"東池袋サンシャイン６０　１７階","town_kana":"ヒガシイケブクロサンシャイン6017カイ","prefecture_code":13},"6018":{"zip_code":"1706018","prefecture":"東京都","prefecture_kana":"トウキョウト","city":"豊島区","city_kana":"トシマク","town":"東池袋サンシャイン６０　１８階","town_kana":"ヒガシイケブクロサンシャイン6018カイ","prefecture_code":13},"6019":{"zip_code":"1706019","prefecture":"東京都","prefecture_kana":"トウキョウト","city":"豊島区","city_kana":"トシマク","town":"東池袋サンシャイン６０　１９階","town_kana":"ヒガシイケブクロサンシャイン6019カイ","prefecture_code":13},"6020":{"zip_code":"1706020","prefecture":"東京都","prefecture_kana":"トウキョウト","city":"豊島区","city_kana":"トシマク","town":"東池袋サンシャイン６０　２０階","town_kana":"ヒガシイケブクロサンシャイン6020カイ","prefecture_code":13},"6021":{"zip_code":"1706021","prefecture":"東京都","prefecture_kana":"トウキョウト","city":"豊島区","city_kana":"トシマク","town":"東池袋サンシャイン６０　２１階","town_kana":"ヒガシイケブクロサンシャイン6021カイ","prefecture_code":13},"6022":{"zip_code":"1706022","prefecture":"東京都","prefecture_kana":"トウキョウト","city":"豊島区","city_kana":"トシマク","town":"東池袋サンシャイン６０　２２階","town_kana":"ヒガシイケブクロサンシャイン6022カイ","prefecture_code":13},"6023":{"zip_code":"1706023","prefecture":"東京都","prefecture_kana":"トウキョウト","city":"豊島区","city_kana":"トシマク","town":"東池袋サンシャイン６０　２３階","town_kana":"ヒガシイケブクロサンシャイン6023カイ","prefecture_code":13},"6024":{"zip_code":"1706024","prefecture":"東京都","prefecture_kana":"トウキョウト","city":"豊島区","city_kana":"トシマク","town":"東池袋サンシャイン６０　２４階","town_kana":"ヒガシイケブクロサンシャイン6024カイ","prefecture_code":13},"6025":{"zip_code":"1706025","prefecture":"東京都","prefecture_kana":"トウキョウト","city":"豊島区","city_kana":"トシマク","town":"東池袋サンシャイン６０　２５階","town_kana":"ヒガシイケブクロサンシャイン6025カイ","prefecture_code":13},"6026":{"zip_code":"1706026","prefecture":"東京都","prefecture_kana":"トウキョウト","city":"豊島区","city_kana":"トシマク","town":"東池袋サンシャイン６０　２６階","town_kana":"ヒガシイケブクロサンシャイン6026カイ","prefecture_code":13},"6027":{"zip_code":"1706027","prefecture":"東京都","prefecture_kana":"トウキョウト","city":"豊島区","city_kana":"トシマク","town":"東池袋サンシャイン６０　２７階","town_kana":"ヒガシイケブクロサンシャイン6027カイ","prefecture_code":13},"6028":{"zip_code":"1706028","prefecture":"東京都","prefecture_kana":"トウキョウト","city":"豊島区","city_kana":"トシマク","town":"東池袋サンシャイン６０　２８階","town_kana":"ヒガシイケブクロサンシャイン6028カイ","prefecture_code":13},"6029":{"zip_code":"1706029","prefecture":"東京都","prefecture_kana":"トウキョウト","city":"豊島区","city_kana":"トシマク","town":"東池袋サンシャイン６０　２９階","town_kana":"ヒガシイケブクロサンシャイン6029カイ","prefecture_code":13},"6030":{"zip_code":"1706030","prefecture":"東京都","prefecture_kana":"トウキョウト","city":"豊島区","city_kana":"トシマク","town":"東池袋サンシャイン６０　３０階","town_kana":"ヒガシイケブクロサンシャイン6030カイ","prefecture_code":13},"6031":{"zip_code":"1706031","prefecture":"東京都","prefecture_kana":"トウキョウト","city":"豊島区","city_kana":"トシマク","town":"東池袋サンシャイン６０　３１階","town_kana":"ヒガシイケブクロサンシャイン6031カイ","prefecture_code":13},"6032":{"zip_code":"1706032","prefecture":"東京都","prefecture_kana":"トウキョウト","city":"豊島区","city_kana":"トシマク","town":"東池袋サンシャイン６０　３２階","town_kana":"ヒガシイケブクロサンシャイン6032カイ","prefecture_code":13},"6033":{"zip_code":"1706033","prefecture":"東京都","prefecture_kana":"トウキョウト","city":"豊島区","city_kana":"トシマク","town":"東池袋サンシャイン６０　３３階","town_kana":"ヒガシイケブクロサンシャイン6033カイ","prefecture_code":13},"6034":{"zip_code":"1706034","prefecture":"東京都","prefecture_kana":"トウキョウト","city":"豊島区","city_kana":"トシマク","town":"東池袋サンシャイン６０　３４階","town_kana":"ヒガシイケブクロサンシャイン6034カイ","prefecture_code":13},"6035":{"zip_code":"1706035","prefecture":"東京都","prefecture_kana":"トウキョウト","city":"豊島区","city_kana":"トシマク","town":"東池袋サンシャイン６０　３５階","town_kana":"ヒガシイケブクロサンシャイン6035カイ","prefecture_code":13},"6036":{"zip_code":"1706036","prefecture":"東京都","prefecture_kana":"トウキョウト","city":"豊島区","city_kana":"トシマク","town":"東池袋サンシャイン６０　３６階","town_kana":"ヒガシイケブクロサンシャイン6036カイ","prefecture_code":13},"6037":{"zip_code":"1706037","prefecture":"東京都","prefecture_kana":"トウキョウト","city":"豊島区","city_kana":"トシマク","town":"東池袋サンシャイン６０　３７階","town_kana":"ヒガシイケブクロサンシャイン6037カイ","prefecture_code":13},"6038":{"zip_code":"1706038","prefecture":"東京都","prefecture_kana":"トウキョウト","city":"豊島区","city_kana":"トシマク","town":"東池袋サンシャイン６０　３８階","town_kana":"ヒガシイケブクロサンシャイン6038カイ","prefecture_code":13},"6039":{"zip_code":"1706039","prefecture":"東京都","prefecture_kana":"トウキョウト","city":"豊島区","city_kana":"トシマク","town":"東池袋サンシャイン６０　３９階","town_kana":"ヒガシイケブクロサンシャイン6039カイ","prefecture_code":13},"6040":{"zip_code":"1706040","prefecture":"東京都","prefecture_kana":"トウキョウト","city":"豊島区","city_kana":"トシマク","town":"東池袋サンシャイン６０　４０階","town_kana":"ヒガシイケブクロサンシャイン6040カイ","prefecture_code":13},"6041":{"zip_code":"1706041","prefecture":"東京都","prefecture_kana":"トウキョウト","city":"豊島区","city_kana":"トシマク","town":"東池袋サンシャイン６０　４１階","town_kana":"ヒガシイケブクロサンシャイン6041カイ","prefecture_code":13},"6042":{"zip_code":"1706042","prefecture":"東京都","prefecture_kana":"トウキョウト","city":"豊島区","city_kana":"トシマク","town":"東池袋サンシャイン６０　４２階","town_kana":"ヒガシイケブクロサンシャイン6042カイ","prefecture_code":13},"6043":{"zip_code":"1706043","prefecture":"東京都","prefecture_kana":"トウキョウト","city":"豊島区","city_kana":"トシマク","town":"東池袋サンシャイン６０　４３階","town_kana":"ヒガシイケブクロサンシャイン6043カイ","prefecture_code":13},"6044":{"zip_code":"1706044","prefecture":"東京都","prefecture_kana":"トウキョウト","city":"豊島区","city_kana":"トシマク","town":"東池袋サンシャイン６０　４４階","town_kana":"ヒガシイケブクロサンシャイン6044カイ","prefecture_code":13},"6045":{"zip_code":"1706045","prefecture":"東京都","prefecture_kana":"トウキョウト","city":"豊島区","city_kana":"トシマク","town":"東池袋サンシャイン６０　４５階","town_kana":"ヒガシイケブクロサンシャイン6045カイ","prefecture_code":13},"6046":{"zip_code":"1706046","prefecture":"東京都","prefecture_kana":"トウキョウト","city":"豊島区","city_kana":"トシマク","town":"東池袋サンシャイン６０　４６階","town_kana":"ヒガシイケブクロサンシャイン6046カイ","prefecture_code":13},"6047":{"zip_code":"1706047","prefecture":"東京都","prefecture_kana":"トウキョウト","city":"豊島区","city_kana":"トシマク","town":"東池袋サンシャイン６０　４７階","town_kana":"ヒガシイケブクロサンシャイン6047カイ","prefecture_code":13},"6048":{"zip_code":"1706048","prefecture":"東京都","prefecture_kana":"トウキョウト","city":"豊島区","city_kana":"トシマク","town":"東池袋サンシャイン６０　４８階","town_kana":"ヒガシイケブクロサンシャイン6048カイ","prefecture_code":13},"6049":{"zip_code":"1706049","prefecture":"東京都","prefecture_kana":"トウキョウト","city":"豊島区","city_kana":"トシマク","town":"東池袋サンシャイン６０　４９階","town_kana":"ヒガシイケブクロサンシャイン6049カイ","prefecture_code":13},"6050":{"zip_code":"1706050","prefecture":"東京都","prefecture_kana":"トウキョウト","city":"豊島区","city_kana":"トシマク","town":"東池袋サンシャイン６０　５０階","town_kana":"ヒガシイケブクロサンシャイン6050カイ","prefecture_code":13},"6051":{"zip_code":"1706051","prefecture":"東京都","prefecture_kana":"トウキョウト","city":"豊島区","city_kana":"トシマク","town":"東池袋サンシャイン６０　５１階","town_kana":"ヒガシイケブクロサンシャイン6051カイ","prefecture_code":13},"6052":{"zip_code":"1706052","prefecture":"東京都","prefecture_kana":"トウキョウト","city":"豊島区","city_kana":"トシマク","town":"東池袋サンシャイン６０　５２階","town_kana":"ヒガシイケブクロサンシャイン6052カイ","prefecture_code":13},"6053":{"zip_code":"1706053","prefecture":"東京都","prefecture_kana":"トウキョウト","city":"豊島区","city_kana":"トシマク","town":"東池袋サンシャイン６０　５３階","town_kana":"ヒガシイケブクロサンシャイン6053カイ","prefecture_code":13},"6054":{"zip_code":"1706054","prefecture":"東京都","prefecture_kana":"トウキョウト","city":"豊島区","city_kana":"トシマク","town":"東池袋サンシャイン６０　５４階","town_kana":"ヒガシイケブクロサンシャイン6054カイ","prefecture_code":13},"6055":{"zip_code":"1706055","prefecture":"東京都","prefecture_kana":"トウキョウト","city":"豊島区","city_kana":"トシマク","town":"東池袋サンシャイン６０　５５階","town_kana":"ヒガシイケブクロサンシャイン6055カイ","prefecture_code":13},"6056":{"zip_code":"1706056","prefecture":"東京都","prefecture_kana":"トウキョウト","city":"豊島区","city_kana":"トシマク","town":"東池袋サンシャイン６０　５６階","town_kana":"ヒガシイケブクロサンシャイン6056カイ","prefecture_code":13},"6057":{"zip_code":"1706057","prefecture":"東京都","prefecture_kana":"トウキョウト","city":"豊島区","city_kana":"トシマク","town":"東池袋サンシャイン６０　５７階","town_kana":"ヒガシイケブクロサンシャイン6057カイ","prefecture_code":13},"6058":{"zip_code":"1706058","prefecture":"東京都","prefecture_kana":"トウキョウト","city":"豊島区","city_kana":"トシマク","town":"東池袋サンシャイン６０　５８階","town_kana":"ヒガシイケブクロサンシャイン6058カイ","prefecture_code":13},"6059":{"zip_code":"1706059","prefecture":"東京都","prefecture_kana":"トウキョウト","city":"豊島区","city_kana":"トシマク","town":"東池袋サンシャイン６０　５９階","town_kana":"ヒガシイケブクロサンシャイン6059カイ","prefecture_code":13},"6060":{"zip_code":"1706060","prefecture":"東京都","prefecture_kana":"トウキョウト","city":"豊島区","city_kana":"トシマク","town":"東池袋サンシャイン６０　６０階","town_kana":"ヒガシイケブクロサンシャイン6060カイ","prefecture_code":13},"0005":{"zip_code":"1700005","prefecture":"東京都","prefecture_kana":"トウキョウト","city":"豊島区","city_kana":"トシマク","town":"南大塚","town_kana":"ミナミオオツカ","prefecture_code":13},"8458":{"zip_code":"1708458","prefecture":"東京都","city":"豊島区","town":"巣鴨","prefecture_code":13},"6080":{"zip_code":"1706080","prefecture":"東京都","city":"豊島区","town":"東池袋","prefecture_code":13},"8462":{"zip_code":"1708462","prefecture":"東京都","city":"豊島区","town":"北大塚","prefecture_code":13},"8409":{"zip_code":"1708409","prefecture":"東京都","city":"豊島区","town":"東池袋","prefecture_code":13},"8073":{"zip_code":"1708073","prefecture":"東京都","city":"豊島区","town":"南大塚","prefecture_code":13},"8411":{"zip_code":"1708411","prefecture":"東京都","city":"豊島区","town":"東池袋","prefecture_code":13},"8406":{"zip_code":"1708406","prefecture":"東京都","city":"豊島区","town":"東池袋","prefecture_code":13},"8460":{"zip_code":"1708460","prefecture":"東京都","city":"豊島区","town":"北大塚","prefecture_code":13},"8450":{"zip_code":"1708450","prefecture":"東京都","city":"豊島区","town":"南大塚","prefecture_code":13},"8447":{"zip_code":"1708447","prefecture":"東京都","city":"豊島区","town":"東池袋","prefecture_code":13},"8433":{"zip_code":"1708433","prefecture":"東京都","city":"豊島区","town":"東池袋","prefecture_code":13},"8417":{"zip_code":"1708417","prefecture":"東京都","city":"豊島区","town":"東池袋","prefecture_code":13},"8402":{"zip_code":"1708402","prefecture":"東京都","city":"豊島区","town":"東池袋","prefecture_code":13},"8427":{"zip_code":"1708427","prefecture":"東京都","city":"豊島区","town":"東池袋","prefecture_code":13},"8465":{"zip_code":"1708465","prefecture":"東京都","city":"豊島区","town":"南大塚","prefecture_code":13},"8466":{"zip_code":"1708466","prefecture":"東京都","city":"豊島区","town":"東池袋","prefecture_code":13},"8438":{"zip_code":"1708438","prefecture":"東京都","city":"豊島区","town":"東池袋","prefecture_code":13},"8404":{"zip_code":"1708404","prefecture":"東京都","city":"豊島区","town":"東池袋","prefecture_code":13},"8457":{"zip_code":"1708457","prefecture":"東京都","city":"豊島区","town":"南大塚","prefecture_code":13},"8401":{"zip_code":"1708401","prefecture":"東京都","city":"豊島区","town":"東池袋","prefecture_code":13},"8432":{"zip_code":"1708432","prefecture":"東京都","city":"豊島区","town":"東池袋","prefecture_code":13},"8459":{"zip_code":"1708459","prefecture":"東京都","city":"豊島区","town":"南大塚","prefecture_code":13},"8415":{"zip_code":"1708415","prefecture":"東京都","city":"豊島区","town":"東池袋","prefecture_code":13},"8434":{"zip_code":"1708434","prefecture":"東京都","city":"豊島区","town":"東池袋","prefecture_code":13},"8444":{"zip_code":"1708444","prefecture":"東京都","city":"豊島区","town":"東池袋","prefecture_code":13},"8426":{"zip_code":"1708426","prefecture":"東京都","city":"豊島区","town":"東池袋","prefecture_code":13},"8441":{"zip_code":"1708441","prefecture":"東京都","city":"豊島区","town":"東池袋","prefecture_code":13},"8436":{"zip_code":"1708436","prefecture":"東京都","city":"豊島区","town":"東池袋","prefecture_code":13},"8440":{"zip_code":"1708440","prefecture":"東京都","city":"豊島区","town":"東池袋","prefecture_code":13},"8451":{"zip_code":"1708451","prefecture":"東京都","city":"豊島区","town":"南大塚","prefecture_code":13},"8455":{"zip_code":"1708455","prefecture":"東京都","city":"豊島区","town":"上池袋","prefecture_code":13},"8480":{"zip_code":"1708480","prefecture":"東京都","city":"豊島区","town":"駒込","prefecture_code":13},"8585":{"zip_code":"1708585","prefecture":"東京都","city":"豊島区","town":"巣鴨","prefecture_code":13},"8477":{"zip_code":"1708477","prefecture":"東京都","city":"豊島区","town":"巣鴨","prefecture_code":13},"8470":{"zip_code":"1708470","prefecture":"東京都","city":"豊島区","town":"西巣鴨","prefecture_code":13},"8410":{"zip_code":"1708410","prefecture":"東京都","city":"豊島区","town":"東池袋","prefecture_code":13},"8421":{"zip_code":"1708421","prefecture":"東京都","city":"豊島区","town":"東池袋","prefecture_code":13},"8605":{"zip_code":"1708605","prefecture":"東京都","city":"豊島区","town":"東池袋","prefecture_code":13},"8423":{"zip_code":"1708423","prefecture":"東京都","city":"豊島区","town":"東池袋","prefecture_code":13},"8416":{"zip_code":"1708416","prefecture":"東京都","city":"豊島区","town":"東池袋","prefecture_code":13},"8476":{"zip_code":"1708476","prefecture":"東京都","city":"豊島区","town":"南大塚","prefecture_code":13},"8456":{"zip_code":"1708456","prefecture":"東京都","city":"豊島区","town":"巣鴨","prefecture_code":13},"8422":{"zip_code":"1708422","prefecture":"東京都","city":"豊島区","town":"東池袋","prefecture_code":13},"8442":{"zip_code":"1708442","prefecture":"東京都","city":"豊島区","town":"東池袋","prefecture_code":13},"8405":{"zip_code":"1708405","prefecture":"東京都","city":"豊島区","town":"東池袋","prefecture_code":13},"8055":{"zip_code":"1708055","prefecture":"東京都","city":"豊島区","town":"東池袋","prefecture_code":13},"8430":{"zip_code":"1708430","prefecture":"東京都","city":"豊島区","town":"東池袋","prefecture_code":13},"8551":{"zip_code":"1708551","prefecture":"東京都","city":"豊島区","town":"東池袋","prefecture_code":13},"8488":{"zip_code":"1708488","prefecture":"東京都","city":"豊島区","town":"北大塚","prefecture_code":13},"8420":{"zip_code":"1708420","prefecture":"東京都","city":"豊島区","town":"東池袋","prefecture_code":13},"8419":{"zip_code":"1708419","prefecture":"東京都","city":"豊島区","town":"東池袋","prefecture_code":13},"8602":{"zip_code":"1708602","prefecture":"東京都","city":"豊島区","town":"南池袋","prefecture_code":13},"8666":{"zip_code":"1708666","prefecture":"東京都","city":"豊島区","town":"北大塚","prefecture_code":13},"8448":{"zip_code":"1708448","prefecture":"東京都","city":"豊島区","town":"東池袋","prefecture_code":13},"8424":{"zip_code":"1708424","prefecture":"東京都","city":"豊島区","town":"東池袋","prefecture_code":13},"8686":{"zip_code":"1708686","prefecture":"東京都","city":"豊島区","town":"池袋","prefecture_code":13},"8633":{"zip_code":"1708633","prefecture":"東京都","city":"豊島区","town":"高田","prefecture_code":13},"8655":{"zip_code":"1708655","prefecture":"東京都","city":"豊島区","town":"高田","prefecture_code":13},"8635":{"zip_code":"1708635","prefecture":"東京都","city":"豊島区","town":"高田","prefecture_code":13}}