{"0014":{"zip_code":"1710014","prefecture":"東京都","prefecture_kana":"トウキョウト","city":"豊島区","city_kana":"トシマク","town":"池袋","town_kana":"イケブクロ","prefecture_code":13},"0043":{"zip_code":"1710043","prefecture":"東京都","prefecture_kana":"トウキョウト","city":"豊島区","city_kana":"トシマク","town":"要町","town_kana":"カナメチョウ","prefecture_code":13},"0041":{"zip_code":"1710041","prefecture":"東京都","prefecture_kana":"トウキョウト","city":"豊島区","city_kana":"トシマク","town":"千川","town_kana":"センカワ","prefecture_code":13},"0032":{"zip_code":"1710032","prefecture":"東京都","prefecture_kana":"トウキョウト","city":"豊島区","city_kana":"トシマク","town":"雑司が谷","town_kana":"ゾウシガヤ","prefecture_code":13},"0033":{"zip_code":"1710033","prefecture":"東京都","prefecture_kana":"トウキョウト","city":"豊島区","city_kana":"トシマク","town":"高田","town_kana":"タカダ","prefecture_code":13},"0042":{"zip_code":"1710042","prefecture":"東京都","prefecture_kana":"トウキョウト","city":"豊島区","city_kana":"トシマク","town":"高松","town_kana":"タカマツ","prefecture_code":13},"0044":{"zip_code":"1710044","prefecture":"東京都","prefecture_kana":"トウキョウト","city":"豊島区","city_kana":"トシマク","town":"千早","town_kana":"チハヤ","prefecture_code":13},"0051":{"zip_code":"1710051","prefecture":"東京都","prefecture_kana":"トウキョウト","city":"豊島区","city_kana":"トシマク","town":"長崎","town_kana":"ナガサキ","prefecture_code":13},"0021":{"zip_code":"1710021","prefecture":"東京都","prefecture_kana":"トウキョウト","city":"豊島区","city_kana":"トシマク","town":"西池袋","town_kana":"ニシイケブクロ","prefecture_code":13},"0022":{"zip_code":"1710022","prefecture":"東京都","prefecture_kana":"トウキョウト","city":"豊島区","city_kana":"トシマク","town":"南池袋","town_kana":"ミナミイケブクロ","prefecture_code":13},"0052":{"zip_code":"1710052","prefecture":"東京都","prefecture_kana":"トウキョウト","city":"豊島区","city_kana":"トシマク","town":"南長崎","town_kana":"ミナミナガサキ","prefecture_code":13},"0031":{"zip_code":"1710031","prefecture":"東京都","prefecture_kana":"トウキョウト","city":"豊島区","city_kana":"トシマク","town":"目白","town_kana":"メジロ","prefecture_code":13},"8577":{"zip_code":"1718577","prefecture":"東京都","city":"豊島区","town":"南長崎","prefecture_code":13},"8502":{"zip_code":"1718502","prefecture":"東京都","city":"豊島区","town":"池袋","prefecture_code":13},"8558":{"zip_code":"1718558","prefecture":"東京都","city":"豊島区","town":"南池袋","prefecture_code":13},"8555":{"zip_code":"1718555","prefecture":"東京都","city":"豊島区","town":"高田","prefecture_code":13},"8522":{"zip_code":"1718522","prefecture":"東京都","city":"豊島区","town":"池袋","prefecture_code":13},"8561":{"zip_code":"1718561","prefecture":"東京都","city":"豊島区","town":"高田","prefecture_code":13},"8560":{"zip_code":"1718560","prefecture":"東京都","city":"豊島区","town":"高田","prefecture_code":13},"8570":{"zip_code":"1718570","prefecture":"東京都","city":"豊島区","town":"高田","prefecture_code":13},"8518":{"zip_code":"1718518","prefecture":"東京都","city":"豊島区","town":"西池袋","prefecture_code":13},"8511":{"zip_code":"1718511","prefecture":"東京都","city":"豊島区","town":"西池袋","prefecture_code":13},"8553":{"zip_code":"1718553","prefecture":"東京都","city":"豊島区","town":"高田","prefecture_code":13},"8527":{"zip_code":"1718527","prefecture":"東京都","city":"豊島区","town":"西池袋","prefecture_code":13},"8569":{"zip_code":"1718569","prefecture":"東京都","city":"豊島区","town":"南池袋","prefecture_code":13},"8568":{"zip_code":"1718568","prefecture":"東京都","city":"豊島区","town":"南池袋","prefecture_code":13},"8580":{"zip_code":"1718580","prefecture":"東京都","city":"豊島区","town":"目白","prefecture_code":13},"8512":{"zip_code":"1718512","prefecture":"東京都","city":"豊島区","town":"西池袋","prefecture_code":13},"8582":{"zip_code":"1718582","prefecture":"東京都","city":"豊島区","town":"高田","prefecture_code":13},"8557":{"zip_code":"1718557","prefecture":"東京都","city":"豊島区","town":"南池袋","prefecture_code":13},"8514":{"zip_code":"1718514","prefecture":"東京都","city":"豊島区","town":"高田","prefecture_code":13},"8510":{"zip_code":"1718510","prefecture":"東京都","city":"豊島区","town":"西池袋","prefecture_code":13},"8588":{"zip_code":"1718588","prefecture":"東京都","city":"豊島区","town":"目白","prefecture_code":13},"8523":{"zip_code":"1718523","prefecture":"東京都","city":"豊島区","town":"西池袋","prefecture_code":13},"8572":{"zip_code":"1718572","prefecture":"東京都","city":"豊島区","town":"高田","prefecture_code":13},"8503":{"zip_code":"1718503","prefecture":"東京都","city":"豊島区","town":"池袋","prefecture_code":13},"8586":{"zip_code":"1718586","prefecture":"東京都","city":"豊島区","town":"高田","prefecture_code":13},"8531":{"zip_code":"1718531","prefecture":"東京都","city":"豊島区","town":"高田","prefecture_code":13},"8545":{"zip_code":"1718545","prefecture":"東京都","city":"豊島区","town":"高田","prefecture_code":13},"8540":{"zip_code":"1718540","prefecture":"東京都","city":"豊島区","town":"南池袋","prefecture_code":13},"8528":{"zip_code":"1718528","prefecture":"東京都","city":"豊島区","town":"西池袋","prefecture_code":13},"8509":{"zip_code":"1718509","prefecture":"東京都","city":"豊島区","town":"西池袋","prefecture_code":13},"8507":{"zip_code":"1718507","prefecture":"東京都","city":"豊島区","town":"池袋","prefecture_code":13},"8544":{"zip_code":"1718544","prefecture":"東京都","city":"豊島区","town":"高田","prefecture_code":13},"8521":{"zip_code":"1718521","prefecture":"東京都","city":"豊島区","town":"西池袋","prefecture_code":13},"8516":{"zip_code":"1718516","prefecture":"東京都","city":"豊島区","town":"南長崎","prefecture_code":13},"8552":{"zip_code":"1718552","prefecture":"東京都","city":"豊島区","town":"高田","prefecture_code":13},"8520":{"zip_code":"1718520","prefecture":"東京都","city":"豊島区","town":"西池袋","prefecture_code":13},"8508":{"zip_code":"1718508","prefecture":"東京都","city":"豊島区","town":"西池袋","prefecture_code":13},"8526":{"zip_code":"1718526","prefecture":"東京都","city":"豊島区","town":"西池袋","prefecture_code":13},"8525":{"zip_code":"1718525","prefecture":"東京都","city":"豊島区","town":"池袋","prefecture_code":13},"8501":{"zip_code":"1718501","prefecture":"東京都","city":"豊島区","town":"西池袋","prefecture_code":13},"8539":{"zip_code":"1718539","prefecture":"東京都","city":"豊島区","town":"南池袋","prefecture_code":13}}