{"0000":{"zip_code":"1760000","prefecture":"東京都","prefecture_kana":"トウキョウト","city":"練馬区","city_kana":"ネリマク","town":"","town_kana":"","prefecture_code":13},"0005":{"zip_code":"1760005","prefecture":"東京都","prefecture_kana":"トウキョウト","city":"練馬区","city_kana":"ネリマク","town":"旭丘","town_kana":"アサヒガオカ","prefecture_code":13},"0022":{"zip_code":"1760022","prefecture":"東京都","prefecture_kana":"トウキョウト","city":"練馬区","city_kana":"ネリマク","town":"向山","town_kana":"コウヤマ","prefecture_code":13},"0004":{"zip_code":"1760004","prefecture":"東京都","prefecture_kana":"トウキョウト","city":"練馬区","city_kana":"ネリマク","town":"小竹町","town_kana":"コタケチョウ","prefecture_code":13},"0006":{"zip_code":"1760006","prefecture":"東京都","prefecture_kana":"トウキョウト","city":"練馬区","city_kana":"ネリマク","town":"栄町","town_kana":"サカエチョウ","prefecture_code":13},"0002":{"zip_code":"1760002","prefecture":"東京都","prefecture_kana":"トウキョウト","city":"練馬区","city_kana":"ネリマク","town":"桜台","town_kana":"サクラダイ","prefecture_code":13},"0011":{"zip_code":"1760011","prefecture":"東京都","prefecture_kana":"トウキョウト","city":"練馬区","city_kana":"ネリマク","town":"豊玉上","town_kana":"トヨタマカミ","prefecture_code":13},"0013":{"zip_code":"1760013","prefecture":"東京都","prefecture_kana":"トウキョウト","city":"練馬区","city_kana":"ネリマク","town":"豊玉中","town_kana":"トヨタマナカ","prefecture_code":13},"0014":{"zip_code":"1760014","prefecture":"東京都","prefecture_kana":"トウキョウト","city":"練馬区","city_kana":"ネリマク","town":"豊玉南","town_kana":"トヨタマミナミ","prefecture_code":13},"0012":{"zip_code":"1760012","prefecture":"東京都","prefecture_kana":"トウキョウト","city":"練馬区","city_kana":"ネリマク","town":"豊玉北","town_kana":"トヨタマキタ","prefecture_code":13},"0024":{"zip_code":"1760024","prefecture":"東京都","prefecture_kana":"トウキョウト","city":"練馬区","city_kana":"ネリマク","town":"中村","town_kana":"ナカムラ","prefecture_code":13},"0025":{"zip_code":"1760025","prefecture":"東京都","prefecture_kana":"トウキョウト","city":"練馬区","city_kana":"ネリマク","town":"中村南","town_kana":"ナカムラミナミ","prefecture_code":13},"0023":{"zip_code":"1760023","prefecture":"東京都","prefecture_kana":"トウキョウト","city":"練馬区","city_kana":"ネリマク","town":"中村北","town_kana":"ナカムラキタ","prefecture_code":13},"0021":{"zip_code":"1760021","prefecture":"東京都","prefecture_kana":"トウキョウト","city":"練馬区","city_kana":"ネリマク","town":"貫井","town_kana":"ヌクイ","prefecture_code":13},"0001":{"zip_code":"1760001","prefecture":"東京都","prefecture_kana":"トウキョウト","city":"練馬区","city_kana":"ネリマク","town":"練馬","town_kana":"ネリマ","prefecture_code":13},"0003":{"zip_code":"1760003","prefecture":"東京都","prefecture_kana":"トウキョウト","city":"練馬区","city_kana":"ネリマク","town":"羽沢","town_kana":"ハザワ","prefecture_code":13},"8507":{"zip_code":"1768507","prefecture":"東京都","city":"練馬区","town":"豊玉北","prefecture_code":13},"8528":{"zip_code":"1768528","prefecture":"東京都","city":"練馬区","town":"貫井","prefecture_code":13},"8536":{"zip_code":"1768536","prefecture":"東京都","city":"練馬区","town":"豊玉北","prefecture_code":13},"8510":{"zip_code":"1768510","prefecture":"東京都","city":"練馬区","town":"桜台","prefecture_code":13},"8560":{"zip_code":"1768560","prefecture":"東京都","city":"練馬区","town":"豊玉北","prefecture_code":13},"8502":{"zip_code":"1768502","prefecture":"東京都","city":"練馬区","town":"豊玉南","prefecture_code":13},"8531":{"zip_code":"1768531","prefecture":"東京都","city":"練馬区","town":"向山","prefecture_code":13},"8518":{"zip_code":"1768518","prefecture":"東京都","city":"練馬区","town":"豊玉上","prefecture_code":13},"8533":{"zip_code":"1768533","prefecture":"東京都","city":"練馬区","town":"豊玉上","prefecture_code":13},"8521":{"zip_code":"1768521","prefecture":"東京都","city":"練馬区","town":"羽沢","prefecture_code":13},"8512":{"zip_code":"1768512","prefecture":"東京都","city":"練馬区","town":"小竹町","prefecture_code":13},"8508":{"zip_code":"1768508","prefecture":"東京都","city":"練馬区","town":"羽沢","prefecture_code":13},"8515":{"zip_code":"1768515","prefecture":"東京都","city":"練馬区","town":"中村北","prefecture_code":13},"8511":{"zip_code":"1768511","prefecture":"東京都","city":"練馬区","town":"豊玉北","prefecture_code":13},"8540":{"zip_code":"1768540","prefecture":"東京都","city":"練馬区","town":"中村北","prefecture_code":13},"8525":{"zip_code":"1768525","prefecture":"東京都","city":"練馬区","town":"旭丘","prefecture_code":13},"8501":{"zip_code":"1768501","prefecture":"東京都","city":"練馬区","town":"豊玉北","prefecture_code":13},"8530":{"zip_code":"1768530","prefecture":"東京都","city":"練馬区","town":"旭丘","prefecture_code":13},"8503":{"zip_code":"1768503","prefecture":"東京都","city":"練馬区","town":"栄町","prefecture_code":13},"8522":{"zip_code":"1768522","prefecture":"東京都","city":"練馬区","town":"豊玉北","prefecture_code":13},"8585":{"zip_code":"1768585","prefecture":"東京都","city":"練馬区","town":"豊玉北","prefecture_code":13},"8516":{"zip_code":"1768516","prefecture":"東京都","city":"練馬区","town":"豊玉北","prefecture_code":13},"8535":{"zip_code":"1768535","prefecture":"東京都","city":"練馬区","town":"豊玉上","prefecture_code":13},"8534":{"zip_code":"1768534","prefecture":"東京都","city":"練馬区","town":"豊玉上","prefecture_code":13}}