{"0061":{"zip_code":"1780061","prefecture":"東京都","prefecture_kana":"トウキョウト","city":"練馬区","city_kana":"ネリマク","town":"大泉学園町","town_kana":"オオイズミガクエンチョウ","prefecture_code":13},"0062":{"zip_code":"1780062","prefecture":"東京都","prefecture_kana":"トウキョウト","city":"練馬区","city_kana":"ネリマク","town":"大泉町","town_kana":"オオイズミマチ","prefecture_code":13},"0065":{"zip_code":"1780065","prefecture":"東京都","prefecture_kana":"トウキョウト","city":"練馬区","city_kana":"ネリマク","town":"西大泉","town_kana":"ニシオオイズミ","prefecture_code":13},"0066":{"zip_code":"1780066","prefecture":"東京都","prefecture_kana":"トウキョウト","city":"練馬区","city_kana":"ネリマク","town":"西大泉町","town_kana":"ニシオオイズミマチ","prefecture_code":13},"0063":{"zip_code":"1780063","prefecture":"東京都","prefecture_kana":"トウキョウト","city":"練馬区","city_kana":"ネリマク","town":"東大泉","town_kana":"ヒガシオオイズミ","prefecture_code":13},"0064":{"zip_code":"1780064","prefecture":"東京都","prefecture_kana":"トウキョウト","city":"練馬区","city_kana":"ネリマク","town":"南大泉","town_kana":"ミナミオオイズミ","prefecture_code":13},"8601":{"zip_code":"1788601","prefecture":"東京都","city":"練馬区","town":"東大泉","prefecture_code":13},"8502":{"zip_code":"1788502","prefecture":"東京都","city":"練馬区","town":"東大泉","prefecture_code":13},"8686":{"zip_code":"1788686","prefecture":"東京都","city":"練馬区","town":"大泉学園町","prefecture_code":13},"8511":{"zip_code":"1788511","prefecture":"東京都","city":"練馬区","town":"東大泉","prefecture_code":13},"8666":{"zip_code":"1788666","prefecture":"東京都","city":"練馬区","town":"東大泉","prefecture_code":13},"8567":{"zip_code":"1788567","prefecture":"東京都","city":"練馬区","town":"東大泉","prefecture_code":13},"8624":{"zip_code":"1788624","prefecture":"東京都","city":"練馬区","town":"東大泉","prefecture_code":13},"8501":{"zip_code":"1788501","prefecture":"東京都","city":"練馬区","town":"","prefecture_code":13}}