{"0000":{"zip_code":"1800000","prefecture":"東京都","prefecture_kana":"トウキョウト","city":"武蔵野市","city_kana":"ムサシノシ","town":"","town_kana":"","prefecture_code":13},"0004":{"zip_code":"1800004","prefecture":"東京都","prefecture_kana":"トウキョウト","city":"武蔵野市","city_kana":"ムサシノシ","town":"吉祥寺本町","town_kana":"キチジョウジホンチョウ","prefecture_code":13},"0002":{"zip_code":"1800002","prefecture":"東京都","prefecture_kana":"トウキョウト","city":"武蔵野市","city_kana":"ムサシノシ","town":"吉祥寺東町","town_kana":"キチジョウジヒガシチョウ","prefecture_code":13},"0003":{"zip_code":"1800003","prefecture":"東京都","prefecture_kana":"トウキョウト","city":"武蔵野市","city_kana":"ムサシノシ","town":"吉祥寺南町","town_kana":"キチジョウジミナミチョウ","prefecture_code":13},"0001":{"zip_code":"1800001","prefecture":"東京都","prefecture_kana":"トウキョウト","city":"武蔵野市","city_kana":"ムサシノシ","town":"吉祥寺北町","town_kana":"キチジョウジキタマチ","prefecture_code":13},"0023":{"zip_code":"1800023","prefecture":"東京都","prefecture_kana":"トウキョウト","city":"武蔵野市","city_kana":"ムサシノシ","town":"境南町","town_kana":"キョウナンチョウ","prefecture_code":13},"0005":{"zip_code":"1800005","prefecture":"東京都","prefecture_kana":"トウキョウト","city":"武蔵野市","city_kana":"ムサシノシ","town":"御殿山","town_kana":"ゴテンヤマ","prefecture_code":13},"0022":{"zip_code":"1800022","prefecture":"東京都","prefecture_kana":"トウキョウト","city":"武蔵野市","city_kana":"ムサシノシ","town":"境","town_kana":"サカイ","prefecture_code":13},"0021":{"zip_code":"1800021","prefecture":"東京都","prefecture_kana":"トウキョウト","city":"武蔵野市","city_kana":"ムサシノシ","town":"桜堤","town_kana":"サクラヅツミ","prefecture_code":13},"0014":{"zip_code":"1800014","prefecture":"東京都","prefecture_kana":"トウキョウト","city":"武蔵野市","city_kana":"ムサシノシ","town":"関前","town_kana":"セキマエ","prefecture_code":13},"0006":{"zip_code":"1800006","prefecture":"東京都","prefecture_kana":"トウキョウト","city":"武蔵野市","city_kana":"ムサシノシ","town":"中町","town_kana":"ナカチョウ","prefecture_code":13},"0013":{"zip_code":"1800013","prefecture":"東京都","prefecture_kana":"トウキョウト","city":"武蔵野市","city_kana":"ムサシノシ","town":"西久保","town_kana":"ニシクボ","prefecture_code":13},"0012":{"zip_code":"1800012","prefecture":"東京都","prefecture_kana":"トウキョウト","city":"武蔵野市","city_kana":"ムサシノシ","town":"緑町","town_kana":"ミドリチョウ","prefecture_code":13},"0011":{"zip_code":"1800011","prefecture":"東京都","prefecture_kana":"トウキョウト","city":"武蔵野市","city_kana":"ムサシノシ","town":"八幡町","town_kana":"ヤハタチョウ","prefecture_code":13},"8580":{"zip_code":"1808580","prefecture":"東京都","city":"武蔵野市","town":"西久保","prefecture_code":13},"8608":{"zip_code":"1808608","prefecture":"東京都","city":"武蔵野市","town":"西久保","prefecture_code":13},"8519":{"zip_code":"1808519","prefecture":"東京都","city":"武蔵野市","town":"吉祥寺本町","prefecture_code":13},"8527":{"zip_code":"1808527","prefecture":"東京都","city":"武蔵野市","town":"吉祥寺本町","prefecture_code":13},"8508":{"zip_code":"1808508","prefecture":"東京都","city":"武蔵野市","town":"吉祥寺本町","prefecture_code":13},"8538":{"zip_code":"1808538","prefecture":"東京都","city":"武蔵野市","town":"中町","prefecture_code":13},"8505":{"zip_code":"1808505","prefecture":"東京都","city":"武蔵野市","town":"吉祥寺本町","prefecture_code":13},"8629":{"zip_code":"1808629","prefecture":"東京都","city":"武蔵野市","town":"境","prefecture_code":13},"8633":{"zip_code":"1808633","prefecture":"東京都","city":"武蔵野市","town":"吉祥寺北町","prefecture_code":13},"8566":{"zip_code":"1808566","prefecture":"東京都","city":"武蔵野市","town":"吉祥寺東町","prefecture_code":13},"8517":{"zip_code":"1808517","prefecture":"東京都","city":"武蔵野市","town":"吉祥寺本町","prefecture_code":13},"8571":{"zip_code":"1808571","prefecture":"東京都","city":"武蔵野市","town":"西久保","prefecture_code":13},"8577":{"zip_code":"1808577","prefecture":"東京都","city":"武蔵野市","town":"西久保","prefecture_code":13},"8602":{"zip_code":"1808602","prefecture":"東京都","city":"武蔵野市","town":"境南町","prefecture_code":13},"8618":{"zip_code":"1808618","prefecture":"東京都","city":"武蔵野市","town":"境南町","prefecture_code":13},"8531":{"zip_code":"1808531","prefecture":"東京都","city":"武蔵野市","town":"中町","prefecture_code":13},"8777":{"zip_code":"1808777","prefecture":"東京都","city":"武蔵野市","town":"緑町","prefecture_code":13},"8610":{"zip_code":"1808610","prefecture":"東京都","city":"武蔵野市","town":"境南町","prefecture_code":13},"8522":{"zip_code":"1808522","prefecture":"東京都","city":"武蔵野市","town":"吉祥寺本町","prefecture_code":13},"8533":{"zip_code":"1808533","prefecture":"東京都","city":"武蔵野市","town":"中町","prefecture_code":13},"8611":{"zip_code":"1808611","prefecture":"東京都","city":"武蔵野市","town":"境南町","prefecture_code":13},"8750":{"zip_code":"1808750","prefecture":"東京都","city":"武蔵野市","town":"中町","prefecture_code":13}}