{"0000":{"zip_code":"1840000","prefecture":"東京都","prefecture_kana":"トウキョウト","city":"小金井市","city_kana":"コガネイシ","town":"","town_kana":"","prefecture_code":13},"0002":{"zip_code":"1840002","prefecture":"東京都","prefecture_kana":"トウキョウト","city":"小金井市","city_kana":"コガネイシ","town":"梶野町","town_kana":"カジノチョウ","prefecture_code":13},"0005":{"zip_code":"1840005","prefecture":"東京都","prefecture_kana":"トウキョウト","city":"小金井市","city_kana":"コガネイシ","town":"桜町","town_kana":"サクラチョウ","prefecture_code":13},"0001":{"zip_code":"1840001","prefecture":"東京都","prefecture_kana":"トウキョウト","city":"小金井市","city_kana":"コガネイシ","town":"関野町","town_kana":"セキノチョウ","prefecture_code":13},"0012":{"zip_code":"1840012","prefecture":"東京都","prefecture_kana":"トウキョウト","city":"小金井市","city_kana":"コガネイシ","town":"中町","town_kana":"ナカチョウ","prefecture_code":13},"0014":{"zip_code":"1840014","prefecture":"東京都","prefecture_kana":"トウキョウト","city":"小金井市","city_kana":"コガネイシ","town":"貫井南町","town_kana":"ヌクイミナミチョウ","prefecture_code":13},"0015":{"zip_code":"1840015","prefecture":"東京都","prefecture_kana":"トウキョウト","city":"小金井市","city_kana":"コガネイシ","town":"貫井北町","town_kana":"ヌクイキタマチ","prefecture_code":13},"0011":{"zip_code":"1840011","prefecture":"東京都","prefecture_kana":"トウキョウト","city":"小金井市","city_kana":"コガネイシ","town":"東町","town_kana":"ヒガシチョウ","prefecture_code":13},"0004":{"zip_code":"1840004","prefecture":"東京都","prefecture_kana":"トウキョウト","city":"小金井市","city_kana":"コガネイシ","town":"本町","town_kana":"ホンチョウ","prefecture_code":13},"0013":{"zip_code":"1840013","prefecture":"東京都","prefecture_kana":"トウキョウト","city":"小金井市","city_kana":"コガネイシ","town":"前原町","town_kana":"マエハラチョウ","prefecture_code":13},"0003":{"zip_code":"1840003","prefecture":"東京都","prefecture_kana":"トウキョウト","city":"小金井市","city_kana":"コガネイシ","town":"緑町","town_kana":"ミドリチョウ","prefecture_code":13},"8505":{"zip_code":"1848505","prefecture":"東京都","city":"小金井市","town":"貫井北町","prefecture_code":13},"8515":{"zip_code":"1848515","prefecture":"東京都","city":"小金井市","town":"梶野町","prefecture_code":13},"8558":{"zip_code":"1848558","prefecture":"東京都","city":"小金井市","town":"前原町","prefecture_code":13},"8585":{"zip_code":"1848585","prefecture":"東京都","city":"小金井市","town":"東町","prefecture_code":13},"8533":{"zip_code":"1848533","prefecture":"東京都","city":"小金井市","town":"緑町","prefecture_code":13},"8510":{"zip_code":"1848510","prefecture":"東京都","city":"小金井市","town":"本町","prefecture_code":13},"8522":{"zip_code":"1848522","prefecture":"東京都","city":"小金井市","town":"緑町","prefecture_code":13},"8595":{"zip_code":"1848595","prefecture":"東京都","city":"小金井市","town":"緑町","prefecture_code":13},"8502":{"zip_code":"1848502","prefecture":"東京都","city":"小金井市","town":"本町","prefecture_code":13},"8543":{"zip_code":"1848543","prefecture":"東京都","city":"小金井市","town":"前原町","prefecture_code":13},"8577":{"zip_code":"1848577","prefecture":"東京都","city":"小金井市","town":"本町","prefecture_code":13},"8504":{"zip_code":"1848504","prefecture":"東京都","city":"小金井市","town":"本町","prefecture_code":13},"8503":{"zip_code":"1848503","prefecture":"東京都","city":"小金井市","town":"東町","prefecture_code":13},"8508":{"zip_code":"1848508","prefecture":"東京都","city":"小金井市","town":"中町","prefecture_code":13},"8511":{"zip_code":"1848511","prefecture":"東京都","city":"小金井市","town":"桜町","prefecture_code":13},"8575":{"zip_code":"1848575","prefecture":"東京都","city":"小金井市","town":"貫井北町","prefecture_code":13},"8501":{"zip_code":"1848501","prefecture":"東京都","city":"小金井市","town":"貫井北町","prefecture_code":13},"8555":{"zip_code":"1848555","prefecture":"東京都","city":"小金井市","town":"梶野町","prefecture_code":13},"8581":{"zip_code":"1848581","prefecture":"東京都","city":"小金井市","town":"本町","prefecture_code":13},"8588":{"zip_code":"1848588","prefecture":"東京都","city":"小金井市","town":"中町","prefecture_code":13},"8795":{"zip_code":"1848795","prefecture":"東京都","city":"小金井市","town":"貫井北町","prefecture_code":13},"8584":{"zip_code":"1848584","prefecture":"東京都","city":"小金井市","town":"梶野町","prefecture_code":13}}