{"0000":{"zip_code":"1850000","prefecture":"東京都","prefecture_kana":"トウキョウト","city":"国分寺市","city_kana":"コクブンジシ","town":"","town_kana":"","prefecture_code":13},"0024":{"zip_code":"1850024","prefecture":"東京都","prefecture_kana":"トウキョウト","city":"国分寺市","city_kana":"コクブンジシ","town":"泉町","town_kana":"イズミチョウ","prefecture_code":13},"0001":{"zip_code":"1850001","prefecture":"東京都","prefecture_kana":"トウキョウト","city":"国分寺市","city_kana":"コクブンジシ","town":"北町","town_kana":"キタマチ","prefecture_code":13},"0004":{"zip_code":"1850004","prefecture":"東京都","prefecture_kana":"トウキョウト","city":"国分寺市","city_kana":"コクブンジシ","town":"新町","town_kana":"シンマチ","prefecture_code":13},"0036":{"zip_code":"1850036","prefecture":"東京都","prefecture_kana":"トウキョウト","city":"国分寺市","city_kana":"コクブンジシ","town":"高木町","town_kana":"タカギチョウ","prefecture_code":13},"0003":{"zip_code":"1850003","prefecture":"東京都","prefecture_kana":"トウキョウト","city":"国分寺市","city_kana":"コクブンジシ","town":"戸倉","town_kana":"トクラ","prefecture_code":13},"0033":{"zip_code":"1850033","prefecture":"東京都","prefecture_kana":"トウキョウト","city":"国分寺市","city_kana":"コクブンジシ","town":"内藤","town_kana":"ナイトウ","prefecture_code":13},"0005":{"zip_code":"1850005","prefecture":"東京都","prefecture_kana":"トウキョウト","city":"国分寺市","city_kana":"コクブンジシ","town":"並木町","town_kana":"ナミキチョウ","prefecture_code":13},"0013":{"zip_code":"1850013","prefecture":"東京都","prefecture_kana":"トウキョウト","city":"国分寺市","city_kana":"コクブンジシ","town":"西恋ケ窪","town_kana":"ニシコイガクボ","prefecture_code":13},"0035":{"zip_code":"1850035","prefecture":"東京都","prefecture_kana":"トウキョウト","city":"国分寺市","city_kana":"コクブンジシ","town":"西町","town_kana":"ニシマチ","prefecture_code":13},"0023":{"zip_code":"1850023","prefecture":"東京都","prefecture_kana":"トウキョウト","city":"国分寺市","city_kana":"コクブンジシ","town":"西元町","town_kana":"ニシモトマチ","prefecture_code":13},"0034":{"zip_code":"1850034","prefecture":"東京都","prefecture_kana":"トウキョウト","city":"国分寺市","city_kana":"コクブンジシ","town":"光町","town_kana":"ヒカリチョウ","prefecture_code":13},"0014":{"zip_code":"1850014","prefecture":"東京都","prefecture_kana":"トウキョウト","city":"国分寺市","city_kana":"コクブンジシ","town":"東恋ケ窪","town_kana":"ヒガシコイガクボ","prefecture_code":13},"0002":{"zip_code":"1850002","prefecture":"東京都","prefecture_kana":"トウキョウト","city":"国分寺市","city_kana":"コクブンジシ","town":"東戸倉","town_kana":"ヒガシトクラ","prefecture_code":13},"0022":{"zip_code":"1850022","prefecture":"東京都","prefecture_kana":"トウキョウト","city":"国分寺市","city_kana":"コクブンジシ","town":"東元町","town_kana":"ヒガシモトマチ","prefecture_code":13},"0032":{"zip_code":"1850032","prefecture":"東京都","prefecture_kana":"トウキョウト","city":"国分寺市","city_kana":"コクブンジシ","town":"日吉町","town_kana":"ヒヨシチョウ","prefecture_code":13},"0031":{"zip_code":"1850031","prefecture":"東京都","prefecture_kana":"トウキョウト","city":"国分寺市","city_kana":"コクブンジシ","town":"富士本","town_kana":"フジモト","prefecture_code":13},"0011":{"zip_code":"1850011","prefecture":"東京都","prefecture_kana":"トウキョウト","city":"国分寺市","city_kana":"コクブンジシ","town":"本多","town_kana":"ホンダ","prefecture_code":13},"0012":{"zip_code":"1850012","prefecture":"東京都","prefecture_kana":"トウキョウト","city":"国分寺市","city_kana":"コクブンジシ","town":"本町","town_kana":"ホンチョウ","prefecture_code":13},"0021":{"zip_code":"1850021","prefecture":"東京都","prefecture_kana":"トウキョウト","city":"国分寺市","city_kana":"コクブンジシ","town":"南町","town_kana":"ミナミチョウ","prefecture_code":13},"8562":{"zip_code":"1858562","prefecture":"東京都","city":"国分寺市","town":"南町","prefecture_code":13},"8601":{"zip_code":"1858601","prefecture":"東京都","city":"国分寺市","town":"東恋ケ窪","prefecture_code":13},"8501":{"zip_code":"1858501","prefecture":"東京都","city":"国分寺市","town":"戸倉","prefecture_code":13},"8540":{"zip_code":"1858540","prefecture":"東京都","city":"国分寺市","town":"光町","prefecture_code":13},"8795":{"zip_code":"1858795","prefecture":"東京都","city":"国分寺市","town":"泉町","prefecture_code":13},"8567":{"zip_code":"1858567","prefecture":"東京都","city":"国分寺市","town":"本多","prefecture_code":13},"8510":{"zip_code":"1858510","prefecture":"東京都","city":"国分寺市","town":"光町","prefecture_code":13},"8502":{"zip_code":"1858502","prefecture":"東京都","city":"国分寺市","town":"南町","prefecture_code":13},"8520":{"zip_code":"1858520","prefecture":"東京都","city":"国分寺市","town":"泉町","prefecture_code":13},"8511":{"zip_code":"1858511","prefecture":"東京都","city":"国分寺市","town":"戸倉","prefecture_code":13},"8533":{"zip_code":"1858533","prefecture":"東京都","city":"国分寺市","town":"東元町","prefecture_code":13},"8506":{"zip_code":"1858506","prefecture":"東京都","city":"国分寺市","town":"本町","prefecture_code":13}}