{"0000":{"zip_code":"1860000","prefecture":"東京都","prefecture_kana":"トウキョウト","city":"国立市","city_kana":"クニタチシ","town":"","town_kana":"","prefecture_code":13},"0013":{"zip_code":"1860013","prefecture":"東京都","prefecture_kana":"トウキョウト","city":"国立市","city_kana":"クニタチシ","town":"青柳","town_kana":"アオヤギ","prefecture_code":13},"0014":{"zip_code":"1860014","prefecture":"東京都","prefecture_kana":"トウキョウト","city":"国立市","city_kana":"クニタチシ","town":"石田","town_kana":"イシダ","prefecture_code":13},"0012":{"zip_code":"1860012","prefecture":"東京都","prefecture_kana":"トウキョウト","city":"国立市","city_kana":"クニタチシ","town":"泉","town_kana":"イズミ","prefecture_code":13},"0001":{"zip_code":"1860001","prefecture":"東京都","prefecture_kana":"トウキョウト","city":"国立市","city_kana":"クニタチシ","town":"北","town_kana":"キタ","prefecture_code":13},"0004":{"zip_code":"1860004","prefecture":"東京都","prefecture_kana":"トウキョウト","city":"国立市","city_kana":"クニタチシ","town":"中","town_kana":"ナカ","prefecture_code":13},"0005":{"zip_code":"1860005","prefecture":"東京都","prefecture_kana":"トウキョウト","city":"国立市","city_kana":"クニタチシ","town":"西","town_kana":"ニシ","prefecture_code":13},"0002":{"zip_code":"1860002","prefecture":"東京都","prefecture_kana":"トウキョウト","city":"国立市","city_kana":"クニタチシ","town":"東","town_kana":"ヒガシ","prefecture_code":13},"0003":{"zip_code":"1860003","prefecture":"東京都","prefecture_kana":"トウキョウト","city":"国立市","city_kana":"クニタチシ","town":"富士見台","town_kana":"フジミダイ","prefecture_code":13},"0015":{"zip_code":"1860015","prefecture":"東京都","prefecture_kana":"トウキョウト","city":"国立市","city_kana":"クニタチシ","town":"矢川","town_kana":"ヤガワ","prefecture_code":13},"0011":{"zip_code":"1860011","prefecture":"東京都","prefecture_kana":"トウキョウト","city":"国立市","city_kana":"クニタチシ","town":"谷保","town_kana":"ヤホ","prefecture_code":13},"8611":{"zip_code":"1868611","prefecture":"東京都","city":"国立市","town":"東","prefecture_code":13},"8585":{"zip_code":"1868585","prefecture":"東京都","city":"国立市","town":"東","prefecture_code":13},"8650":{"zip_code":"1868650","prefecture":"東京都","city":"国立市","town":"泉","prefecture_code":13},"8666":{"zip_code":"1868666","prefecture":"東京都","city":"国立市","town":"富士見台","prefecture_code":13},"8501":{"zip_code":"1868501","prefecture":"東京都","city":"国立市","town":"富士見台","prefecture_code":13},"8519":{"zip_code":"1868519","prefecture":"東京都","city":"国立市","town":"中","prefecture_code":13},"8619":{"zip_code":"1868619","prefecture":"東京都","city":"国立市","town":"中","prefecture_code":13},"8686":{"zip_code":"1868686","prefecture":"東京都","city":"国立市","town":"中","prefecture_code":13},"8688":{"zip_code":"1868688","prefecture":"東京都","city":"国立市","town":"東","prefecture_code":13},"8798":{"zip_code":"1868798","prefecture":"東京都","city":"国立市","town":"西","prefecture_code":13},"8668":{"zip_code":"1868668","prefecture":"東京都","city":"国立市","town":"富士見台","prefecture_code":13},"8680":{"zip_code":"1868680","prefecture":"東京都","city":"国立市","town":"谷保","prefecture_code":13},"8601":{"zip_code":"1868601","prefecture":"東京都","city":"国立市","town":"中","prefecture_code":13},"8603":{"zip_code":"1868603","prefecture":"東京都","city":"国立市","town":"中","prefecture_code":13},"8602":{"zip_code":"1868602","prefecture":"東京都","city":"国立市","town":"中","prefecture_code":13},"8797":{"zip_code":"1868797","prefecture":"東京都","city":"国立市","town":"西","prefecture_code":13},"8001":{"zip_code":"1868001","prefecture":"東京都","city":"国立市","town":"富士見台","prefecture_code":13}}