{"0000":{"zip_code":"1870000","prefecture":"東京都","prefecture_kana":"トウキョウト","city":"小平市","city_kana":"コダイラシ","town":"","town_kana":"","prefecture_code":13},"0001":{"zip_code":"1870001","prefecture":"東京都","prefecture_kana":"トウキョウト","city":"小平市","city_kana":"コダイラシ","town":"大沼町","town_kana":"オオヌマチョウ","prefecture_code":13},"0031":{"zip_code":"1870031","prefecture":"東京都","prefecture_kana":"トウキョウト","city":"小平市","city_kana":"コダイラシ","town":"小川東町","town_kana":"オガワヒガシチョウ","prefecture_code":13},"0035":{"zip_code":"1870035","prefecture":"東京都","prefecture_kana":"トウキョウト","city":"小平市","city_kana":"コダイラシ","town":"小川西町","town_kana":"オガワニシマチ","prefecture_code":13},"0032":{"zip_code":"1870032","prefecture":"東京都","prefecture_kana":"トウキョウト","city":"小平市","city_kana":"コダイラシ","town":"小川町","town_kana":"オガワチョウ","prefecture_code":13},"0043":{"zip_code":"1870043","prefecture":"東京都","prefecture_kana":"トウキョウト","city":"小平市","city_kana":"コダイラシ","town":"学園東町","town_kana":"ガクエンヒガシチョウ","prefecture_code":13},"0045":{"zip_code":"1870045","prefecture":"東京都","prefecture_kana":"トウキョウト","city":"小平市","city_kana":"コダイラシ","town":"学園西町","town_kana":"ガクエンニシマチ","prefecture_code":13},"0044":{"zip_code":"1870044","prefecture":"東京都","prefecture_kana":"トウキョウト","city":"小平市","city_kana":"コダイラシ","town":"喜平町","town_kana":"キヘイチョウ","prefecture_code":13},"0034":{"zip_code":"1870034","prefecture":"東京都","prefecture_kana":"トウキョウト","city":"小平市","city_kana":"コダイラシ","town":"栄町","town_kana":"サカエチョウ","prefecture_code":13},"0023":{"zip_code":"1870023","prefecture":"東京都","prefecture_kana":"トウキョウト","city":"小平市","city_kana":"コダイラシ","town":"上水新町","town_kana":"ジョウスイシンマチ","prefecture_code":13},"0022":{"zip_code":"1870022","prefecture":"東京都","prefecture_kana":"トウキョウト","city":"小平市","city_kana":"コダイラシ","town":"上水本町","town_kana":"ジョウスイホンチョウ","prefecture_code":13},"0021":{"zip_code":"1870021","prefecture":"東京都","prefecture_kana":"トウキョウト","city":"小平市","city_kana":"コダイラシ","town":"上水南町","town_kana":"ジョウスイミナミチョウ","prefecture_code":13},"0011":{"zip_code":"1870011","prefecture":"東京都","prefecture_kana":"トウキョウト","city":"小平市","city_kana":"コダイラシ","town":"鈴木町","town_kana":"スズキチョウ","prefecture_code":13},"0024":{"zip_code":"1870024","prefecture":"東京都","prefecture_kana":"トウキョウト","city":"小平市","city_kana":"コダイラシ","town":"たかの台","town_kana":"タカノダイ","prefecture_code":13},"0025":{"zip_code":"1870025","prefecture":"東京都","prefecture_kana":"トウキョウト","city":"小平市","city_kana":"コダイラシ","town":"津田町","town_kana":"ツダマチ","prefecture_code":13},"0004":{"zip_code":"1870004","prefecture":"東京都","prefecture_kana":"トウキョウト","city":"小平市","city_kana":"コダイラシ","town":"天神町","town_kana":"テンジンチョウ","prefecture_code":13},"0033":{"zip_code":"1870033","prefecture":"東京都","prefecture_kana":"トウキョウト","city":"小平市","city_kana":"コダイラシ","town":"中島町","town_kana":"ナカジマチョウ","prefecture_code":13},"0042":{"zip_code":"1870042","prefecture":"東京都","prefecture_kana":"トウキョウト","city":"小平市","city_kana":"コダイラシ","town":"仲町","town_kana":"ナカマチ","prefecture_code":13},"0002":{"zip_code":"1870002","prefecture":"東京都","prefecture_kana":"トウキョウト","city":"小平市","city_kana":"コダイラシ","town":"花小金井","town_kana":"ハナコガネイ","prefecture_code":13},"0003":{"zip_code":"1870003","prefecture":"東京都","prefecture_kana":"トウキョウト","city":"小平市","city_kana":"コダイラシ","town":"花小金井南町","town_kana":"ハナコガネイミナミチョウ","prefecture_code":13},"0041":{"zip_code":"1870041","prefecture":"東京都","prefecture_kana":"トウキョウト","city":"小平市","city_kana":"コダイラシ","town":"美園町","town_kana":"ミソノチョウ","prefecture_code":13},"0012":{"zip_code":"1870012","prefecture":"東京都","prefecture_kana":"トウキョウト","city":"小平市","city_kana":"コダイラシ","town":"御幸町","town_kana":"ミユキチョウ","prefecture_code":13},"0013":{"zip_code":"1870013","prefecture":"東京都","prefecture_kana":"トウキョウト","city":"小平市","city_kana":"コダイラシ","town":"回田町","town_kana":"メグリタチョウ","prefecture_code":13},"8578":{"zip_code":"1878578","prefecture":"東京都","city":"小平市","town":"花小金井南町","prefecture_code":13},"8581":{"zip_code":"1878581","prefecture":"東京都","city":"小平市","town":"上水本町","prefecture_code":13},"8567":{"zip_code":"1878567","prefecture":"東京都","city":"小平市","town":"天神町","prefecture_code":13},"8558":{"zip_code":"1878558","prefecture":"東京都","city":"小平市","town":"喜平町","prefecture_code":13},"8511":{"zip_code":"1878511","prefecture":"東京都","city":"小平市","town":"御幸町","prefecture_code":13},"8512":{"zip_code":"1878512","prefecture":"東京都","city":"小平市","town":"回田町","prefecture_code":13},"8522":{"zip_code":"1878522","prefecture":"東京都","city":"小平市","town":"上水本町","prefecture_code":13},"8531":{"zip_code":"1878531","prefecture":"東京都","city":"小平市","town":"小川東町","prefecture_code":13},"8588":{"zip_code":"1878588","prefecture":"東京都","city":"小平市","town":"上水本町","prefecture_code":13},"8570":{"zip_code":"1878570","prefecture":"東京都","city":"小平市","town":"小川町","prefecture_code":13},"8577":{"zip_code":"1878577","prefecture":"東京都","city":"小平市","town":"津田町","prefecture_code":13},"8560":{"zip_code":"1878560","prefecture":"東京都","city":"小平市","town":"小川町","prefecture_code":13},"8555":{"zip_code":"1878555","prefecture":"東京都","city":"小平市","town":"小川町","prefecture_code":13},"8510":{"zip_code":"1878510","prefecture":"東京都","city":"小平市","town":"花小金井","prefecture_code":13},"8520":{"zip_code":"1878520","prefecture":"東京都","city":"小平市","town":"喜平町","prefecture_code":13},"8551":{"zip_code":"1878551","prefecture":"東京都","city":"小平市","town":"小川東町","prefecture_code":13},"8502":{"zip_code":"1878502","prefecture":"東京都","city":"小平市","town":"小川東町","prefecture_code":13},"8553":{"zip_code":"1878553","prefecture":"東京都","city":"小平市","town":"小川東町","prefecture_code":13},"8701":{"zip_code":"1878701","prefecture":"東京都","city":"小平市","town":"小川町","prefecture_code":13},"8540":{"zip_code":"1878540","prefecture":"東京都","city":"小平市","town":"喜平町","prefecture_code":13},"8585":{"zip_code":"1878585","prefecture":"東京都","city":"小平市","town":"小川西町","prefecture_code":13},"8611":{"zip_code":"1878611","prefecture":"東京都","city":"小平市","town":"小川東町","prefecture_code":13},"8587":{"zip_code":"1878587","prefecture":"東京都","city":"小平市","town":"学園西町","prefecture_code":13},"8533":{"zip_code":"1878533","prefecture":"東京都","city":"小平市","town":"花小金井","prefecture_code":13},"8518":{"zip_code":"1878518","prefecture":"東京都","city":"小平市","town":"小川町","prefecture_code":13},"8505":{"zip_code":"1878505","prefecture":"東京都","city":"小平市","town":"小川町","prefecture_code":13},"8507":{"zip_code":"1878507","prefecture":"東京都","city":"小平市","town":"仲町","prefecture_code":13},"8503":{"zip_code":"1878503","prefecture":"東京都","city":"小平市","town":"小川東町","prefecture_code":13}}