{"0003":{"zip_code":"1880003","prefecture":"東京都","prefecture_kana":"トウキョウト","city":"西東京市","city_kana":"ニシトウキョウシ","town":"北原町","town_kana":"キタハラチョウ","prefecture_code":13},"0014":{"zip_code":"1880014","prefecture":"東京都","prefecture_kana":"トウキョウト","city":"西東京市","city_kana":"ニシトウキョウシ","town":"芝久保町","town_kana":"シバクボチョウ","prefecture_code":13},"0011":{"zip_code":"1880011","prefecture":"東京都","prefecture_kana":"トウキョウト","city":"西東京市","city_kana":"ニシトウキョウシ","town":"田無町","town_kana":"タナシチョウ","prefecture_code":13},"0004":{"zip_code":"1880004","prefecture":"東京都","prefecture_kana":"トウキョウト","city":"西東京市","city_kana":"ニシトウキョウシ","town":"西原町","town_kana":"ニシハラチョウ","prefecture_code":13},"0002":{"zip_code":"1880002","prefecture":"東京都","prefecture_kana":"トウキョウト","city":"西東京市","city_kana":"ニシトウキョウシ","town":"緑町","town_kana":"ミドリチョウ","prefecture_code":13},"0012":{"zip_code":"1880012","prefecture":"東京都","prefecture_kana":"トウキョウト","city":"西東京市","city_kana":"ニシトウキョウシ","town":"南町","town_kana":"ミナミチョウ","prefecture_code":13},"0013":{"zip_code":"1880013","prefecture":"東京都","prefecture_kana":"トウキョウト","city":"西東京市","city_kana":"ニシトウキョウシ","town":"向台町","town_kana":"ムコウダイチョウ","prefecture_code":13},"0001":{"zip_code":"1880001","prefecture":"東京都","prefecture_kana":"トウキョウト","city":"西東京市","city_kana":"ニシトウキョウシ","town":"谷戸町","town_kana":"ヤトチョウ","prefecture_code":13},"8555":{"zip_code":"1888555","prefecture":"東京都","city":"西東京市","town":"向台町","prefecture_code":13},"8511":{"zip_code":"1888511","prefecture":"東京都","city":"西東京市","town":"田無町","prefecture_code":13},"8585":{"zip_code":"1888585","prefecture":"東京都","city":"西東京市","town":"谷戸町","prefecture_code":13},"8666":{"zip_code":"1888666","prefecture":"東京都","city":"西東京市","town":"南町","prefecture_code":13},"8701":{"zip_code":"1888701","prefecture":"東京都","city":"西東京市","town":"谷戸町","prefecture_code":13},"8680":{"zip_code":"1888680","prefecture":"東京都","city":"西東京市","town":"芝久保町","prefecture_code":13}}