{"0000":{"zip_code":"2010000","prefecture":"東京都","prefecture_kana":"トウキョウト","city":"狛江市","city_kana":"コマエシ","town":"","town_kana":"","prefecture_code":13},"0003":{"zip_code":"2010003","prefecture":"東京都","prefecture_kana":"トウキョウト","city":"狛江市","city_kana":"コマエシ","town":"和泉本町","town_kana":"イズミホンチョウ","prefecture_code":13},"0015":{"zip_code":"2010015","prefecture":"東京都","prefecture_kana":"トウキョウト","city":"狛江市","city_kana":"コマエシ","town":"猪方","town_kana":"イノガタ","prefecture_code":13},"0005":{"zip_code":"2010005","prefecture":"東京都","prefecture_kana":"トウキョウト","city":"狛江市","city_kana":"コマエシ","town":"岩戸南","town_kana":"イワドミナミ","prefecture_code":13},"0004":{"zip_code":"2010004","prefecture":"東京都","prefecture_kana":"トウキョウト","city":"狛江市","city_kana":"コマエシ","town":"岩戸北","town_kana":"イワドキタ","prefecture_code":13},"0016":{"zip_code":"2010016","prefecture":"東京都","prefecture_kana":"トウキョウト","city":"狛江市","city_kana":"コマエシ","town":"駒井町","town_kana":"コマイマチ","prefecture_code":13},"0012":{"zip_code":"2010012","prefecture":"東京都","prefecture_kana":"トウキョウト","city":"狛江市","city_kana":"コマエシ","town":"中和泉","town_kana":"ナカイズミ","prefecture_code":13},"0011":{"zip_code":"2010011","prefecture":"東京都","prefecture_kana":"トウキョウト","city":"狛江市","city_kana":"コマエシ","town":"西和泉","town_kana":"ニシイズミ","prefecture_code":13},"0001":{"zip_code":"2010001","prefecture":"東京都","prefecture_kana":"トウキョウト","city":"狛江市","city_kana":"コマエシ","town":"西野川","town_kana":"ニシノガワ","prefecture_code":13},"0014":{"zip_code":"2010014","prefecture":"東京都","prefecture_kana":"トウキョウト","city":"狛江市","city_kana":"コマエシ","town":"東和泉","town_kana":"ヒガシイズミ","prefecture_code":13},"0002":{"zip_code":"2010002","prefecture":"東京都","prefecture_kana":"トウキョウト","city":"狛江市","city_kana":"コマエシ","town":"東野川","town_kana":"ヒガシノガワ","prefecture_code":13},"0013":{"zip_code":"2010013","prefecture":"東京都","prefecture_kana":"トウキョウト","city":"狛江市","city_kana":"コマエシ","town":"元和泉","town_kana":"モトイズミ","prefecture_code":13},"8511":{"zip_code":"2018511","prefecture":"東京都","city":"狛江市","town":"岩戸北","prefecture_code":13},"8686":{"zip_code":"2018686","prefecture":"東京都","city":"狛江市","town":"中和泉","prefecture_code":13},"8648":{"zip_code":"2018648","prefecture":"東京都","city":"狛江市","town":"和泉本町","prefecture_code":13},"8585":{"zip_code":"2018585","prefecture":"東京都","city":"狛江市","town":"和泉本町","prefecture_code":13},"8588":{"zip_code":"2018588","prefecture":"東京都","city":"狛江市","town":"東野川","prefecture_code":13},"8601":{"zip_code":"2018601","prefecture":"東京都","city":"狛江市","town":"和泉本町","prefecture_code":13},"8501":{"zip_code":"2018501","prefecture":"東京都","city":"狛江市","town":"元和泉","prefecture_code":13}}