{"0000":{"zip_code":"2100000","prefecture":"神奈川県","prefecture_kana":"カナガワケン","city":"川崎市川崎区","city_kana":"カワサキシカワサキク","town":"","town_kana":"","prefecture_code":14},"0847":{"zip_code":"2100847","prefecture":"神奈川県","prefecture_kana":"カナガワケン","city":"川崎市川崎区","city_kana":"カワサキシカワサキク","town":"浅田","town_kana":"アサダ","prefecture_code":14},"0854":{"zip_code":"2100854","prefecture":"神奈川県","prefecture_kana":"カナガワケン","city":"川崎市川崎区","city_kana":"カワサキシカワサキク","town":"浅野町","town_kana":"アサノチョウ","prefecture_code":14},"0808":{"zip_code":"2100808","prefecture":"神奈川県","prefecture_kana":"カナガワケン","city":"川崎市川崎区","city_kana":"カワサキシカワサキク","town":"旭町","town_kana":"アサヒチョウ","prefecture_code":14},"0832":{"zip_code":"2100832","prefecture":"神奈川県","prefecture_kana":"カナガワケン","city":"川崎市川崎区","city_kana":"カワサキシカワサキク","town":"池上新町","town_kana":"イケガミシンチョウ","prefecture_code":14},"0864":{"zip_code":"2100864","prefecture":"神奈川県","prefecture_kana":"カナガワケン","city":"川崎市川崎区","city_kana":"カワサキシカワサキク","town":"池上町","town_kana":"イケガミチョウ","prefecture_code":14},"0022":{"zip_code":"2100022","prefecture":"神奈川県","prefecture_kana":"カナガワケン","city":"川崎市川崎区","city_kana":"カワサキシカワサキク","town":"池田","town_kana":"イケダ","prefecture_code":14},"0006":{"zip_code":"2100006","prefecture":"神奈川県","prefecture_kana":"カナガワケン","city":"川崎市川崎区","city_kana":"カワサキシカワサキク","town":"砂子","town_kana":"イサゴ","prefecture_code":14},"0805":{"zip_code":"2100805","prefecture":"神奈川県","prefecture_kana":"カナガワケン","city":"川崎市川崎区","city_kana":"カワサキシカワサキク","town":"伊勢町","town_kana":"イセチョウ","prefecture_code":14},"0862":{"zip_code":"2100862","prefecture":"神奈川県","prefecture_kana":"カナガワケン","city":"川崎市川崎区","city_kana":"カワサキシカワサキク","town":"浮島町","town_kana":"ウキシマチョウ","prefecture_code":14},"0823":{"zip_code":"2100823","prefecture":"神奈川県","prefecture_kana":"カナガワケン","city":"川崎市川崎区","city_kana":"カワサキシカワサキク","town":"江川","town_kana":"エガワ","prefecture_code":14},"0007":{"zip_code":"2100007","prefecture":"神奈川県","prefecture_kana":"カナガワケン","city":"川崎市川崎区","city_kana":"カワサキシカワサキク","town":"駅前本町","town_kana":"エキマエホンチョウ","prefecture_code":14},"0002":{"zip_code":"2100002","prefecture":"神奈川県","prefecture_kana":"カナガワケン","city":"川崎市川崎区","city_kana":"カワサキシカワサキク","town":"榎町","town_kana":"エノキチョウ","prefecture_code":14},"0835":{"zip_code":"2100835","prefecture":"神奈川県","prefecture_kana":"カナガワケン","city":"川崎市川崎区","city_kana":"カワサキシカワサキク","town":"追分町","town_kana":"オイワケチョウ","prefecture_code":14},"0867":{"zip_code":"2100867","prefecture":"神奈川県","prefecture_kana":"カナガワケン","city":"川崎市川崎区","city_kana":"カワサキシカワサキク","town":"扇町","town_kana":"オウギマチ","prefecture_code":14},"0858":{"zip_code":"2100858","prefecture":"神奈川県","prefecture_kana":"カナガワケン","city":"川崎市川崎区","city_kana":"カワサキシカワサキク","town":"大川町","town_kana":"オオカワチョウ","prefecture_code":14},"0868":{"zip_code":"2100868","prefecture":"神奈川県","prefecture_kana":"カナガワケン","city":"川崎市川崎区","city_kana":"カワサキシカワサキク","town":"扇島","town_kana":"オオギシマ","prefecture_code":14},"0834":{"zip_code":"2100834","prefecture":"神奈川県","prefecture_kana":"カナガワケン","city":"川崎市川崎区","city_kana":"カワサキシカワサキク","town":"大島","town_kana":"オオシマ","prefecture_code":14},"0836":{"zip_code":"2100836","prefecture":"神奈川県","prefecture_kana":"カナガワケン","city":"川崎市川崎区","city_kana":"カワサキシカワサキク","town":"大島上町","town_kana":"オオシマカミチョウ","prefecture_code":14},"0023":{"zip_code":"2100023","prefecture":"神奈川県","prefecture_kana":"カナガワケン","city":"川崎市川崎区","city_kana":"カワサキシカワサキク","town":"小川町","town_kana":"オガワチョウ","prefecture_code":14},"0846":{"zip_code":"2100846","prefecture":"神奈川県","prefecture_kana":"カナガワケン","city":"川崎市川崎区","city_kana":"カワサキシカワサキク","town":"小田","town_kana":"オダ","prefecture_code":14},"0843":{"zip_code":"2100843","prefecture":"神奈川県","prefecture_kana":"カナガワケン","city":"川崎市川崎区","city_kana":"カワサキシカワサキク","town":"小田栄","town_kana":"オダサカエ","prefecture_code":14},"0014":{"zip_code":"2100014","prefecture":"神奈川県","prefecture_kana":"カナガワケン","city":"川崎市川崎区","city_kana":"カワサキシカワサキク","town":"貝塚","town_kana":"カイヅカ","prefecture_code":14},"0803":{"zip_code":"2100803","prefecture":"神奈川県","prefecture_kana":"カナガワケン","city":"川崎市川崎区","city_kana":"カワサキシカワサキク","town":"川中島","town_kana":"カワナカジマ","prefecture_code":14},"0831":{"zip_code":"2100831","prefecture":"神奈川県","prefecture_kana":"カナガワケン","city":"川崎市川崎区","city_kana":"カワサキシカワサキク","town":"観音","town_kana":"カンノン","prefecture_code":14},"0848":{"zip_code":"2100848","prefecture":"神奈川県","prefecture_kana":"カナガワケン","city":"川崎市川崎区","city_kana":"カワサキシカワサキク","town":"京町","town_kana":"キョウマチ","prefecture_code":14},"0852":{"zip_code":"2100852","prefecture":"神奈川県","prefecture_kana":"カナガワケン","city":"川崎市川崎区","city_kana":"カワサキシカワサキク","town":"鋼管通","town_kana":"コウカンドオリ","prefecture_code":14},"0861":{"zip_code":"2100861","prefecture":"神奈川県","prefecture_kana":"カナガワケン","city":"川崎市川崎区","city_kana":"カワサキシカワサキク","town":"小島町","town_kana":"コジマチョウ","prefecture_code":14},"0838":{"zip_code":"2100838","prefecture":"神奈川県","prefecture_kana":"カナガワケン","city":"川崎市川崎区","city_kana":"カワサキシカワサキク","town":"境町","town_kana":"サカイマチ","prefecture_code":14},"0833":{"zip_code":"2100833","prefecture":"神奈川県","prefecture_kana":"カナガワケン","city":"川崎市川崎区","city_kana":"カワサキシカワサキク","town":"桜本","town_kana":"サクラモト","prefecture_code":14},"0826":{"zip_code":"2100826","prefecture":"神奈川県","prefecture_kana":"カナガワケン","city":"川崎市川崎区","city_kana":"カワサキシカワサキク","town":"塩浜","town_kana":"シオハマ","prefecture_code":14},"0025":{"zip_code":"2100025","prefecture":"神奈川県","prefecture_kana":"カナガワケン","city":"川崎市川崎区","city_kana":"カワサキシカワサキク","town":"下並木","town_kana":"シモナミキ","prefecture_code":14},"0813":{"zip_code":"2100813","prefecture":"神奈川県","prefecture_kana":"カナガワケン","city":"川崎市川崎区","city_kana":"カワサキシカワサキク","town":"昭和","town_kana":"ショウワ","prefecture_code":14},"0857":{"zip_code":"2100857","prefecture":"神奈川県","prefecture_kana":"カナガワケン","city":"川崎市川崎区","city_kana":"カワサキシカワサキク","town":"白石町","town_kana":"シライシチョウ","prefecture_code":14},"0013":{"zip_code":"2100013","prefecture":"神奈川県","prefecture_kana":"カナガワケン","city":"川崎市川崎区","city_kana":"カワサキシカワサキク","town":"新川通","town_kana":"シンカワドオリ","prefecture_code":14},"0801":{"zip_code":"2100801","prefecture":"神奈川県","prefecture_kana":"カナガワケン","city":"川崎市川崎区","city_kana":"カワサキシカワサキク","town":"鈴木町","town_kana":"スズキチョウ","prefecture_code":14},"0814":{"zip_code":"2100814","prefecture":"神奈川県","prefecture_kana":"カナガワケン","city":"川崎市川崎区","city_kana":"カワサキシカワサキク","town":"台町","town_kana":"ダイマチ","prefecture_code":14},"0853":{"zip_code":"2100853","prefecture":"神奈川県","prefecture_kana":"カナガワケン","city":"川崎市川崎区","city_kana":"カワサキシカワサキク","town":"田島町","town_kana":"タジマチョウ","prefecture_code":14},"0856":{"zip_code":"2100856","prefecture":"神奈川県","prefecture_kana":"カナガワケン","city":"川崎市川崎区","city_kana":"カワサキシカワサキク","town":"田辺新田","town_kana":"タナベシンデン","prefecture_code":14},"0822":{"zip_code":"2100822","prefecture":"神奈川県","prefecture_kana":"カナガワケン","city":"川崎市川崎区","city_kana":"カワサキシカワサキク","town":"田町","town_kana":"タマチ","prefecture_code":14},"0802":{"zip_code":"2100802","prefecture":"神奈川県","prefecture_kana":"カナガワケン","city":"川崎市川崎区","city_kana":"カワサキシカワサキク","town":"大師駅前","town_kana":"ダイシエキマエ","prefecture_code":14},"0811":{"zip_code":"2100811","prefecture":"神奈川県","prefecture_kana":"カナガワケン","city":"川崎市川崎区","city_kana":"カワサキシカワサキク","town":"大師河原","town_kana":"ダイシガワラ","prefecture_code":14},"0815":{"zip_code":"2100815","prefecture":"神奈川県","prefecture_kana":"カナガワケン","city":"川崎市川崎区","city_kana":"カワサキシカワサキク","town":"大師公園","town_kana":"ダイシコウエン","prefecture_code":14},"0817":{"zip_code":"2100817","prefecture":"神奈川県","prefecture_kana":"カナガワケン","city":"川崎市川崎区","city_kana":"カワサキシカワサキク","town":"大師本町","town_kana":"ダイシホンチョウ","prefecture_code":14},"0816":{"zip_code":"2100816","prefecture":"神奈川県","prefecture_kana":"カナガワケン","city":"川崎市川崎区","city_kana":"カワサキシカワサキク","town":"大師町","town_kana":"ダイシマチ","prefecture_code":14},"0865":{"zip_code":"2100865","prefecture":"神奈川県","prefecture_kana":"カナガワケン","city":"川崎市川崎区","city_kana":"カワサキシカワサキク","town":"千鳥町","town_kana":"チドリチョウ","prefecture_code":14},"0026":{"zip_code":"2100026","prefecture":"神奈川県","prefecture_kana":"カナガワケン","city":"川崎市川崎区","city_kana":"カワサキシカワサキク","town":"堤根","town_kana":"ツツミネ","prefecture_code":14},"0825":{"zip_code":"2100825","prefecture":"神奈川県","prefecture_kana":"カナガワケン","city":"川崎市川崎区","city_kana":"カワサキシカワサキク","town":"出来野","town_kana":"デキノ","prefecture_code":14},"0821":{"zip_code":"2100821","prefecture":"神奈川県","prefecture_kana":"カナガワケン","city":"川崎市川崎区","city_kana":"カワサキシカワサキク","town":"殿町","town_kana":"トノマチ","prefecture_code":14},"0806":{"zip_code":"2100806","prefecture":"神奈川県","prefecture_kana":"カナガワケン","city":"川崎市川崎区","city_kana":"カワサキシカワサキク","town":"中島","town_kana":"ナカジマ","prefecture_code":14},"0818":{"zip_code":"2100818","prefecture":"神奈川県","prefecture_kana":"カナガワケン","city":"川崎市川崎区","city_kana":"カワサキシカワサキク","town":"中瀬","town_kana":"ナカゼ","prefecture_code":14},"0024":{"zip_code":"2100024","prefecture":"神奈川県","prefecture_kana":"カナガワケン","city":"川崎市川崎区","city_kana":"カワサキシカワサキク","town":"日進町","town_kana":"ニッシンチョウ","prefecture_code":14},"0851":{"zip_code":"2100851","prefecture":"神奈川県","prefecture_kana":"カナガワケン","city":"川崎市川崎区","city_kana":"カワサキシカワサキク","town":"浜町","town_kana":"ハマチョウ","prefecture_code":14},"0869":{"zip_code":"2100869","prefecture":"神奈川県","prefecture_kana":"カナガワケン","city":"川崎市川崎区","city_kana":"カワサキシカワサキク","town":"東扇島","town_kana":"ヒガシオオギシマ","prefecture_code":14},"0005":{"zip_code":"2100005","prefecture":"神奈川県","prefecture_kana":"カナガワケン","city":"川崎市川崎区","city_kana":"カワサキシカワサキク","town":"東田町","town_kana":"ヒガシダチョウ","prefecture_code":14},"0812":{"zip_code":"2100812","prefecture":"神奈川県","prefecture_kana":"カナガワケン","city":"川崎市川崎区","city_kana":"カワサキシカワサキク","town":"東門前","town_kana":"ヒガシモンゼン","prefecture_code":14},"0824":{"zip_code":"2100824","prefecture":"神奈川県","prefecture_kana":"カナガワケン","city":"川崎市川崎区","city_kana":"カワサキシカワサキク","town":"日ノ出","town_kana":"ヒノデ","prefecture_code":14},"0804":{"zip_code":"2100804","prefecture":"神奈川県","prefecture_kana":"カナガワケン","city":"川崎市川崎区","city_kana":"カワサキシカワサキク","town":"藤崎","town_kana":"フジサキ","prefecture_code":14},"0011":{"zip_code":"2100011","prefecture":"神奈川県","prefecture_kana":"カナガワケン","city":"川崎市川崎区","city_kana":"カワサキシカワサキク","town":"富士見","town_kana":"フジミ","prefecture_code":14},"0003":{"zip_code":"2100003","prefecture":"神奈川県","prefecture_kana":"カナガワケン","city":"川崎市川崎区","city_kana":"カワサキシカワサキク","town":"堀之内町","town_kana":"ホリノウチチョウ","prefecture_code":14},"0001":{"zip_code":"2100001","prefecture":"神奈川県","prefecture_kana":"カナガワケン","city":"川崎市川崎区","city_kana":"カワサキシカワサキク","town":"本町","town_kana":"ホンチョウ","prefecture_code":14},"0866":{"zip_code":"2100866","prefecture":"神奈川県","prefecture_kana":"カナガワケン","city":"川崎市川崎区","city_kana":"カワサキシカワサキク","town":"水江町","town_kana":"ミズエチョウ","prefecture_code":14},"0807":{"zip_code":"2100807","prefecture":"神奈川県","prefecture_kana":"カナガワケン","city":"川崎市川崎区","city_kana":"カワサキシカワサキク","town":"港町","town_kana":"ミナトチョウ","prefecture_code":14},"0015":{"zip_code":"2100015","prefecture":"神奈川県","prefecture_kana":"カナガワケン","city":"川崎市川崎区","city_kana":"カワサキシカワサキク","town":"南町","town_kana":"ミナミマチ","prefecture_code":14},"0855":{"zip_code":"2100855","prefecture":"神奈川県","prefecture_kana":"カナガワケン","city":"川崎市川崎区","city_kana":"カワサキシカワサキク","town":"南渡田町","town_kana":"ミナミワタリダチョウ","prefecture_code":14},"0012":{"zip_code":"2100012","prefecture":"神奈川県","prefecture_kana":"カナガワケン","city":"川崎市川崎区","city_kana":"カワサキシカワサキク","town":"宮前町","town_kana":"ミヤマエチョウ","prefecture_code":14},"0004":{"zip_code":"2100004","prefecture":"神奈川県","prefecture_kana":"カナガワケン","city":"川崎市川崎区","city_kana":"カワサキシカワサキク","town":"宮本町","town_kana":"ミヤモトチョウ","prefecture_code":14},"0021":{"zip_code":"2100021","prefecture":"神奈川県","prefecture_kana":"カナガワケン","city":"川崎市川崎区","city_kana":"カワサキシカワサキク","town":"元木","town_kana":"モトギ","prefecture_code":14},"0863":{"zip_code":"2100863","prefecture":"神奈川県","prefecture_kana":"カナガワケン","city":"川崎市川崎区","city_kana":"カワサキシカワサキク","town":"夜光","town_kana":"ヤコウ","prefecture_code":14},"0828":{"zip_code":"2100828","prefecture":"神奈川県","prefecture_kana":"カナガワケン","city":"川崎市川崎区","city_kana":"カワサキシカワサキク","town":"四谷上町","town_kana":"ヨツヤカミチョウ","prefecture_code":14},"0827":{"zip_code":"2100827","prefecture":"神奈川県","prefecture_kana":"カナガワケン","city":"川崎市川崎区","city_kana":"カワサキシカワサキク","town":"四谷下町","town_kana":"ヨツヤシモチョウ","prefecture_code":14},"0837":{"zip_code":"2100837","prefecture":"神奈川県","prefecture_kana":"カナガワケン","city":"川崎市川崎区","city_kana":"カワサキシカワサキク","town":"渡田","town_kana":"ワタリダ","prefecture_code":14},"0845":{"zip_code":"2100845","prefecture":"神奈川県","prefecture_kana":"カナガワケン","city":"川崎市川崎区","city_kana":"カワサキシカワサキク","town":"渡田山王町","town_kana":"ワタリダサンノウチョウ","prefecture_code":14},"0844":{"zip_code":"2100844","prefecture":"神奈川県","prefecture_kana":"カナガワケン","city":"川崎市川崎区","city_kana":"カワサキシカワサキク","town":"渡田新町","town_kana":"ワタリダシンチョウ","prefecture_code":14},"0842":{"zip_code":"2100842","prefecture":"神奈川県","prefecture_kana":"カナガワケン","city":"川崎市川崎区","city_kana":"カワサキシカワサキク","town":"渡田東町","town_kana":"ワタリダヒガシチョウ","prefecture_code":14},"0841":{"zip_code":"2100841","prefecture":"神奈川県","prefecture_kana":"カナガワケン","city":"川崎市川崎区","city_kana":"カワサキシカワサキク","town":"渡田向町","town_kana":"ワタリダムカイチョウ","prefecture_code":14},"8680":{"zip_code":"2108680","prefecture":"神奈川県","city":"川崎市川崎区","town":"鈴木町","prefecture_code":14},"8681":{"zip_code":"2108681","prefecture":"神奈川県","city":"川崎市川崎区","town":"鈴木町","prefecture_code":14},"9582":{"zip_code":"2109582","prefecture":"神奈川県","city":"川崎市川崎区","town":"港町","prefecture_code":14},"9588":{"zip_code":"2109588","prefecture":"神奈川県","city":"川崎市川崎区","town":"水江町","prefecture_code":14},"9511":{"zip_code":"2109511","prefecture":"神奈川県","city":"川崎市川崎区","town":"東扇島","prefecture_code":14},"9533":{"zip_code":"2109533","prefecture":"神奈川県","city":"川崎市川崎区","town":"塩浜","prefecture_code":14},"8562":{"zip_code":"2108562","prefecture":"神奈川県","city":"川崎市川崎区","town":"富士見","prefecture_code":14},"8585":{"zip_code":"2108585","prefecture":"神奈川県","city":"川崎市川崎区","town":"殿町","prefecture_code":14},"8504":{"zip_code":"2108504","prefecture":"神奈川県","city":"川崎市川崎区","town":"駅前本町","prefecture_code":14},"8794":{"zip_code":"2108794","prefecture":"神奈川県","city":"川崎市川崎区","town":"榎町","prefecture_code":14},"8586":{"zip_code":"2108586","prefecture":"神奈川県","city":"川崎市川崎区","town":"日進町","prefecture_code":14},"8569":{"zip_code":"2108569","prefecture":"神奈川県","city":"川崎市川崎区","town":"日進町","prefecture_code":14},"8795":{"zip_code":"2108795","prefecture":"神奈川県","city":"川崎市川崎区","town":"榎町","prefecture_code":14},"8544":{"zip_code":"2108544","prefecture":"神奈川県","city":"川崎市川崎区","town":"砂子","prefecture_code":14},"8576":{"zip_code":"2108576","prefecture":"神奈川県","city":"川崎市川崎区","town":"砂子","prefecture_code":14},"8511":{"zip_code":"2108511","prefecture":"神奈川県","city":"川崎市川崎区","town":"砂子","prefecture_code":14},"8565":{"zip_code":"2108565","prefecture":"神奈川県","city":"川崎市川崎区","town":"南町","prefecture_code":14},"8521":{"zip_code":"2108521","prefecture":"神奈川県","city":"川崎市川崎区","town":"大師町","prefecture_code":14},"8666":{"zip_code":"2108666","prefecture":"神奈川県","city":"川崎市川崎区","town":"駅前本町","prefecture_code":14},"8531":{"zip_code":"2108531","prefecture":"神奈川県","city":"川崎市川崎区","town":"榎町","prefecture_code":14},"8522":{"zip_code":"2108522","prefecture":"神奈川県","city":"川崎市川崎区","town":"港町","prefecture_code":14},"8686":{"zip_code":"2108686","prefecture":"神奈川県","city":"川崎市川崎区","town":"駅前本町","prefecture_code":14},"8545":{"zip_code":"2108545","prefecture":"神奈川県","city":"川崎市川崎区","town":"夜光","prefecture_code":14},"8552":{"zip_code":"2108552","prefecture":"神奈川県","city":"川崎市川崎区","town":"東田町","prefecture_code":14},"8502":{"zip_code":"2108502","prefecture":"神奈川県","city":"川崎市川崎区","town":"駅前本町","prefecture_code":14},"8557":{"zip_code":"2108557","prefecture":"神奈川県","city":"川崎市川崎区","town":"砂子","prefecture_code":14},"8551":{"zip_code":"2108551","prefecture":"神奈川県","city":"川崎市川崎区","town":"日進町","prefecture_code":14},"8541":{"zip_code":"2108541","prefecture":"神奈川県","city":"川崎市川崎区","town":"砂子","prefecture_code":14},"8540":{"zip_code":"2108540","prefecture":"神奈川県","city":"川崎市川崎区","town":"日進町","prefecture_code":14},"8538":{"zip_code":"2108538","prefecture":"神奈川県","city":"川崎市川崎区","town":"駅前本町","prefecture_code":14},"8523":{"zip_code":"2108523","prefecture":"神奈川県","city":"川崎市川崎区","town":"浮島町","prefecture_code":14},"9526":{"zip_code":"2109526","prefecture":"神奈川県","city":"川崎市川崎区","town":"浮島町","prefecture_code":14},"8506":{"zip_code":"2108506","prefecture":"神奈川県","city":"川崎市川崎区","town":"田町","prefecture_code":14},"9507":{"zip_code":"2109507","prefecture":"神奈川県","city":"川崎市川崎区","town":"夜光","prefecture_code":14},"9567":{"zip_code":"2109567","prefecture":"神奈川県","city":"川崎市川崎区","town":"白石町","prefecture_code":14},"8558":{"zip_code":"2108558","prefecture":"神奈川県","city":"川崎市川崎区","town":"小島町","prefecture_code":14},"8798":{"zip_code":"2108798","prefecture":"神奈川県","city":"川崎市川崎区","town":"榎町","prefecture_code":14},"8796":{"zip_code":"2108796","prefecture":"神奈川県","city":"川崎市川崎区","town":"榎町","prefecture_code":14},"8797":{"zip_code":"2108797","prefecture":"神奈川県","city":"川崎市川崎区","town":"榎町","prefecture_code":14},"8548":{"zip_code":"2108548","prefecture":"神奈川県","city":"川崎市川崎区","town":"夜光","prefecture_code":14},"8547":{"zip_code":"2108547","prefecture":"神奈川県","city":"川崎市川崎区","town":"千鳥町","prefecture_code":14},"8793":{"zip_code":"2108793","prefecture":"神奈川県","city":"川崎市川崎区","town":"榎町","prefecture_code":14},"8604":{"zip_code":"2108604","prefecture":"神奈川県","city":"川崎市川崎区","town":"東田町","prefecture_code":14},"9650":{"zip_code":"2109650","prefecture":"神奈川県","city":"川崎市川崎区","town":"水江町","prefecture_code":14},"8512":{"zip_code":"2108512","prefecture":"神奈川県","city":"川崎市川崎区","town":"塩浜","prefecture_code":14},"8560":{"zip_code":"2108560","prefecture":"神奈川県","city":"川崎市川崎区","town":"大川町","prefecture_code":14},"9555":{"zip_code":"2109555","prefecture":"神奈川県","city":"川崎市川崎区","town":"大師駅前","prefecture_code":14},"8537":{"zip_code":"2108537","prefecture":"神奈川県","city":"川崎市川崎区","town":"富士見","prefecture_code":14},"8559":{"zip_code":"2108559","prefecture":"神奈川県","city":"川崎市川崎区","town":"富士見","prefecture_code":14},"8543":{"zip_code":"2108543","prefecture":"神奈川県","city":"川崎市川崎区","town":"駅前本町","prefecture_code":14},"9530":{"zip_code":"2109530","prefecture":"神奈川県","city":"川崎市川崎区","town":"田辺新田","prefecture_code":14},"8570":{"zip_code":"2108570","prefecture":"神奈川県","city":"川崎市川崎区","town":"東田町","prefecture_code":14},"8577":{"zip_code":"2108577","prefecture":"神奈川県","city":"川崎市川崎区","town":"宮本町","prefecture_code":14},"8583":{"zip_code":"2108583","prefecture":"神奈川県","city":"川崎市幸区","town":"小向東芝町","prefecture_code":14}}