{"0000":{"zip_code":"2130000","prefecture":"神奈川県","prefecture_kana":"カナガワケン","city":"川崎市高津区","city_kana":"カワサキシタカツク","town":"","town_kana":"","prefecture_code":14},"0024":{"zip_code":"2130024","prefecture":"神奈川県","prefecture_kana":"カナガワケン","city":"川崎市高津区","city_kana":"カワサキシタカツク","town":"明津","town_kana":"アクツ","prefecture_code":14},"0031":{"zip_code":"2130031","prefecture":"神奈川県","prefecture_kana":"カナガワケン","city":"川崎市高津区","city_kana":"カワサキシタカツク","town":"宇奈根","town_kana":"ウナネ","prefecture_code":14},"0015":{"zip_code":"2130015","prefecture":"神奈川県","prefecture_kana":"カナガワケン","city":"川崎市高津区","city_kana":"カワサキシタカツク","town":"梶ケ谷","town_kana":"カジガヤ","prefecture_code":14},"0025":{"zip_code":"2130025","prefecture":"神奈川県","prefecture_kana":"カナガワケン","city":"川崎市高津区","city_kana":"カワサキシタカツク","town":"蟹ケ谷","town_kana":"カニガヤ","prefecture_code":14},"0034":{"zip_code":"2130034","prefecture":"神奈川県","prefecture_kana":"カナガワケン","city":"川崎市高津区","city_kana":"カワサキシタカツク","town":"上作延","town_kana":"カミサクノベ","prefecture_code":14},"0005":{"zip_code":"2130005","prefecture":"神奈川県","prefecture_kana":"カナガワケン","city":"川崎市高津区","city_kana":"カワサキシタカツク","town":"北見方","town_kana":"キタミガタ","prefecture_code":14},"0032":{"zip_code":"2130032","prefecture":"神奈川県","prefecture_kana":"カナガワケン","city":"川崎市高津区","city_kana":"カワサキシタカツク","town":"久地","town_kana":"クジ","prefecture_code":14},"0012":{"zip_code":"2130012","prefecture":"神奈川県","prefecture_kana":"カナガワケン","city":"川崎市高津区","city_kana":"カワサキシタカツク","town":"坂戸","town_kana":"サカド","prefecture_code":14},"0023":{"zip_code":"2130023","prefecture":"神奈川県","prefecture_kana":"カナガワケン","city":"川崎市高津区","city_kana":"カワサキシタカツク","town":"子母口","town_kana":"シボクチ","prefecture_code":14},"0033":{"zip_code":"2130033","prefecture":"神奈川県","prefecture_kana":"カナガワケン","city":"川崎市高津区","city_kana":"カワサキシタカツク","town":"下作延","town_kana":"シモサクノベ","prefecture_code":14},"0006":{"zip_code":"2130006","prefecture":"神奈川県","prefecture_kana":"カナガワケン","city":"川崎市高津区","city_kana":"カワサキシタカツク","town":"下野毛","town_kana":"シモノゲ","prefecture_code":14},"0014":{"zip_code":"2130014","prefecture":"神奈川県","prefecture_kana":"カナガワケン","city":"川崎市高津区","city_kana":"カワサキシタカツク","town":"新作","town_kana":"シンサク","prefecture_code":14},"0013":{"zip_code":"2130013","prefecture":"神奈川県","prefecture_kana":"カナガワケン","city":"川崎市高津区","city_kana":"カワサキシタカツク","town":"末長","town_kana":"スエナガ","prefecture_code":14},"0004":{"zip_code":"2130004","prefecture":"神奈川県","prefecture_kana":"カナガワケン","city":"川崎市高津区","city_kana":"カワサキシタカツク","town":"諏訪","town_kana":"スワ","prefecture_code":14},"0003":{"zip_code":"2130003","prefecture":"神奈川県","prefecture_kana":"カナガワケン","city":"川崎市高津区","city_kana":"カワサキシタカツク","town":"瀬田","town_kana":"セタ","prefecture_code":14},"0022":{"zip_code":"2130022","prefecture":"神奈川県","prefecture_kana":"カナガワケン","city":"川崎市高津区","city_kana":"カワサキシタカツク","town":"千年","town_kana":"チトセ","prefecture_code":14},"0021":{"zip_code":"2130021","prefecture":"神奈川県","prefecture_kana":"カナガワケン","city":"川崎市高津区","city_kana":"カワサキシタカツク","town":"千年新町","town_kana":"チトセシンチョウ","prefecture_code":14},"0027":{"zip_code":"2130027","prefecture":"神奈川県","prefecture_kana":"カナガワケン","city":"川崎市高津区","city_kana":"カワサキシタカツク","town":"野川","town_kana":"ノガワ","prefecture_code":14},"0026":{"zip_code":"2130026","prefecture":"神奈川県","prefecture_kana":"カナガワケン","city":"川崎市高津区","city_kana":"カワサキシタカツク","town":"久末","town_kana":"ヒサスエ","prefecture_code":14},"0011":{"zip_code":"2130011","prefecture":"神奈川県","prefecture_kana":"カナガワケン","city":"川崎市高津区","city_kana":"カワサキシタカツク","town":"久本","town_kana":"ヒサモト","prefecture_code":14},"0002":{"zip_code":"2130002","prefecture":"神奈川県","prefecture_kana":"カナガワケン","city":"川崎市高津区","city_kana":"カワサキシタカツク","town":"二子","town_kana":"フタゴ","prefecture_code":14},"0001":{"zip_code":"2130001","prefecture":"神奈川県","prefecture_kana":"カナガワケン","city":"川崎市高津区","city_kana":"カワサキシタカツク","town":"溝口","town_kana":"ミゾノクチ","prefecture_code":14},"0035":{"zip_code":"2130035","prefecture":"神奈川県","prefecture_kana":"カナガワケン","city":"川崎市高津区","city_kana":"カワサキシタカツク","town":"向ケ丘","town_kana":"ムカイガオカ","prefecture_code":14},"8522":{"zip_code":"2138522","prefecture":"神奈川県","city":"川崎市高津区","town":"下作延","prefecture_code":14},"8516":{"zip_code":"2138516","prefecture":"神奈川県","city":"川崎市高津区","town":"北見方","prefecture_code":14},"8511":{"zip_code":"2138511","prefecture":"神奈川県","city":"川崎市高津区","town":"北見方","prefecture_code":14},"8520":{"zip_code":"2138520","prefecture":"神奈川県","city":"川崎市高津区","town":"野川","prefecture_code":14},"8515":{"zip_code":"2138515","prefecture":"神奈川県","city":"川崎市高津区","town":"溝口","prefecture_code":14},"8585":{"zip_code":"2138585","prefecture":"神奈川県","city":"川崎市高津区","town":"二子","prefecture_code":14},"8566":{"zip_code":"2138566","prefecture":"神奈川県","city":"川崎市高津区","town":"坂戸","prefecture_code":14},"8559":{"zip_code":"2138559","prefecture":"神奈川県","city":"川崎市高津区","town":"二子","prefecture_code":14},"8588":{"zip_code":"2138588","prefecture":"神奈川県","city":"川崎市高津区","town":"宇奈根","prefecture_code":14},"8558":{"zip_code":"2138558","prefecture":"神奈川県","city":"川崎市高津区","town":"溝口","prefecture_code":14},"8521":{"zip_code":"2138521","prefecture":"神奈川県","city":"川崎市高津区","town":"二子","prefecture_code":14},"8502":{"zip_code":"2138502","prefecture":"神奈川県","city":"川崎市高津区","town":"末長","prefecture_code":14},"8525":{"zip_code":"2138525","prefecture":"神奈川県","city":"川崎市高津区","town":"久本","prefecture_code":14},"8533":{"zip_code":"2138533","prefecture":"神奈川県","city":"川崎市高津区","town":"坂戸","prefecture_code":14},"8581":{"zip_code":"2138581","prefecture":"神奈川県","city":"川崎市高津区","town":"下野毛","prefecture_code":14},"8573":{"zip_code":"2138573","prefecture":"神奈川県","city":"川崎市高津区","town":"千年","prefecture_code":14},"8503":{"zip_code":"2138503","prefecture":"神奈川県","city":"川崎市高津区","town":"久本","prefecture_code":14},"8576":{"zip_code":"2138576","prefecture":"神奈川県","city":"川崎市高津区","town":"下作延","prefecture_code":14},"8550":{"zip_code":"2138550","prefecture":"神奈川県","city":"川崎市高津区","town":"坂戸","prefecture_code":14},"8577":{"zip_code":"2138577","prefecture":"神奈川県","city":"川崎市高津区","town":"梶ケ谷","prefecture_code":14},"8580":{"zip_code":"2138580","prefecture":"神奈川県","city":"川崎市高津区","town":"久本","prefecture_code":14},"8512":{"zip_code":"2138512","prefecture":"神奈川県","city":"川崎市高津区","town":"下野毛","prefecture_code":14},"8505":{"zip_code":"2138505","prefecture":"神奈川県","city":"川崎市高津区","town":"下野毛","prefecture_code":14},"8589":{"zip_code":"2138589","prefecture":"神奈川県","city":"川崎市高津区","town":"下作延","prefecture_code":14},"8551":{"zip_code":"2138551","prefecture":"神奈川県","city":"川崎市高津区","town":"下野毛","prefecture_code":14},"8535":{"zip_code":"2138535","prefecture":"神奈川県","city":"川崎市高津区","town":"久本","prefecture_code":14},"8570":{"zip_code":"2138570","prefecture":"神奈川県","city":"川崎市高津区","town":"下作延","prefecture_code":14},"8507":{"zip_code":"2138507","prefecture":"神奈川県","city":"川崎市高津区","town":"溝口","prefecture_code":14},"8523":{"zip_code":"2138523","prefecture":"神奈川県","city":"川崎市高津区","town":"溝口","prefecture_code":14},"8587":{"zip_code":"2138587","prefecture":"神奈川県","city":"川崎市高津区","town":"梶ケ谷","prefecture_code":14},"8553":{"zip_code":"2138553","prefecture":"神奈川県","city":"川崎市高津区","town":"宇奈根","prefecture_code":14},"8586":{"zip_code":"2138586","prefecture":"神奈川県","city":"川崎市高津区","town":"坂戸","prefecture_code":14}}