{"0000":{"zip_code":"2160000","prefecture":"神奈川県","prefecture_kana":"カナガワケン","city":"川崎市宮前区","city_kana":"カワサキシミヤマエク","town":"","town_kana":"","prefecture_code":14},"0003":{"zip_code":"2160003","prefecture":"神奈川県","prefecture_kana":"カナガワケン","city":"川崎市宮前区","city_kana":"カワサキシミヤマエク","town":"有馬","town_kana":"アリマ","prefecture_code":14},"0011":{"zip_code":"2160011","prefecture":"神奈川県","prefecture_kana":"カナガワケン","city":"川崎市宮前区","city_kana":"カワサキシミヤマエク","town":"犬蔵","town_kana":"イヌクラ","prefecture_code":14},"0034":{"zip_code":"2160034","prefecture":"神奈川県","prefecture_kana":"カナガワケン","city":"川崎市宮前区","city_kana":"カワサキシミヤマエク","town":"梶ケ谷","town_kana":"カジガヤ","prefecture_code":14},"0023":{"zip_code":"2160023","prefecture":"神奈川県","prefecture_kana":"カナガワケン","city":"川崎市宮前区","city_kana":"カワサキシミヤマエク","town":"けやき平","town_kana":"ケヤキダイラ","prefecture_code":14},"0021":{"zip_code":"2160021","prefecture":"神奈川県","prefecture_kana":"カナガワケン","city":"川崎市宮前区","city_kana":"カワサキシミヤマエク","town":"五所塚","town_kana":"ゴショヅカ","prefecture_code":14},"0007":{"zip_code":"2160007","prefecture":"神奈川県","prefecture_kana":"カナガワケン","city":"川崎市宮前区","city_kana":"カワサキシミヤマエク","town":"小台","town_kana":"コダイ","prefecture_code":14},"0004":{"zip_code":"2160004","prefecture":"神奈川県","prefecture_kana":"カナガワケン","city":"川崎市宮前区","city_kana":"カワサキシミヤマエク","town":"鷺沼","town_kana":"サギヌマ","prefecture_code":14},"0013":{"zip_code":"2160013","prefecture":"神奈川県","prefecture_kana":"カナガワケン","city":"川崎市宮前区","city_kana":"カワサキシミヤマエク","town":"潮見台","town_kana":"シオミダイ","prefecture_code":14},"0032":{"zip_code":"2160032","prefecture":"神奈川県","prefecture_kana":"カナガワケン","city":"川崎市宮前区","city_kana":"カワサキシミヤマエク","town":"神木","town_kana":"シボク","prefecture_code":14},"0031":{"zip_code":"2160031","prefecture":"神奈川県","prefecture_kana":"カナガワケン","city":"川崎市宮前区","city_kana":"カワサキシミヤマエク","town":"神木本町","town_kana":"シボクホンチョウ","prefecture_code":14},"0025":{"zip_code":"2160025","prefecture":"神奈川県","prefecture_kana":"カナガワケン","city":"川崎市宮前区","city_kana":"カワサキシミヤマエク","town":"白幡台","town_kana":"シラハタダイ","prefecture_code":14},"0015":{"zip_code":"2160015","prefecture":"神奈川県","prefecture_kana":"カナガワケン","city":"川崎市宮前区","city_kana":"カワサキシミヤマエク","town":"菅生","town_kana":"スガオ","prefecture_code":14},"0014":{"zip_code":"2160014","prefecture":"神奈川県","prefecture_kana":"カナガワケン","city":"川崎市宮前区","city_kana":"カワサキシミヤマエク","town":"菅生ケ丘","town_kana":"スガオガオカ","prefecture_code":14},"0022":{"zip_code":"2160022","prefecture":"神奈川県","prefecture_kana":"カナガワケン","city":"川崎市宮前区","city_kana":"カワサキシミヤマエク","town":"平","town_kana":"タイラ","prefecture_code":14},"0005":{"zip_code":"2160005","prefecture":"神奈川県","prefecture_kana":"カナガワケン","city":"川崎市宮前区","city_kana":"カワサキシミヤマエク","town":"土橋","town_kana":"ツチハシ","prefecture_code":14},"0024":{"zip_code":"2160024","prefecture":"神奈川県","prefecture_kana":"カナガワケン","city":"川崎市宮前区","city_kana":"カワサキシミヤマエク","town":"南平台","town_kana":"ナンペイダイ","prefecture_code":14},"0001":{"zip_code":"2160001","prefecture":"神奈川県","prefecture_kana":"カナガワケン","city":"川崎市宮前区","city_kana":"カワサキシミヤマエク","town":"野川","town_kana":"ノガワ","prefecture_code":14},"0026":{"zip_code":"2160026","prefecture":"神奈川県","prefecture_kana":"カナガワケン","city":"川崎市宮前区","city_kana":"カワサキシミヤマエク","town":"初山","town_kana":"ハツヤマ","prefecture_code":14},"0002":{"zip_code":"2160002","prefecture":"神奈川県","prefecture_kana":"カナガワケン","city":"川崎市宮前区","city_kana":"カワサキシミヤマエク","town":"東有馬","town_kana":"ヒガシアリマ","prefecture_code":14},"0035":{"zip_code":"2160035","prefecture":"神奈川県","prefecture_kana":"カナガワケン","city":"川崎市宮前区","city_kana":"カワサキシミヤマエク","town":"馬絹","town_kana":"マギヌ","prefecture_code":14},"0012":{"zip_code":"2160012","prefecture":"神奈川県","prefecture_kana":"カナガワケン","city":"川崎市宮前区","city_kana":"カワサキシミヤマエク","town":"水沢","town_kana":"ミズサワ","prefecture_code":14},"0033":{"zip_code":"2160033","prefecture":"神奈川県","prefecture_kana":"カナガワケン","city":"川崎市宮前区","city_kana":"カワサキシミヤマエク","town":"宮崎","town_kana":"ミヤザキ","prefecture_code":14},"0006":{"zip_code":"2160006","prefecture":"神奈川県","prefecture_kana":"カナガワケン","city":"川崎市宮前区","city_kana":"カワサキシミヤマエク","town":"宮前平","town_kana":"ミヤマエダイラ","prefecture_code":14},"8556":{"zip_code":"2168556","prefecture":"神奈川県","city":"川崎市宮前区","town":"菅生","prefecture_code":14},"8519":{"zip_code":"2168519","prefecture":"神奈川県","city":"川崎市宮前区","town":"小台","prefecture_code":14},"8566":{"zip_code":"2168566","prefecture":"神奈川県","city":"川崎市宮前区","town":"有馬","prefecture_code":14},"8522":{"zip_code":"2168522","prefecture":"神奈川県","city":"川崎市宮前区","town":"水沢","prefecture_code":14},"8501":{"zip_code":"2168501","prefecture":"神奈川県","city":"川崎市宮前区","town":"菅生","prefecture_code":14},"8631":{"zip_code":"2168631","prefecture":"神奈川県","city":"川崎市宮前区","town":"水沢","prefecture_code":14},"8511":{"zip_code":"2168511","prefecture":"神奈川県","city":"川崎市宮前区","town":"菅生","prefecture_code":14},"8514":{"zip_code":"2168514","prefecture":"神奈川県","city":"川崎市宮前区","town":"菅生","prefecture_code":14},"8512":{"zip_code":"2168512","prefecture":"神奈川県","city":"川崎市宮前区","town":"菅生","prefecture_code":14},"8510":{"zip_code":"2168510","prefecture":"神奈川県","city":"川崎市宮前区","town":"南平台","prefecture_code":14},"8570":{"zip_code":"2168570","prefecture":"神奈川県","city":"川崎市宮前区","town":"宮前平","prefecture_code":14}}