{"0059":{"zip_code":"2230059","prefecture":"神奈川県","prefecture_kana":"カナガワケン","city":"横浜市港北区","city_kana":"ヨコハマシコウホクク","town":"北新横浜","town_kana":"キタシンヨコハマ","prefecture_code":14},"0064":{"zip_code":"2230064","prefecture":"神奈川県","prefecture_kana":"カナガワケン","city":"横浜市港北区","city_kana":"ヨコハマシコウホクク","town":"下田町","town_kana":"シモダチョウ","prefecture_code":14},"0056":{"zip_code":"2230056","prefecture":"神奈川県","prefecture_kana":"カナガワケン","city":"横浜市港北区","city_kana":"ヨコハマシコウホクク","town":"新吉田町","town_kana":"シンヨシダチョウ","prefecture_code":14},"0058":{"zip_code":"2230058","prefecture":"神奈川県","prefecture_kana":"カナガワケン","city":"横浜市港北区","city_kana":"ヨコハマシコウホクク","town":"新吉田東","town_kana":"シンヨシダヒガシ","prefecture_code":14},"0063":{"zip_code":"2230063","prefecture":"神奈川県","prefecture_kana":"カナガワケン","city":"横浜市港北区","city_kana":"ヨコハマシコウホクク","town":"高田町","town_kana":"タカタチョウ","prefecture_code":14},"0066":{"zip_code":"2230066","prefecture":"神奈川県","prefecture_kana":"カナガワケン","city":"横浜市港北区","city_kana":"ヨコハマシコウホクク","town":"高田西","town_kana":"タカタニシ","prefecture_code":14},"0065":{"zip_code":"2230065","prefecture":"神奈川県","prefecture_kana":"カナガワケン","city":"横浜市港北区","city_kana":"ヨコハマシコウホクク","town":"高田東","town_kana":"タカタヒガシ","prefecture_code":14},"0055":{"zip_code":"2230055","prefecture":"神奈川県","prefecture_kana":"カナガワケン","city":"横浜市港北区","city_kana":"ヨコハマシコウホクク","town":"綱島上町","town_kana":"ツナシマカミチョウ","prefecture_code":14},"0054":{"zip_code":"2230054","prefecture":"神奈川県","prefecture_kana":"カナガワケン","city":"横浜市港北区","city_kana":"ヨコハマシコウホクク","town":"綱島台","town_kana":"ツナシマダイ","prefecture_code":14},"0052":{"zip_code":"2230052","prefecture":"神奈川県","prefecture_kana":"カナガワケン","city":"横浜市港北区","city_kana":"ヨコハマシコウホクク","town":"綱島東","town_kana":"ツナシマヒガシ","prefecture_code":14},"0053":{"zip_code":"2230053","prefecture":"神奈川県","prefecture_kana":"カナガワケン","city":"横浜市港北区","city_kana":"ヨコハマシコウホクク","town":"綱島西","town_kana":"ツナシマニシ","prefecture_code":14},"0057":{"zip_code":"2230057","prefecture":"神奈川県","prefecture_kana":"カナガワケン","city":"横浜市港北区","city_kana":"ヨコハマシコウホクク","town":"新羽町","town_kana":"ニッパチョウ","prefecture_code":14},"0061":{"zip_code":"2230061","prefecture":"神奈川県","prefecture_kana":"カナガワケン","city":"横浜市港北区","city_kana":"ヨコハマシコウホクク","town":"日吉","town_kana":"ヒヨシ","prefecture_code":14},"0062":{"zip_code":"2230062","prefecture":"神奈川県","prefecture_kana":"カナガワケン","city":"横浜市港北区","city_kana":"ヨコハマシコウホクク","town":"日吉本町","town_kana":"ヒヨシホンチョウ","prefecture_code":14},"0051":{"zip_code":"2230051","prefecture":"神奈川県","prefecture_kana":"カナガワケン","city":"横浜市港北区","city_kana":"ヨコハマシコウホクク","town":"箕輪町","town_kana":"ミノワチョウ","prefecture_code":14},"8501":{"zip_code":"2238501","prefecture":"神奈川県","city":"横浜市港北区","town":"新吉田町","prefecture_code":14},"8502":{"zip_code":"2238502","prefecture":"神奈川県","city":"横浜市港北区","town":"新羽町","prefecture_code":14},"8558":{"zip_code":"2238558","prefecture":"神奈川県","city":"横浜市港北区","town":"新羽町","prefecture_code":14},"8577":{"zip_code":"2238577","prefecture":"神奈川県","city":"横浜市港北区","town":"日吉本町","prefecture_code":14},"8580":{"zip_code":"2238580","prefecture":"神奈川県","city":"横浜市港北区","town":"新羽町","prefecture_code":14},"8588":{"zip_code":"2238588","prefecture":"神奈川県","city":"横浜市港北区","town":"綱島東","prefecture_code":14},"8508":{"zip_code":"2238508","prefecture":"神奈川県","city":"横浜市港北区","town":"綱島東","prefecture_code":14},"8520":{"zip_code":"2238520","prefecture":"神奈川県","city":"横浜市港北区","town":"新吉田町","prefecture_code":14},"8533":{"zip_code":"2238533","prefecture":"神奈川県","city":"横浜市港北区","town":"箕輪町","prefecture_code":14},"8541":{"zip_code":"2238541","prefecture":"神奈川県","city":"横浜市港北区","town":"新吉田町","prefecture_code":14},"8527":{"zip_code":"2238527","prefecture":"神奈川県","city":"横浜市港北区","town":"日吉本町","prefecture_code":14},"8542":{"zip_code":"2238542","prefecture":"神奈川県","city":"横浜市港北区","town":"綱島東","prefecture_code":14},"8510":{"zip_code":"2238510","prefecture":"神奈川県","city":"横浜市港北区","town":"高田町","prefecture_code":14},"8560":{"zip_code":"2238560","prefecture":"神奈川県","city":"横浜市港北区","town":"綱島東","prefecture_code":14},"8555":{"zip_code":"2238555","prefecture":"神奈川県","city":"横浜市港北区","town":"綱島西","prefecture_code":14},"8525":{"zip_code":"2238525","prefecture":"神奈川県","city":"横浜市港北区","town":"綱島西","prefecture_code":14},"8526":{"zip_code":"2238526","prefecture":"神奈川県","city":"横浜市港北区","town":"日吉","prefecture_code":14},"8521":{"zip_code":"2238521","prefecture":"神奈川県","city":"横浜市港北区","town":"日吉","prefecture_code":14},"8522":{"zip_code":"2238522","prefecture":"神奈川県","city":"横浜市港北区","town":"日吉","prefecture_code":14},"8523":{"zip_code":"2238523","prefecture":"神奈川県","city":"横浜市港北区","town":"日吉本町","prefecture_code":14},"8572":{"zip_code":"2238572","prefecture":"神奈川県","city":"横浜市港北区","town":"新吉田町","prefecture_code":14},"8511":{"zip_code":"2238511","prefecture":"神奈川県","city":"横浜市港北区","town":"新吉田東","prefecture_code":14},"8530":{"zip_code":"2238530","prefecture":"神奈川県","city":"横浜市港北区","town":"新吉田町","prefecture_code":14},"8506":{"zip_code":"2238506","prefecture":"神奈川県","city":"横浜市港北区","town":"新吉田町","prefecture_code":14},"8566":{"zip_code":"2238566","prefecture":"神奈川県","city":"横浜市港北区","town":"箕輪町","prefecture_code":14},"8550":{"zip_code":"2238550","prefecture":"神奈川県","city":"横浜市港北区","town":"新吉田町","prefecture_code":14},"8507":{"zip_code":"2238507","prefecture":"神奈川県","city":"横浜市港北区","town":"新吉田町","prefecture_code":14},"8512":{"zip_code":"2238512","prefecture":"神奈川県","city":"横浜市港北区","town":"綱島東","prefecture_code":14},"8539":{"zip_code":"2238539","prefecture":"神奈川県","city":"横浜市港北区","town":"綱島東","prefecture_code":14},"8567":{"zip_code":"2238567","prefecture":"神奈川県","city":"横浜市港北区","town":"箕輪町","prefecture_code":14},"8515":{"zip_code":"2238515","prefecture":"神奈川県","city":"横浜市港北区","town":"北新横浜","prefecture_code":14},"8505":{"zip_code":"2238505","prefecture":"神奈川県","city":"横浜市港北区","town":"綱島東","prefecture_code":14},"8585":{"zip_code":"2238585","prefecture":"神奈川県","city":"横浜市港北区","town":"綱島西","prefecture_code":14}}