{"0011":{"zip_code":"2250011","prefecture":"神奈川県","prefecture_kana":"カナガワケン","city":"横浜市青葉区","city_kana":"ヨコハマシアオバク","town":"あざみ野","town_kana":"アザミノ","prefecture_code":14},"0012":{"zip_code":"2250012","prefecture":"神奈川県","prefecture_kana":"カナガワケン","city":"横浜市青葉区","city_kana":"ヨコハマシアオバク","town":"あざみ野南","town_kana":"アザミノミナミ","prefecture_code":14},"0024":{"zip_code":"2250024","prefecture":"神奈川県","prefecture_kana":"カナガワケン","city":"横浜市青葉区","city_kana":"ヨコハマシアオバク","town":"市ケ尾町","town_kana":"イチガオチョウ","prefecture_code":14},"0002":{"zip_code":"2250002","prefecture":"神奈川県","prefecture_kana":"カナガワケン","city":"横浜市青葉区","city_kana":"ヨコハマシアオバク","town":"美しが丘","town_kana":"ウツクシガオカ","prefecture_code":14},"0001":{"zip_code":"2250001","prefecture":"神奈川県","prefecture_kana":"カナガワケン","city":"横浜市青葉区","city_kana":"ヨコハマシアオバク","town":"美しが丘西","town_kana":"ウツクシガオカニシ","prefecture_code":14},"0005":{"zip_code":"2250005","prefecture":"神奈川県","prefecture_kana":"カナガワケン","city":"横浜市青葉区","city_kana":"ヨコハマシアオバク","town":"荏子田","town_kana":"エコダ","prefecture_code":14},"0013":{"zip_code":"2250013","prefecture":"神奈川県","prefecture_kana":"カナガワケン","city":"横浜市青葉区","city_kana":"ヨコハマシアオバク","town":"荏田町","town_kana":"エダチョウ","prefecture_code":14},"0014":{"zip_code":"2250014","prefecture":"神奈川県","prefecture_kana":"カナガワケン","city":"横浜市青葉区","city_kana":"ヨコハマシアオバク","town":"荏田西","town_kana":"エダニシ","prefecture_code":14},"0015":{"zip_code":"2250015","prefecture":"神奈川県","prefecture_kana":"カナガワケン","city":"横浜市青葉区","city_kana":"ヨコハマシアオバク","town":"荏田北","town_kana":"エダキタ","prefecture_code":14},"0023":{"zip_code":"2250023","prefecture":"神奈川県","prefecture_kana":"カナガワケン","city":"横浜市青葉区","city_kana":"ヨコハマシアオバク","town":"大場町","town_kana":"オオバチョウ","prefecture_code":14},"0025":{"zip_code":"2250025","prefecture":"神奈川県","prefecture_kana":"カナガワケン","city":"横浜市青葉区","city_kana":"ヨコハマシアオバク","town":"鉄町","town_kana":"クロガネチョウ","prefecture_code":14},"0022":{"zip_code":"2250022","prefecture":"神奈川県","prefecture_kana":"カナガワケン","city":"横浜市青葉区","city_kana":"ヨコハマシアオバク","town":"黒須田","town_kana":"クロスダ","prefecture_code":14},"0003":{"zip_code":"2250003","prefecture":"神奈川県","prefecture_kana":"カナガワケン","city":"横浜市青葉区","city_kana":"ヨコハマシアオバク","town":"新石川","town_kana":"シンイシカワ","prefecture_code":14},"0021":{"zip_code":"2250021","prefecture":"神奈川県","prefecture_kana":"カナガワケン","city":"横浜市青葉区","city_kana":"ヨコハマシアオバク","town":"すすき野","town_kana":"ススキノ","prefecture_code":14},"0016":{"zip_code":"2250016","prefecture":"神奈川県","prefecture_kana":"カナガワケン","city":"横浜市青葉区","city_kana":"ヨコハマシアオバク","town":"みすずが丘","town_kana":"ミスズガオカ","prefecture_code":14},"0004":{"zip_code":"2250004","prefecture":"神奈川県","prefecture_kana":"カナガワケン","city":"横浜市青葉区","city_kana":"ヨコハマシアオバク","town":"元石川町","town_kana":"モトイシカワチョウ","prefecture_code":14},"0026":{"zip_code":"2250026","prefecture":"神奈川県","prefecture_kana":"カナガワケン","city":"横浜市青葉区","city_kana":"ヨコハマシアオバク","town":"もみの木台","town_kana":"モミノキダイ","prefecture_code":14},"8508":{"zip_code":"2258508","prefecture":"神奈川県","city":"横浜市青葉区","town":"新石川","prefecture_code":14},"8560":{"zip_code":"2258560","prefecture":"神奈川県","city":"横浜市青葉区","town":"市ケ尾町","prefecture_code":14},"8501":{"zip_code":"2258501","prefecture":"神奈川県","city":"横浜市青葉区","town":"荏田町","prefecture_code":14},"8539":{"zip_code":"2258539","prefecture":"神奈川県","city":"横浜市青葉区","town":"美しが丘","prefecture_code":14},"8502":{"zip_code":"2258502","prefecture":"神奈川県","city":"横浜市青葉区","town":"鉄町","prefecture_code":14},"8585":{"zip_code":"2258585","prefecture":"神奈川県","city":"横浜市青葉区","town":"あざみ野","prefecture_code":14},"8530":{"zip_code":"2258530","prefecture":"神奈川県","city":"横浜市青葉区","town":"新石川","prefecture_code":14},"8535":{"zip_code":"2258535","prefecture":"神奈川県","city":"横浜市青葉区","town":"新石川","prefecture_code":14},"8503":{"zip_code":"2258503","prefecture":"神奈川県","city":"横浜市青葉区","town":"鉄町","prefecture_code":14},"8525":{"zip_code":"2258525","prefecture":"神奈川県","city":"横浜市青葉区","town":"市ケ尾町","prefecture_code":14},"8513":{"zip_code":"2258513","prefecture":"神奈川県","city":"横浜市青葉区","town":"市ケ尾町","prefecture_code":14},"8550":{"zip_code":"2258550","prefecture":"神奈川県","city":"横浜市青葉区","town":"市ケ尾町","prefecture_code":14}}