{"0000":{"zip_code":"2600000","prefecture":"千葉県","prefecture_kana":"チバケン","city":"千葉市中央区","city_kana":"チバシチュウオウク","town":"","town_kana":"","prefecture_code":12},"0852":{"zip_code":"2600852","prefecture":"千葉県","prefecture_kana":"チバケン","city":"千葉市中央区","city_kana":"チバシチュウオウク","town":"青葉町","town_kana":"アオバチョウ","prefecture_code":12},"0804":{"zip_code":"2600804","prefecture":"千葉県","prefecture_kana":"チバケン","city":"千葉市中央区","city_kana":"チバシチュウオウク","town":"赤井町","town_kana":"アカイチョウ","prefecture_code":12},"0002":{"zip_code":"2600002","prefecture":"千葉県","prefecture_kana":"チバケン","city":"千葉市中央区","city_kana":"チバシチュウオウク","town":"旭町","town_kana":"アサヒチョウ","prefecture_code":12},"0855":{"zip_code":"2600855","prefecture":"千葉県","prefecture_kana":"チバケン","city":"千葉市中央区","city_kana":"チバシチュウオウク","town":"市場町","town_kana":"イチバチョウ","prefecture_code":12},"0833":{"zip_code":"2600833","prefecture":"千葉県","prefecture_kana":"チバケン","city":"千葉市中央区","city_kana":"チバシチュウオウク","town":"稲荷町","town_kana":"イナリチョウ","prefecture_code":12},"0856":{"zip_code":"2600856","prefecture":"千葉県","prefecture_kana":"チバケン","city":"千葉市中央区","city_kana":"チバシチュウオウク","town":"亥鼻","town_kana":"イノハナ","prefecture_code":12},"0834":{"zip_code":"2600834","prefecture":"千葉県","prefecture_kana":"チバケン","city":"千葉市中央区","city_kana":"チバシチュウオウク","town":"今井","town_kana":"イマイ","prefecture_code":12},"0815":{"zip_code":"2600815","prefecture":"千葉県","prefecture_kana":"チバケン","city":"千葉市中央区","city_kana":"チバシチュウオウク","town":"今井町","town_kana":"イマイチョウ","prefecture_code":12},"0018":{"zip_code":"2600018","prefecture":"千葉県","prefecture_kana":"チバケン","city":"千葉市中央区","city_kana":"チバシチュウオウク","town":"院内","town_kana":"インナイ","prefecture_code":12},"0816":{"zip_code":"2600816","prefecture":"千葉県","prefecture_kana":"チバケン","city":"千葉市中央区","city_kana":"チバシチュウオウク","town":"鵜の森町","town_kana":"ウノモリチョウ","prefecture_code":12},"0811":{"zip_code":"2600811","prefecture":"千葉県","prefecture_kana":"チバケン","city":"千葉市中央区","city_kana":"チバシチュウオウク","town":"大森町","town_kana":"オオモリチョウ","prefecture_code":12},"0813":{"zip_code":"2600813","prefecture":"千葉県","prefecture_kana":"チバケン","city":"千葉市中央区","city_kana":"チバシチュウオウク","town":"生実町","town_kana":"オユミチョウ","prefecture_code":12},"0033":{"zip_code":"2600033","prefecture":"千葉県","prefecture_kana":"チバケン","city":"千葉市中央区","city_kana":"チバシチュウオウク","town":"春日","town_kana":"カスガ","prefecture_code":12},"0853":{"zip_code":"2600853","prefecture":"千葉県","prefecture_kana":"チバケン","city":"千葉市中央区","city_kana":"チバシチュウオウク","town":"葛城","town_kana":"カツラギ","prefecture_code":12},"0017":{"zip_code":"2600017","prefecture":"千葉県","prefecture_kana":"チバケン","city":"千葉市中央区","city_kana":"チバシチュウオウク","town":"要町","town_kana":"カナメチョウ","prefecture_code":12},"0011":{"zip_code":"2600011","prefecture":"千葉県","prefecture_kana":"チバケン","city":"千葉市中央区","city_kana":"チバシチュウオウク","town":"亀井町","town_kana":"カメイチョウ","prefecture_code":12},"0857":{"zip_code":"2600857","prefecture":"千葉県","prefecture_kana":"チバケン","city":"千葉市中央区","city_kana":"チバシチュウオウク","town":"亀岡町","town_kana":"カメオカチョウ","prefecture_code":12},"0835":{"zip_code":"2600835","prefecture":"千葉県","prefecture_kana":"チバケン","city":"千葉市中央区","city_kana":"チバシチュウオウク","town":"川崎町","town_kana":"カワサキチョウ","prefecture_code":12},"0802":{"zip_code":"2600802","prefecture":"千葉県","prefecture_kana":"チバケン","city":"千葉市中央区","city_kana":"チバシチュウオウク","town":"川戸町","town_kana":"カワドチョウ","prefecture_code":12},"0016":{"zip_code":"2600016","prefecture":"千葉県","prefecture_kana":"チバケン","city":"千葉市中央区","city_kana":"チバシチュウオウク","town":"栄町","town_kana":"サカエチョウ","prefecture_code":12},"0832":{"zip_code":"2600832","prefecture":"千葉県","prefecture_kana":"チバケン","city":"千葉市中央区","city_kana":"チバシチュウオウク","town":"寒川町","town_kana":"サムガワチョウ","prefecture_code":12},"0823":{"zip_code":"2600823","prefecture":"千葉県","prefecture_kana":"チバケン","city":"千葉市中央区","city_kana":"チバシチュウオウク","town":"塩田町","town_kana":"シオダチョウ","prefecture_code":12},"0034":{"zip_code":"2600034","prefecture":"千葉県","prefecture_kana":"チバケン","city":"千葉市中央区","city_kana":"チバシチュウオウク","town":"汐見丘町","town_kana":"シオミガオカチョウ","prefecture_code":12},"0841":{"zip_code":"2600841","prefecture":"千葉県","prefecture_kana":"チバケン","city":"千葉市中央区","city_kana":"チバシチュウオウク","town":"白旗","town_kana":"シラハタ","prefecture_code":12},"0021":{"zip_code":"2600021","prefecture":"千葉県","prefecture_kana":"チバケン","city":"千葉市中央区","city_kana":"チバシチュウオウク","town":"新宿","town_kana":"シンジュク","prefecture_code":12},"0031":{"zip_code":"2600031","prefecture":"千葉県","prefecture_kana":"チバケン","city":"千葉市中央区","city_kana":"チバシチュウオウク","town":"新千葉","town_kana":"シンチバ","prefecture_code":12},"0027":{"zip_code":"2600027","prefecture":"千葉県","prefecture_kana":"チバケン","city":"千葉市中央区","city_kana":"チバシチュウオウク","town":"新田町","town_kana":"シンデンチョウ","prefecture_code":12},"0028":{"zip_code":"2600028","prefecture":"千葉県","prefecture_kana":"チバケン","city":"千葉市中央区","city_kana":"チバシチュウオウク","town":"新町","town_kana":"シンマチ","prefecture_code":12},"0022":{"zip_code":"2600022","prefecture":"千葉県","prefecture_kana":"チバケン","city":"千葉市中央区","city_kana":"チバシチュウオウク","town":"神明町","town_kana":"シンメイチョウ","prefecture_code":12},"0843":{"zip_code":"2600843","prefecture":"千葉県","prefecture_kana":"チバケン","city":"千葉市中央区","city_kana":"チバシチュウオウク","town":"末広","town_kana":"スエヒロ","prefecture_code":12},"0822":[{"zip_code":"2600822","prefecture":"千葉県","prefecture_kana":"チバケン","city":"千葉市中央区","city_kana":"チバシチュウオウク","town":"蘇我","town_kana":"ソガ","prefecture_code":12},{"zip_code":"2600822","prefecture":"千葉県","prefecture_kana":"チバケン","city":"千葉市中央区","city_kana":"チバシチュウオウク","town":"蘇我町","town_kana":"ソガチョウ","prefecture_code":12}],"0812":{"zip_code":"2600812","prefecture":"千葉県","prefecture_kana":"チバケン","city":"千葉市中央区","city_kana":"チバシチュウオウク","town":"大巌寺町","town_kana":"ダイガンジチョウ","prefecture_code":12},"0844":{"zip_code":"2600844","prefecture":"千葉県","prefecture_kana":"チバケン","city":"千葉市中央区","city_kana":"チバシチュウオウク","town":"千葉寺町","town_kana":"チバデラチョウ","prefecture_code":12},"0026":{"zip_code":"2600026","prefecture":"千葉県","prefecture_kana":"チバケン","city":"千葉市中央区","city_kana":"チバシチュウオウク","town":"千葉港","town_kana":"チバミナト","prefecture_code":12},"0013":{"zip_code":"2600013","prefecture":"千葉県","prefecture_kana":"チバケン","city":"千葉市中央区","city_kana":"チバシチュウオウク","town":"中央","town_kana":"チュウオウ","prefecture_code":12},"0024":{"zip_code":"2600024","prefecture":"千葉県","prefecture_kana":"チバケン","city":"千葉市中央区","city_kana":"チバシチュウオウク","town":"中央港","town_kana":"チュウオウコウ","prefecture_code":12},"0042":{"zip_code":"2600042","prefecture":"千葉県","prefecture_kana":"チバケン","city":"千葉市中央区","city_kana":"チバシチュウオウク","town":"椿森","town_kana":"ツバキモリ","prefecture_code":12},"0003":{"zip_code":"2600003","prefecture":"千葉県","prefecture_kana":"チバケン","city":"千葉市中央区","city_kana":"チバシチュウオウク","town":"鶴沢町","town_kana":"ツルサワチョウ","prefecture_code":12},"0023":{"zip_code":"2600023","prefecture":"千葉県","prefecture_kana":"チバケン","city":"千葉市中央区","city_kana":"チバシチュウオウク","town":"出洲港","town_kana":"デズミナト","prefecture_code":12},"0005":{"zip_code":"2600005","prefecture":"千葉県","prefecture_kana":"チバケン","city":"千葉市中央区","city_kana":"チバシチュウオウク","town":"道場南","town_kana":"ドウジョウミナミ","prefecture_code":12},"0006":{"zip_code":"2600006","prefecture":"千葉県","prefecture_kana":"チバケン","city":"千葉市中央区","city_kana":"チバシチュウオウク","town":"道場北","town_kana":"ドウジョウキタ","prefecture_code":12},"0025":{"zip_code":"2600025","prefecture":"千葉県","prefecture_kana":"チバケン","city":"千葉市中央区","city_kana":"チバシチュウオウク","town":"問屋町","town_kana":"トンヤチョウ","prefecture_code":12},"0854":{"zip_code":"2600854","prefecture":"千葉県","prefecture_kana":"チバケン","city":"千葉市中央区","city_kana":"チバシチュウオウク","town":"長洲","town_kana":"ナガズ","prefecture_code":12},"0826":{"zip_code":"2600826","prefecture":"千葉県","prefecture_kana":"チバケン","city":"千葉市中央区","city_kana":"チバシチュウオウク","town":"新浜町","town_kana":"ニイハマチョウ","prefecture_code":12},"0801":{"zip_code":"2600801","prefecture":"千葉県","prefecture_kana":"チバケン","city":"千葉市中央区","city_kana":"チバシチュウオウク","town":"仁戸名町","town_kana":"ニトナチョウ","prefecture_code":12},"0032":{"zip_code":"2600032","prefecture":"千葉県","prefecture_kana":"チバケン","city":"千葉市中央区","city_kana":"チバシチュウオウク","town":"登戸","town_kana":"ノブト","prefecture_code":12},"0803":{"zip_code":"2600803","prefecture":"千葉県","prefecture_kana":"チバケン","city":"千葉市中央区","city_kana":"チバシチュウオウク","town":"花輪町","town_kana":"ハナワチョウ","prefecture_code":12},"0824":{"zip_code":"2600824","prefecture":"千葉県","prefecture_kana":"チバケン","city":"千葉市中央区","city_kana":"チバシチュウオウク","town":"浜野町","town_kana":"ハマノチョウ","prefecture_code":12},"0041":{"zip_code":"2600041","prefecture":"千葉県","prefecture_kana":"チバケン","city":"千葉市中央区","city_kana":"チバシチュウオウク","town":"東千葉","town_kana":"ヒガシチバ","prefecture_code":12},"0004":{"zip_code":"2600004","prefecture":"千葉県","prefecture_kana":"チバケン","city":"千葉市中央区","city_kana":"チバシチュウオウク","town":"東本町","town_kana":"ヒガシホンチョウ","prefecture_code":12},"0015":{"zip_code":"2600015","prefecture":"千葉県","prefecture_kana":"チバケン","city":"千葉市中央区","city_kana":"チバシチュウオウク","town":"富士見","town_kana":"フジミ","prefecture_code":12},"0045":{"zip_code":"2600045","prefecture":"千葉県","prefecture_kana":"チバケン","city":"千葉市中央区","city_kana":"チバシチュウオウク","town":"弁天","town_kana":"ベンテン","prefecture_code":12},"0808":{"zip_code":"2600808","prefecture":"千葉県","prefecture_kana":"チバケン","city":"千葉市中央区","city_kana":"チバシチュウオウク","town":"星久喜町","town_kana":"ホシグキチョウ","prefecture_code":12},"0014":{"zip_code":"2600014","prefecture":"千葉県","prefecture_kana":"チバケン","city":"千葉市中央区","city_kana":"チバシチュウオウク","town":"本千葉町","town_kana":"ホンチバチョウ","prefecture_code":12},"0012":{"zip_code":"2600012","prefecture":"千葉県","prefecture_kana":"チバケン","city":"千葉市中央区","city_kana":"チバシチュウオウク","town":"本町","town_kana":"ホンチョウ","prefecture_code":12},"0807":{"zip_code":"2600807","prefecture":"千葉県","prefecture_kana":"チバケン","city":"千葉市中央区","city_kana":"チバシチュウオウク","town":"松ケ丘町","town_kana":"マツガオカチョウ","prefecture_code":12},"0044":{"zip_code":"2600044","prefecture":"千葉県","prefecture_kana":"チバケン","city":"千葉市中央区","city_kana":"チバシチュウオウク","town":"松波","town_kana":"マツナミ","prefecture_code":12},"0831":{"zip_code":"2600831","prefecture":"千葉県","prefecture_kana":"チバケン","city":"千葉市中央区","city_kana":"チバシチュウオウク","town":"港町","town_kana":"ミナトチョウ","prefecture_code":12},"0814":{"zip_code":"2600814","prefecture":"千葉県","prefecture_kana":"チバケン","city":"千葉市中央区","city_kana":"チバシチュウオウク","town":"南生実町","town_kana":"ミナミオユミチョウ","prefecture_code":12},"0842":{"zip_code":"2600842","prefecture":"千葉県","prefecture_kana":"チバケン","city":"千葉市中央区","city_kana":"チバシチュウオウク","town":"南町","town_kana":"ミナミチョウ","prefecture_code":12},"0001":{"zip_code":"2600001","prefecture":"千葉県","prefecture_kana":"チバケン","city":"千葉市中央区","city_kana":"チバシチュウオウク","town":"都町","town_kana":"ミヤコチョウ","prefecture_code":12},"0806":{"zip_code":"2600806","prefecture":"千葉県","prefecture_kana":"チバケン","city":"千葉市中央区","city_kana":"チバシチュウオウク","town":"宮崎","town_kana":"ミヤザキ","prefecture_code":12},"0805":{"zip_code":"2600805","prefecture":"千葉県","prefecture_kana":"チバケン","city":"千葉市中央区","city_kana":"チバシチュウオウク","town":"宮崎町","town_kana":"ミヤザキチョウ","prefecture_code":12},"0825":{"zip_code":"2600825","prefecture":"千葉県","prefecture_kana":"チバケン","city":"千葉市中央区","city_kana":"チバシチュウオウク","town":"村田町","town_kana":"ムラタチョウ","prefecture_code":12},"0851":{"zip_code":"2600851","prefecture":"千葉県","prefecture_kana":"チバケン","city":"千葉市中央区","city_kana":"チバシチュウオウク","town":"矢作町","town_kana":"ヤハギチョウ","prefecture_code":12},"0007":{"zip_code":"2600007","prefecture":"千葉県","prefecture_kana":"チバケン","city":"千葉市中央区","city_kana":"チバシチュウオウク","town":"祐光","town_kana":"ユウコウ","prefecture_code":12},"0821":{"zip_code":"2600821","prefecture":"千葉県","prefecture_kana":"チバケン","city":"千葉市中央区","city_kana":"チバシチュウオウク","town":"若草","town_kana":"ワカクサ","prefecture_code":12},"8663":{"zip_code":"2608663","prefecture":"千葉県","city":"千葉市中央区","town":"川崎町","prefecture_code":12},"8633":{"zip_code":"2608633","prefecture":"千葉県","city":"千葉市中央区","town":"富士見","prefecture_code":12},"8707":{"zip_code":"2608707","prefecture":"千葉県","city":"千葉市中央区","town":"宮崎","prefecture_code":12},"8656":{"zip_code":"2608656","prefecture":"千葉県","city":"千葉市中央区","town":"長洲","prefecture_code":12},"8536":{"zip_code":"2608536","prefecture":"千葉県","city":"千葉市中央区","town":"問屋町","prefecture_code":12},"8540":{"zip_code":"2608540","prefecture":"千葉県","city":"千葉市中央区","town":"新町","prefecture_code":12},"8516":{"zip_code":"2608516","prefecture":"千葉県","city":"千葉市中央区","town":"千葉港","prefecture_code":12},"8637":{"zip_code":"2608637","prefecture":"千葉県","city":"千葉市中央区","town":"問屋町","prefecture_code":12},"8554":{"zip_code":"2608554","prefecture":"千葉県","city":"千葉市中央区","town":"新町","prefecture_code":12},"8558":{"zip_code":"2608558","prefecture":"千葉県","city":"千葉市中央区","town":"新宿","prefecture_code":12},"8527":{"zip_code":"2608527","prefecture":"千葉県","city":"千葉市中央区","town":"問屋町","prefecture_code":12},"8528":{"zip_code":"2608528","prefecture":"千葉県","city":"千葉市中央区","town":"問屋町","prefecture_code":12},"8557":{"zip_code":"2608557","prefecture":"千葉県","city":"千葉市中央区","town":"新町","prefecture_code":12},"8720":{"zip_code":"2608720","prefecture":"千葉県","city":"千葉市中央区","town":"千葉港","prefecture_code":12},"8567":{"zip_code":"2608567","prefecture":"千葉県","city":"千葉市中央区","town":"都町","prefecture_code":12},"8564":{"zip_code":"2608564","prefecture":"千葉県","city":"千葉市中央区","town":"問屋町","prefecture_code":12},"8613":{"zip_code":"2608613","prefecture":"千葉県","city":"千葉市中央区","town":"中央","prefecture_code":12},"8561":{"zip_code":"2608561","prefecture":"千葉県","city":"千葉市中央区","town":"都町","prefecture_code":12},"8570":{"zip_code":"2608570","prefecture":"千葉県","city":"千葉市中央区","town":"院内","prefecture_code":12},"8624":{"zip_code":"2608624","prefecture":"千葉県","city":"千葉市中央区","town":"中央","prefecture_code":12},"8622":{"zip_code":"2608622","prefecture":"千葉県","city":"千葉市中央区","town":"中央","prefecture_code":12},"8713":{"zip_code":"2608713","prefecture":"千葉県","city":"千葉市中央区","town":"星久喜町","prefecture_code":12},"8626":{"zip_code":"2608626","prefecture":"千葉県","city":"千葉市中央区","town":"中央","prefecture_code":12},"8631":{"zip_code":"2608631","prefecture":"千葉県","city":"千葉市中央区","town":"富士見","prefecture_code":12},"8636":{"zip_code":"2608636","prefecture":"千葉県","city":"千葉市中央区","town":"富士見","prefecture_code":12},"8588":{"zip_code":"2608588","prefecture":"千葉県","city":"千葉市中央区","town":"祐光","prefecture_code":12},"8601":{"zip_code":"2608601","prefecture":"千葉県","city":"千葉市中央区","town":"弁天","prefecture_code":12},"8685":{"zip_code":"2608685","prefecture":"千葉県","city":"千葉市中央区","town":"南生実町","prefecture_code":12},"8572":{"zip_code":"2608572","prefecture":"千葉県","city":"千葉市中央区","town":"本千葉町","prefecture_code":12},"8566":{"zip_code":"2608566","prefecture":"千葉県","city":"千葉市中央区","town":"都町","prefecture_code":12},"8619":{"zip_code":"2608619","prefecture":"千葉県","city":"千葉市中央区","town":"市場町","prefecture_code":12},"8534":{"zip_code":"2608534","prefecture":"千葉県","city":"千葉市中央区","town":"問屋町","prefecture_code":12},"8559":{"zip_code":"2608559","prefecture":"千葉県","city":"千葉市中央区","town":"新町","prefecture_code":12},"8629":{"zip_code":"2608629","prefecture":"千葉県","city":"千葉市中央区","town":"市場町","prefecture_code":12},"8661":{"zip_code":"2608661","prefecture":"千葉県","city":"千葉市中央区","town":"市場町","prefecture_code":12},"8562":{"zip_code":"2608562","prefecture":"千葉県","city":"千葉市中央区","town":"都町","prefecture_code":12},"8607":{"zip_code":"2608607","prefecture":"千葉県","city":"千葉市中央区","town":"椿森","prefecture_code":12},"8508":{"zip_code":"2608508","prefecture":"千葉県","city":"千葉市中央区","town":"千葉港","prefecture_code":12},"8521":{"zip_code":"2608521","prefecture":"千葉県","city":"千葉市中央区","town":"問屋町","prefecture_code":12},"8703":{"zip_code":"2608703","prefecture":"千葉県","city":"千葉市中央区","town":"仁戸名町","prefecture_code":12},"8701":{"zip_code":"2608701","prefecture":"千葉県","city":"千葉市中央区","town":"大巌寺町","prefecture_code":12},"8621":{"zip_code":"2608621","prefecture":"千葉県","city":"千葉市中央区","town":"中央","prefecture_code":12},"8645":{"zip_code":"2608645","prefecture":"千葉県","city":"千葉市中央区","town":"富士見","prefecture_code":12},"8512":{"zip_code":"2608512","prefecture":"千葉県","city":"千葉市中央区","town":"弁天","prefecture_code":12},"8560":{"zip_code":"2608560","prefecture":"千葉県","city":"千葉市中央区","town":"鶴沢町","prefecture_code":12},"8505":{"zip_code":"2608505","prefecture":"千葉県","city":"千葉市中央区","town":"千葉港","prefecture_code":12},"8552":{"zip_code":"2608552","prefecture":"千葉県","city":"千葉市中央区","town":"弁天","prefecture_code":12},"8667":{"zip_code":"2608667","prefecture":"千葉県","city":"千葉市中央区","town":"市場町","prefecture_code":12},"8715":{"zip_code":"2608715","prefecture":"千葉県","city":"千葉市中央区","town":"仁戸名町","prefecture_code":12},"8627":{"zip_code":"2608627","prefecture":"千葉県","city":"千葉市中央区","town":"中央","prefecture_code":12},"8717":{"zip_code":"2608717","prefecture":"千葉県","city":"千葉市中央区","town":"仁戸名町","prefecture_code":12},"8662":{"zip_code":"2608662","prefecture":"千葉県","city":"千葉市中央区","town":"市場町","prefecture_code":12},"8502":{"zip_code":"2608502","prefecture":"千葉県","city":"千葉市中央区","town":"中央港","prefecture_code":12},"8586":{"zip_code":"2608586","prefecture":"千葉県","city":"千葉市中央区","town":"要町","prefecture_code":12},"8575":{"zip_code":"2608575","prefecture":"千葉県","city":"千葉市中央区","town":"本千葉町","prefecture_code":12},"8501":{"zip_code":"2608501","prefecture":"千葉県","city":"千葉市中央区","town":"中央","prefecture_code":12},"8523":{"zip_code":"2608523","prefecture":"千葉県","city":"千葉市中央区","town":"問屋町","prefecture_code":12},"8507":{"zip_code":"2608507","prefecture":"千葉県","city":"千葉市中央区","town":"千葉港","prefecture_code":12},"8654":{"zip_code":"2608654","prefecture":"千葉県","city":"千葉市中央区","town":"都町","prefecture_code":12},"8665":{"zip_code":"2608665","prefecture":"千葉県","city":"千葉市中央区","town":"市場町","prefecture_code":12},"8682":{"zip_code":"2608682","prefecture":"千葉県","city":"千葉市中央区","town":"青葉町","prefecture_code":12},"8660":{"zip_code":"2608660","prefecture":"千葉県","city":"千葉市中央区","town":"市場町","prefecture_code":12},"8535":{"zip_code":"2608535","prefecture":"千葉県","city":"千葉市中央区","town":"問屋町","prefecture_code":12},"8730":{"zip_code":"2608730","prefecture":"千葉県","city":"千葉市中央区","town":"問屋町","prefecture_code":12},"8734":{"zip_code":"2608734","prefecture":"千葉県","city":"千葉市中央区","town":"中央","prefecture_code":12},"8733":{"zip_code":"2608733","prefecture":"千葉県","city":"千葉市中央区","town":"中央","prefecture_code":12},"8511":{"zip_code":"2608511","prefecture":"千葉県","city":"千葉市中央区","town":"中央","prefecture_code":12},"8618":{"zip_code":"2608618","prefecture":"千葉県","city":"千葉市中央区","town":"千葉寺町","prefecture_code":12},"8710":{"zip_code":"2608710","prefecture":"千葉県","city":"千葉市中央区","town":"仁戸名町","prefecture_code":12},"8722":{"zip_code":"2608722","prefecture":"千葉県","city":"千葉市中央区","town":"千葉港","prefecture_code":12},"8670":{"zip_code":"2608670","prefecture":"千葉県","city":"千葉市中央区","town":"亥鼻","prefecture_code":12},"8672":{"zip_code":"2608672","prefecture":"千葉県","city":"千葉市中央区","town":"亥鼻","prefecture_code":12},"8675":{"zip_code":"2608675","prefecture":"千葉県","city":"千葉市中央区","town":"亥鼻","prefecture_code":12},"8677":{"zip_code":"2608677","prefecture":"千葉県","city":"千葉市中央区","town":"亥鼻","prefecture_code":12},"8673":{"zip_code":"2608673","prefecture":"千葉県","city":"千葉市中央区","town":"亥鼻","prefecture_code":12},"8671":{"zip_code":"2608671","prefecture":"千葉県","city":"千葉市中央区","town":"亥鼻","prefecture_code":12},"8620":{"zip_code":"2608620","prefecture":"千葉県","city":"千葉市中央区","town":"中央","prefecture_code":12},"8518":{"zip_code":"2608518","prefecture":"千葉県","city":"千葉市中央区","town":"中央港","prefecture_code":12},"8510":{"zip_code":"2608510","prefecture":"千葉県","city":"千葉市中央区","town":"中央港","prefecture_code":12},"8538":{"zip_code":"2608538","prefecture":"千葉県","city":"千葉市中央区","town":"登戸","prefecture_code":12},"8585":{"zip_code":"2608585","prefecture":"千葉県","city":"千葉市中央区","town":"本千葉町","prefecture_code":12},"8577":{"zip_code":"2608577","prefecture":"千葉県","city":"千葉市中央区","town":"祐光","prefecture_code":12},"8513":{"zip_code":"2608513","prefecture":"千葉県","city":"千葉市中央区","town":"中央港","prefecture_code":12},"8688":{"zip_code":"2608688","prefecture":"千葉県","city":"千葉市中央区","town":"蘇我","prefecture_code":12},"8666":{"zip_code":"2608666","prefecture":"千葉県","city":"千葉市中央区","town":"市場町","prefecture_code":12},"8506":{"zip_code":"2608506","prefecture":"千葉県","city":"千葉市中央区","town":"中央","prefecture_code":12},"8612":{"zip_code":"2608612","prefecture":"千葉県","city":"千葉市中央区","town":"中央","prefecture_code":12},"8625":{"zip_code":"2608625","prefecture":"千葉県","city":"千葉市中央区","town":"中央","prefecture_code":12},"8603":{"zip_code":"2608603","prefecture":"千葉県","city":"千葉市中央区","town":"弁天","prefecture_code":12},"8580":{"zip_code":"2608580","prefecture":"千葉県","city":"千葉市中央区","town":"祐光","prefecture_code":12},"8635":{"zip_code":"2608635","prefecture":"千葉県","city":"千葉市中央区","town":"富士見","prefecture_code":12},"8606":{"zip_code":"2608606","prefecture":"千葉県","city":"千葉市中央区","town":"椿森","prefecture_code":12},"8712":{"zip_code":"2608712","prefecture":"千葉県","city":"千葉市中央区","town":"仁戸名町","prefecture_code":12},"8515":{"zip_code":"2608515","prefecture":"千葉県","city":"千葉市中央区","town":"千葉港","prefecture_code":12},"8647":{"zip_code":"2608647","prefecture":"千葉県","city":"千葉市中央区","town":"富士見","prefecture_code":12},"8648":{"zip_code":"2608648","prefecture":"千葉県","city":"千葉市中央区","town":"富士見","prefecture_code":12},"8604":{"zip_code":"2608604","prefecture":"千葉県","city":"千葉市中央区","town":"富士見","prefecture_code":12},"8503":{"zip_code":"2608503","prefecture":"千葉県","city":"千葉市中央区","town":"中央港","prefecture_code":12},"8610":{"zip_code":"2608610","prefecture":"千葉県","city":"千葉市中央区","town":"千葉港","prefecture_code":12},"8642":{"zip_code":"2608642","prefecture":"千葉県","city":"千葉市中央区","town":"富士見","prefecture_code":12},"8509":{"zip_code":"2608509","prefecture":"千葉県","city":"千葉市中央区","town":"千葉港","prefecture_code":12},"8563":{"zip_code":"2608563","prefecture":"千葉県","city":"千葉市中央区","town":"登戸","prefecture_code":12},"8551":{"zip_code":"2608551","prefecture":"千葉県","city":"千葉市中央区","town":"弁天","prefecture_code":12},"8524":{"zip_code":"2608524","prefecture":"千葉県","city":"千葉市中央区","town":"問屋町","prefecture_code":12},"8555":{"zip_code":"2608555","prefecture":"千葉県","city":"千葉市中央区","town":"新町","prefecture_code":12},"8668":{"zip_code":"2608668","prefecture":"千葉県","city":"千葉市中央区","town":"長洲","prefecture_code":12}}