{"0800":{"zip_code":"3300800","prefecture":"埼玉県","prefecture_kana":"サイタマケン","city":"さいたま市大宮区","city_kana":"サイタマシオオミヤク","town":"","town_kana":"","prefecture_code":11},"0841":{"zip_code":"3300841","prefecture":"埼玉県","prefecture_kana":"サイタマケン","city":"さいたま市大宮区","city_kana":"サイタマシオオミヤク","town":"東町","town_kana":"アズマチョウ","prefecture_code":11},"0834":{"zip_code":"3300834","prefecture":"埼玉県","prefecture_kana":"サイタマケン","city":"さいたま市大宮区","city_kana":"サイタマシオオミヤク","town":"天沼町","town_kana":"アマヌマチョウ","prefecture_code":11},"0852":{"zip_code":"3300852","prefecture":"埼玉県","prefecture_kana":"サイタマケン","city":"さいたま市大宮区","city_kana":"サイタマシオオミヤク","town":"大成町","town_kana":"オオナリチョウ","prefecture_code":11},"0836":{"zip_code":"3300836","prefecture":"埼玉県","prefecture_kana":"サイタマケン","city":"さいたま市大宮区","city_kana":"サイタマシオオミヤク","town":"大原","town_kana":"オオハラ","prefecture_code":11},"0855":{"zip_code":"3300855","prefecture":"埼玉県","prefecture_kana":"サイタマケン","city":"さいたま市大宮区","city_kana":"サイタマシオオミヤク","town":"上小町","town_kana":"カミコチョウ","prefecture_code":11},"0843":{"zip_code":"3300843","prefecture":"埼玉県","prefecture_kana":"サイタマケン","city":"さいたま市大宮区","city_kana":"サイタマシオオミヤク","town":"吉敷町","town_kana":"キシキチョウ","prefecture_code":11},"0835":{"zip_code":"3300835","prefecture":"埼玉県","prefecture_kana":"サイタマケン","city":"さいたま市大宮区","city_kana":"サイタマシオオミヤク","town":"北袋町","town_kana":"キタブクロチョウ","prefecture_code":11},"0851":{"zip_code":"3300851","prefecture":"埼玉県","prefecture_kana":"サイタマケン","city":"さいたま市大宮区","city_kana":"サイタマシオオミヤク","town":"櫛引町","town_kana":"クシヒキチョウ","prefecture_code":11},"0854":{"zip_code":"3300854","prefecture":"埼玉県","prefecture_kana":"サイタマケン","city":"さいたま市大宮区","city_kana":"サイタマシオオミヤク","town":"桜木町","town_kana":"サクラギチョウ","prefecture_code":11},"0844":{"zip_code":"3300844","prefecture":"埼玉県","prefecture_kana":"サイタマケン","city":"さいたま市大宮区","city_kana":"サイタマシオオミヤク","town":"下町","town_kana":"シモチョウ","prefecture_code":11},"0805":{"zip_code":"3300805","prefecture":"埼玉県","prefecture_kana":"サイタマケン","city":"さいたま市大宮区","city_kana":"サイタマシオオミヤク","town":"寿能町","town_kana":"ジュノウチョウ","prefecture_code":11},"0842":{"zip_code":"3300842","prefecture":"埼玉県","prefecture_kana":"サイタマケン","city":"さいたま市大宮区","city_kana":"サイタマシオオミヤク","town":"浅間町","town_kana":"センゲンチョウ","prefecture_code":11},"0846":{"zip_code":"3300846","prefecture":"埼玉県","prefecture_kana":"サイタマケン","city":"さいたま市大宮区","city_kana":"サイタマシオオミヤク","town":"大門町","town_kana":"ダイモンチョウ","prefecture_code":11},"0803":{"zip_code":"3300803","prefecture":"埼玉県","prefecture_kana":"サイタマケン","city":"さいたま市大宮区","city_kana":"サイタマシオオミヤク","town":"高鼻町","town_kana":"タカハナチョウ","prefecture_code":11},"0801":{"zip_code":"3300801","prefecture":"埼玉県","prefecture_kana":"サイタマケン","city":"さいたま市大宮区","city_kana":"サイタマシオオミヤク","town":"土手町","town_kana":"ドテチョウ","prefecture_code":11},"0845":{"zip_code":"3300845","prefecture":"埼玉県","prefecture_kana":"サイタマケン","city":"さいたま市大宮区","city_kana":"サイタマシオオミヤク","town":"仲町","town_kana":"ナカチョウ","prefecture_code":11},"0853":{"zip_code":"3300853","prefecture":"埼玉県","prefecture_kana":"サイタマケン","city":"さいたま市大宮区","city_kana":"サイタマシオオミヤク","town":"錦町","town_kana":"ニシキチョウ","prefecture_code":11},"0804":{"zip_code":"3300804","prefecture":"埼玉県","prefecture_kana":"サイタマケン","city":"さいたま市大宮区","city_kana":"サイタマシオオミヤク","town":"堀の内町","town_kana":"ホリノウチチョウ","prefecture_code":11},"0856":{"zip_code":"3300856","prefecture":"埼玉県","prefecture_kana":"サイタマケン","city":"さいたま市大宮区","city_kana":"サイタマシオオミヤク","town":"三橋","town_kana":"ミハシ","prefecture_code":11},"0802":{"zip_code":"3300802","prefecture":"埼玉県","prefecture_kana":"サイタマケン","city":"さいたま市大宮区","city_kana":"サイタマシオオミヤク","town":"宮町","town_kana":"ミヤチョウ","prefecture_code":11},"0000":[{"zip_code":"3300000","prefecture":"埼玉県","prefecture_kana":"サイタマケン","city":"さいたま市中央区","city_kana":"サイタマシチュウオウク","town":"","town_kana":"","prefecture_code":11},{"zip_code":"3300000","prefecture":"埼玉県","prefecture_kana":"サイタマケン","city":"さいたま市浦和区","city_kana":"サイタマシウラワク","town":"","town_kana":"","prefecture_code":11}],"0081":{"zip_code":"3300081","prefecture":"埼玉県","prefecture_kana":"サイタマケン","city":"さいたま市中央区","city_kana":"サイタマシチュウオウク","town":"新都心","town_kana":"シントシン","prefecture_code":11},"6090":{"zip_code":"3306090","prefecture":"埼玉県","prefecture_kana":"サイタマケン","city":"さいたま市中央区","city_kana":"サイタマシチュウオウク","town":"新都心明治安田生命さいたま新都心ビル","town_kana":"シントシンメイジヤスダセイメイサイタマシントシンビル","prefecture_code":11},"6001":{"zip_code":"3306001","prefecture":"埼玉県","prefecture_kana":"サイタマケン","city":"さいたま市中央区","city_kana":"サイタマシチュウオウク","town":"新都心明治安田生命さいたま新都心ビル　１階","town_kana":"シントシンメイジヤスダセイメイサイタマシントシンビル1カイ","prefecture_code":11},"6002":{"zip_code":"3306002","prefecture":"埼玉県","prefecture_kana":"サイタマケン","city":"さいたま市中央区","city_kana":"サイタマシチュウオウク","town":"新都心明治安田生命さいたま新都心ビル　２階","town_kana":"シントシンメイジヤスダセイメイサイタマシントシンビル2カイ","prefecture_code":11},"6003":{"zip_code":"3306003","prefecture":"埼玉県","prefecture_kana":"サイタマケン","city":"さいたま市中央区","city_kana":"サイタマシチュウオウク","town":"新都心明治安田生命さいたま新都心ビル　３階","town_kana":"シントシンメイジヤスダセイメイサイタマシントシンビル3カイ","prefecture_code":11},"6004":{"zip_code":"3306004","prefecture":"埼玉県","prefecture_kana":"サイタマケン","city":"さいたま市中央区","city_kana":"サイタマシチュウオウク","town":"新都心明治安田生命さいたま新都心ビル　４階","town_kana":"シントシンメイジヤスダセイメイサイタマシントシンビル4カイ","prefecture_code":11},"6005":{"zip_code":"3306005","prefecture":"埼玉県","prefecture_kana":"サイタマケン","city":"さいたま市中央区","city_kana":"サイタマシチュウオウク","town":"新都心明治安田生命さいたま新都心ビル　５階","town_kana":"シントシンメイジヤスダセイメイサイタマシントシンビル5カイ","prefecture_code":11},"6006":{"zip_code":"3306006","prefecture":"埼玉県","prefecture_kana":"サイタマケン","city":"さいたま市中央区","city_kana":"サイタマシチュウオウク","town":"新都心明治安田生命さいたま新都心ビル　６階","town_kana":"シントシンメイジヤスダセイメイサイタマシントシンビル6カイ","prefecture_code":11},"6007":{"zip_code":"3306007","prefecture":"埼玉県","prefecture_kana":"サイタマケン","city":"さいたま市中央区","city_kana":"サイタマシチュウオウク","town":"新都心明治安田生命さいたま新都心ビル　７階","town_kana":"シントシンメイジヤスダセイメイサイタマシントシンビル7カイ","prefecture_code":11},"6008":{"zip_code":"3306008","prefecture":"埼玉県","prefecture_kana":"サイタマケン","city":"さいたま市中央区","city_kana":"サイタマシチュウオウク","town":"新都心明治安田生命さいたま新都心ビル　８階","town_kana":"シントシンメイジヤスダセイメイサイタマシントシンビル8カイ","prefecture_code":11},"6009":{"zip_code":"3306009","prefecture":"埼玉県","prefecture_kana":"サイタマケン","city":"さいたま市中央区","city_kana":"サイタマシチュウオウク","town":"新都心明治安田生命さいたま新都心ビル　９階","town_kana":"シントシンメイジヤスダセイメイサイタマシントシンビル9カイ","prefecture_code":11},"6010":{"zip_code":"3306010","prefecture":"埼玉県","prefecture_kana":"サイタマケン","city":"さいたま市中央区","city_kana":"サイタマシチュウオウク","town":"新都心明治安田生命さいたま新都心ビル　１０階","town_kana":"シントシンメイジヤスダセイメイサイタマシントシンビル10カイ","prefecture_code":11},"6011":{"zip_code":"3306011","prefecture":"埼玉県","prefecture_kana":"サイタマケン","city":"さいたま市中央区","city_kana":"サイタマシチュウオウク","town":"新都心明治安田生命さいたま新都心ビル　１１階","town_kana":"シントシンメイジヤスダセイメイサイタマシントシンビル11カイ","prefecture_code":11},"6012":{"zip_code":"3306012","prefecture":"埼玉県","prefecture_kana":"サイタマケン","city":"さいたま市中央区","city_kana":"サイタマシチュウオウク","town":"新都心明治安田生命さいたま新都心ビル　１２階","town_kana":"シントシンメイジヤスダセイメイサイタマシントシンビル12カイ","prefecture_code":11},"6013":{"zip_code":"3306013","prefecture":"埼玉県","prefecture_kana":"サイタマケン","city":"さいたま市中央区","city_kana":"サイタマシチュウオウク","town":"新都心明治安田生命さいたま新都心ビル　１３階","town_kana":"シントシンメイジヤスダセイメイサイタマシントシンビル13カイ","prefecture_code":11},"6014":{"zip_code":"3306014","prefecture":"埼玉県","prefecture_kana":"サイタマケン","city":"さいたま市中央区","city_kana":"サイタマシチュウオウク","town":"新都心明治安田生命さいたま新都心ビル　１４階","town_kana":"シントシンメイジヤスダセイメイサイタマシントシンビル14カイ","prefecture_code":11},"6015":{"zip_code":"3306015","prefecture":"埼玉県","prefecture_kana":"サイタマケン","city":"さいたま市中央区","city_kana":"サイタマシチュウオウク","town":"新都心明治安田生命さいたま新都心ビル　１５階","town_kana":"シントシンメイジヤスダセイメイサイタマシントシンビル15カイ","prefecture_code":11},"6016":{"zip_code":"3306016","prefecture":"埼玉県","prefecture_kana":"サイタマケン","city":"さいたま市中央区","city_kana":"サイタマシチュウオウク","town":"新都心明治安田生命さいたま新都心ビル　１６階","town_kana":"シントシンメイジヤスダセイメイサイタマシントシンビル16カイ","prefecture_code":11},"6017":{"zip_code":"3306017","prefecture":"埼玉県","prefecture_kana":"サイタマケン","city":"さいたま市中央区","city_kana":"サイタマシチュウオウク","town":"新都心明治安田生命さいたま新都心ビル　１７階","town_kana":"シントシンメイジヤスダセイメイサイタマシントシンビル17カイ","prefecture_code":11},"6018":{"zip_code":"3306018","prefecture":"埼玉県","prefecture_kana":"サイタマケン","city":"さいたま市中央区","city_kana":"サイタマシチュウオウク","town":"新都心明治安田生命さいたま新都心ビル　１８階","town_kana":"シントシンメイジヤスダセイメイサイタマシントシンビル18カイ","prefecture_code":11},"6019":{"zip_code":"3306019","prefecture":"埼玉県","prefecture_kana":"サイタマケン","city":"さいたま市中央区","city_kana":"サイタマシチュウオウク","town":"新都心明治安田生命さいたま新都心ビル　１９階","town_kana":"シントシンメイジヤスダセイメイサイタマシントシンビル19カイ","prefecture_code":11},"6020":{"zip_code":"3306020","prefecture":"埼玉県","prefecture_kana":"サイタマケン","city":"さいたま市中央区","city_kana":"サイタマシチュウオウク","town":"新都心明治安田生命さいたま新都心ビル　２０階","town_kana":"シントシンメイジヤスダセイメイサイタマシントシンビル20カイ","prefecture_code":11},"6021":{"zip_code":"3306021","prefecture":"埼玉県","prefecture_kana":"サイタマケン","city":"さいたま市中央区","city_kana":"サイタマシチュウオウク","town":"新都心明治安田生命さいたま新都心ビル　２１階","town_kana":"シントシンメイジヤスダセイメイサイタマシントシンビル21カイ","prefecture_code":11},"6022":{"zip_code":"3306022","prefecture":"埼玉県","prefecture_kana":"サイタマケン","city":"さいたま市中央区","city_kana":"サイタマシチュウオウク","town":"新都心明治安田生命さいたま新都心ビル　２２階","town_kana":"シントシンメイジヤスダセイメイサイタマシントシンビル22カイ","prefecture_code":11},"6023":{"zip_code":"3306023","prefecture":"埼玉県","prefecture_kana":"サイタマケン","city":"さいたま市中央区","city_kana":"サイタマシチュウオウク","town":"新都心明治安田生命さいたま新都心ビル　２３階","town_kana":"シントシンメイジヤスダセイメイサイタマシントシンビル23カイ","prefecture_code":11},"6024":{"zip_code":"3306024","prefecture":"埼玉県","prefecture_kana":"サイタマケン","city":"さいたま市中央区","city_kana":"サイタマシチュウオウク","town":"新都心明治安田生命さいたま新都心ビル　２４階","town_kana":"シントシンメイジヤスダセイメイサイタマシントシンビル24カイ","prefecture_code":11},"6025":{"zip_code":"3306025","prefecture":"埼玉県","prefecture_kana":"サイタマケン","city":"さいたま市中央区","city_kana":"サイタマシチュウオウク","town":"新都心明治安田生命さいたま新都心ビル　２５階","town_kana":"シントシンメイジヤスダセイメイサイタマシントシンビル25カイ","prefecture_code":11},"6026":{"zip_code":"3306026","prefecture":"埼玉県","prefecture_kana":"サイタマケン","city":"さいたま市中央区","city_kana":"サイタマシチュウオウク","town":"新都心明治安田生命さいたま新都心ビル　２６階","town_kana":"シントシンメイジヤスダセイメイサイタマシントシンビル26カイ","prefecture_code":11},"6027":{"zip_code":"3306027","prefecture":"埼玉県","prefecture_kana":"サイタマケン","city":"さいたま市中央区","city_kana":"サイタマシチュウオウク","town":"新都心明治安田生命さいたま新都心ビル　２７階","town_kana":"シントシンメイジヤスダセイメイサイタマシントシンビル27カイ","prefecture_code":11},"6028":{"zip_code":"3306028","prefecture":"埼玉県","prefecture_kana":"サイタマケン","city":"さいたま市中央区","city_kana":"サイタマシチュウオウク","town":"新都心明治安田生命さいたま新都心ビル　２８階","town_kana":"シントシンメイジヤスダセイメイサイタマシントシンビル28カイ","prefecture_code":11},"6029":{"zip_code":"3306029","prefecture":"埼玉県","prefecture_kana":"サイタマケン","city":"さいたま市中央区","city_kana":"サイタマシチュウオウク","town":"新都心明治安田生命さいたま新都心ビル　２９階","town_kana":"シントシンメイジヤスダセイメイサイタマシントシンビル29カイ","prefecture_code":11},"6030":{"zip_code":"3306030","prefecture":"埼玉県","prefecture_kana":"サイタマケン","city":"さいたま市中央区","city_kana":"サイタマシチュウオウク","town":"新都心明治安田生命さいたま新都心ビル　３０階","town_kana":"シントシンメイジヤスダセイメイサイタマシントシンビル30カイ","prefecture_code":11},"6031":{"zip_code":"3306031","prefecture":"埼玉県","prefecture_kana":"サイタマケン","city":"さいたま市中央区","city_kana":"サイタマシチュウオウク","town":"新都心明治安田生命さいたま新都心ビル　３１階","town_kana":"シントシンメイジヤスダセイメイサイタマシントシンビル31カイ","prefecture_code":11},"6032":{"zip_code":"3306032","prefecture":"埼玉県","prefecture_kana":"サイタマケン","city":"さいたま市中央区","city_kana":"サイタマシチュウオウク","town":"新都心明治安田生命さいたま新都心ビル　３２階","town_kana":"シントシンメイジヤスダセイメイサイタマシントシンビル32カイ","prefecture_code":11},"6033":{"zip_code":"3306033","prefecture":"埼玉県","prefecture_kana":"サイタマケン","city":"さいたま市中央区","city_kana":"サイタマシチュウオウク","town":"新都心明治安田生命さいたま新都心ビル　３３階","town_kana":"シントシンメイジヤスダセイメイサイタマシントシンビル33カイ","prefecture_code":11},"6034":{"zip_code":"3306034","prefecture":"埼玉県","prefecture_kana":"サイタマケン","city":"さいたま市中央区","city_kana":"サイタマシチュウオウク","town":"新都心明治安田生命さいたま新都心ビル　３４階","town_kana":"シントシンメイジヤスダセイメイサイタマシントシンビル34カイ","prefecture_code":11},"6035":{"zip_code":"3306035","prefecture":"埼玉県","prefecture_kana":"サイタマケン","city":"さいたま市中央区","city_kana":"サイタマシチュウオウク","town":"新都心明治安田生命さいたま新都心ビル　３５階","town_kana":"シントシンメイジヤスダセイメイサイタマシントシンビル35カイ","prefecture_code":11},"0046":{"zip_code":"3300046","prefecture":"埼玉県","prefecture_kana":"サイタマケン","city":"さいたま市浦和区","city_kana":"サイタマシウラワク","town":"大原","town_kana":"オオハラ","prefecture_code":11},"0071":{"zip_code":"3300071","prefecture":"埼玉県","prefecture_kana":"サイタマケン","city":"さいたま市浦和区","city_kana":"サイタマシウラワク","town":"上木崎","town_kana":"カミキザキ","prefecture_code":11},"0042":{"zip_code":"3300042","prefecture":"埼玉県","prefecture_kana":"サイタマケン","city":"さいたま市浦和区","city_kana":"サイタマシウラワク","town":"木崎","town_kana":"キザキ","prefecture_code":11},"0064":{"zip_code":"3300064","prefecture":"埼玉県","prefecture_kana":"サイタマケン","city":"さいたま市浦和区","city_kana":"サイタマシウラワク","town":"岸町","town_kana":"キシチョウ","prefecture_code":11},"0074":{"zip_code":"3300074","prefecture":"埼玉県","prefecture_kana":"サイタマケン","city":"さいたま市浦和区","city_kana":"サイタマシウラワク","town":"北浦和","town_kana":"キタウラワ","prefecture_code":11},"0045":{"zip_code":"3300045","prefecture":"埼玉県","prefecture_kana":"サイタマケン","city":"さいたま市浦和区","city_kana":"サイタマシウラワク","town":"皇山町","town_kana":"コウザンチョウ","prefecture_code":11},"0051":{"zip_code":"3300051","prefecture":"埼玉県","prefecture_kana":"サイタマケン","city":"さいたま市浦和区","city_kana":"サイタマシウラワク","town":"駒場","town_kana":"コマバ","prefecture_code":11},"0065":{"zip_code":"3300065","prefecture":"埼玉県","prefecture_kana":"サイタマケン","city":"さいたま市浦和区","city_kana":"サイタマシウラワク","town":"神明","town_kana":"シンメイ","prefecture_code":11},"0044":{"zip_code":"3300044","prefecture":"埼玉県","prefecture_kana":"サイタマケン","city":"さいたま市浦和区","city_kana":"サイタマシウラワク","town":"瀬ケ崎","town_kana":"セガサキ","prefecture_code":11},"0043":{"zip_code":"3300043","prefecture":"埼玉県","prefecture_kana":"サイタマケン","city":"さいたま市浦和区","city_kana":"サイタマシウラワク","town":"大東","town_kana":"ダイトウ","prefecture_code":11},"0063":{"zip_code":"3300063","prefecture":"埼玉県","prefecture_kana":"サイタマケン","city":"さいたま市浦和区","city_kana":"サイタマシウラワク","town":"高砂","town_kana":"タカサゴ","prefecture_code":11},"0061":{"zip_code":"3300061","prefecture":"埼玉県","prefecture_kana":"サイタマケン","city":"さいたま市浦和区","city_kana":"サイタマシウラワク","town":"常盤","town_kana":"トキワ","prefecture_code":11},"0062":{"zip_code":"3300062","prefecture":"埼玉県","prefecture_kana":"サイタマケン","city":"さいたま市浦和区","city_kana":"サイタマシウラワク","town":"仲町","town_kana":"ナカチョウ","prefecture_code":11},"0075":{"zip_code":"3300075","prefecture":"埼玉県","prefecture_kana":"サイタマケン","city":"さいたま市浦和区","city_kana":"サイタマシウラワク","town":"針ヶ谷","town_kana":"ハリガヤ","prefecture_code":11},"0054":{"zip_code":"3300054","prefecture":"埼玉県","prefecture_kana":"サイタマケン","city":"さいたま市浦和区","city_kana":"サイタマシウラワク","town":"東岸町","town_kana":"ヒガシキシチョウ","prefecture_code":11},"0055":{"zip_code":"3300055","prefecture":"埼玉県","prefecture_kana":"サイタマケン","city":"さいたま市浦和区","city_kana":"サイタマシウラワク","town":"東高砂町","town_kana":"ヒガシタカサゴチョウ","prefecture_code":11},"0056":{"zip_code":"3300056","prefecture":"埼玉県","prefecture_kana":"サイタマケン","city":"さいたま市浦和区","city_kana":"サイタマシウラワク","town":"東仲町","town_kana":"ヒガシナカチョウ","prefecture_code":11},"0053":{"zip_code":"3300053","prefecture":"埼玉県","prefecture_kana":"サイタマケン","city":"さいたま市浦和区","city_kana":"サイタマシウラワク","town":"前地","town_kana":"マエジ","prefecture_code":11},"0041":{"zip_code":"3300041","prefecture":"埼玉県","prefecture_kana":"サイタマケン","city":"さいたま市浦和区","city_kana":"サイタマシウラワク","town":"三崎","town_kana":"ミサキ","prefecture_code":11},"0073":{"zip_code":"3300073","prefecture":"埼玉県","prefecture_kana":"サイタマケン","city":"さいたま市浦和区","city_kana":"サイタマシウラワク","town":"元町","town_kana":"モトチョウ","prefecture_code":11},"0052":{"zip_code":"3300052","prefecture":"埼玉県","prefecture_kana":"サイタマケン","city":"さいたま市浦和区","city_kana":"サイタマシウラワク","town":"本太","town_kana":"モトブト","prefecture_code":11},"0072":{"zip_code":"3300072","prefecture":"埼玉県","prefecture_kana":"サイタマケン","city":"さいたま市浦和区","city_kana":"サイタマシウラワク","town":"領家","town_kana":"リョウケ","prefecture_code":11},"8688":{"zip_code":"3308688","prefecture":"埼玉県","city":"さいたま市大宮区","town":"土手町","prefecture_code":11},"8505":{"zip_code":"3308505","prefecture":"埼玉県","city":"さいたま市大宮区","town":"下町","prefecture_code":11},"8589":{"zip_code":"3308589","prefecture":"埼玉県","city":"さいたま市大宮区","town":"宮町","prefecture_code":11},"9559":{"zip_code":"3309559","prefecture":"埼玉県","city":"さいたま市大宮区","town":"吉敷町","prefecture_code":11},"8511":{"zip_code":"3308511","prefecture":"埼玉県","city":"さいたま市大宮区","town":"大門町","prefecture_code":11},"8547":{"zip_code":"3308547","prefecture":"埼玉県","city":"さいたま市大宮区","town":"宮町","prefecture_code":11},"9503":{"zip_code":"3309503","prefecture":"埼玉県","city":"さいたま市大宮区","town":"桜木町","prefecture_code":11},"8581":{"zip_code":"3308581","prefecture":"埼玉県","city":"さいたま市大宮区","town":"桜木町","prefecture_code":11},"9621":{"zip_code":"3309621","prefecture":"埼玉県","city":"さいたま市大宮区","town":"宮町","prefecture_code":11},"9525":{"zip_code":"3309525","prefecture":"埼玉県","city":"さいたま市大宮区","town":"宮町","prefecture_code":11},"8501":{"zip_code":"3308501","prefecture":"埼玉県","city":"さいたま市大宮区","town":"大門町","prefecture_code":11},"8550":{"zip_code":"3308550","prefecture":"埼玉県","city":"さいたま市大宮区","town":"宮町","prefecture_code":11},"9535":{"zip_code":"3309535","prefecture":"埼玉県","city":"さいたま市大宮区","town":"大成町","prefecture_code":11},"8506":{"zip_code":"3308506","prefecture":"埼玉県","city":"さいたま市大宮区","town":"北袋町","prefecture_code":11},"8503":{"zip_code":"3308503","prefecture":"埼玉県","city":"さいたま市大宮区","town":"天沼町","prefecture_code":11},"8686":{"zip_code":"3308686","prefecture":"埼玉県","city":"さいたま市大宮区","town":"錦町","prefecture_code":11},"8669":{"zip_code":"3308669","prefecture":"埼玉県","city":"さいたま市大宮区","town":"桜木町","prefecture_code":11},"9509":{"zip_code":"3309509","prefecture":"埼玉県","city":"さいたま市大宮区","town":"桜木町","prefecture_code":11},"9011":{"zip_code":"3309011","prefecture":"埼玉県","city":"さいたま市大宮区","town":"土手町","prefecture_code":11},"8601":{"zip_code":"3308601","prefecture":"埼玉県","city":"さいたま市大宮区","town":"宮町","prefecture_code":11},"9548":{"zip_code":"3309548","prefecture":"埼玉県","city":"さいたま市大宮区","town":"吉敷町","prefecture_code":11},"9577":{"zip_code":"3309577","prefecture":"埼玉県","city":"さいたま市大宮区","town":"錦町","prefecture_code":11},"9555":{"zip_code":"3309555","prefecture":"埼玉県","city":"さいたま市大宮区","town":"錦町","prefecture_code":11},"9545":{"zip_code":"3309545","prefecture":"埼玉県","city":"さいたま市大宮区","town":"宮町","prefecture_code":11},"8508":{"zip_code":"3308508","prefecture":"埼玉県","city":"さいたま市大宮区","town":"北袋町","prefecture_code":11},"8634":{"zip_code":"3308634","prefecture":"埼玉県","city":"さいたま市大宮区","town":"桜木町","prefecture_code":11},"9551":{"zip_code":"3309551","prefecture":"埼玉県","city":"さいたま市大宮区","town":"北袋町","prefecture_code":11},"9622":{"zip_code":"3309622","prefecture":"埼玉県","city":"さいたま市大宮区","town":"桜木町","prefecture_code":11},"9582":{"zip_code":"3309582","prefecture":"埼玉県","city":"さいたま市大宮区","town":"桜木町","prefecture_code":11},"9626":{"zip_code":"3309626","prefecture":"埼玉県","city":"さいたま市大宮区","town":"桜木町","prefecture_code":11},"9553":{"zip_code":"3309553","prefecture":"埼玉県","city":"さいたま市大宮区","town":"大成町","prefecture_code":11},"9543":{"zip_code":"3309543","prefecture":"埼玉県","city":"さいたま市大宮区","town":"桜木町","prefecture_code":11},"9696":{"zip_code":"3309696","prefecture":"埼玉県","city":"さいたま市大宮区","town":"桜木町","prefecture_code":11},"9630":{"zip_code":"3309630","prefecture":"埼玉県","city":"さいたま市大宮区","town":"桜木町","prefecture_code":11},"9583":{"zip_code":"3309583","prefecture":"埼玉県","city":"さいたま市大宮区","town":"桜木町","prefecture_code":11},"9508":{"zip_code":"3309508","prefecture":"埼玉県","city":"さいたま市大宮区","town":"桜木町","prefecture_code":11},"9501":{"zip_code":"3309501","prefecture":"埼玉県","city":"さいたま市大宮区","town":"桜木町","prefecture_code":11},"9566":{"zip_code":"3309566","prefecture":"埼玉県","city":"さいたま市大宮区","town":"桜木町","prefecture_code":11},"9512":{"zip_code":"3309512","prefecture":"埼玉県","city":"さいたま市大宮区","town":"上小町","prefecture_code":11},"9544":{"zip_code":"3309544","prefecture":"埼玉県","city":"さいたま市大宮区","town":"桜木町","prefecture_code":11},"9608":{"zip_code":"3309608","prefecture":"埼玉県","city":"さいたま市大宮区","town":"桜木町","prefecture_code":11},"9565":{"zip_code":"3309565","prefecture":"埼玉県","city":"さいたま市大宮区","town":"三橋","prefecture_code":11},"9575":{"zip_code":"3309575","prefecture":"埼玉県","city":"さいたま市大宮区","town":"三橋","prefecture_code":11},"9564":{"zip_code":"3309564","prefecture":"埼玉県","city":"さいたま市大宮区","town":"三橋","prefecture_code":11},"9558":{"zip_code":"3309558","prefecture":"埼玉県","city":"さいたま市大宮区","town":"大成町","prefecture_code":11},"9531":{"zip_code":"3309531","prefecture":"埼玉県","city":"さいたま市大宮区","town":"桜木町","prefecture_code":11},"9581":{"zip_code":"3309581","prefecture":"埼玉県","city":"さいたま市大宮区","town":"桜木町","prefecture_code":11},"9580":{"zip_code":"3309580","prefecture":"埼玉県","city":"さいたま市大宮区","town":"桜木町","prefecture_code":11},"9601":{"zip_code":"3309601","prefecture":"埼玉県","city":"さいたま市大宮区","town":"桜木町","prefecture_code":11},"9502":{"zip_code":"3309502","prefecture":"埼玉県","city":"さいたま市大宮区","town":"大成町","prefecture_code":11},"9540":{"zip_code":"3309540","prefecture":"埼玉県","city":"さいたま市大宮区","town":"桜木町","prefecture_code":11},"9590":{"zip_code":"3309590","prefecture":"埼玉県","city":"さいたま市中央区","town":"新都心","prefecture_code":11},"9536":{"zip_code":"3309536","prefecture":"埼玉県","city":"さいたま市中央区","town":"新都心","prefecture_code":11},"9797":[{"zip_code":"3309797","prefecture":"埼玉県","city":"さいたま市中央区","town":"新都心","prefecture_code":11},{"zip_code":"3309797","prefecture":"埼玉県","city":"さいたま市中央区","town":"新都心","prefecture_code":11},{"zip_code":"3309797","prefecture":"埼玉県","city":"さいたま市中央区","town":"新都心","prefecture_code":11}],"9111":{"zip_code":"3309111","prefecture":"埼玉県","city":"さいたま市中央区","town":"新都心","prefecture_code":11},"9109":{"zip_code":"3309109","prefecture":"埼玉県","city":"さいたま市中央区","town":"新都心","prefecture_code":11},"9715":{"zip_code":"3309715","prefecture":"埼玉県","city":"さいたま市中央区","town":"新都心","prefecture_code":11},"9796":{"zip_code":"3309796","prefecture":"埼玉県","city":"さいたま市中央区","town":"新都心","prefecture_code":11},"8777":{"zip_code":"3308777","prefecture":"埼玉県","city":"さいたま市中央区","town":"新都心","prefecture_code":11},"8553":{"zip_code":"3308553","prefecture":"埼玉県","city":"さいたま市中央区","town":"新都心","prefecture_code":11},"9731":{"zip_code":"3309731","prefecture":"埼玉県","city":"さいたま市中央区","town":"新都心","prefecture_code":11},"8510":{"zip_code":"3308510","prefecture":"埼玉県","city":"さいたま市中央区","town":"新都心","prefecture_code":11},"8710":{"zip_code":"3308710","prefecture":"埼玉県","city":"さいたま市浦和区","town":"東岸町","prefecture_code":11},"8580":{"zip_code":"3308580","prefecture":"埼玉県","city":"さいたま市浦和区","town":"北浦和","prefecture_code":11},"9045":{"zip_code":"3309045","prefecture":"埼玉県","city":"さいたま市浦和区","town":"針ヶ谷","prefecture_code":11},"9303":{"zip_code":"3309303","prefecture":"埼玉県","city":"さいたま市浦和区","town":"高砂","prefecture_code":11},"8671":{"zip_code":"3308671","prefecture":"埼玉県","city":"さいたま市浦和区","town":"上木崎","prefecture_code":11},"8571":{"zip_code":"3308571","prefecture":"埼玉県","city":"さいたま市浦和区","town":"岸町","prefecture_code":11},"9310":{"zip_code":"3309310","prefecture":"埼玉県","city":"さいたま市浦和区","town":"常盤","prefecture_code":11},"9507":{"zip_code":"3309507","prefecture":"埼玉県","city":"さいたま市浦和区","town":"北浦和","prefecture_code":11},"9611":{"zip_code":"3309611","prefecture":"埼玉県","city":"さいたま市浦和区","town":"高砂","prefecture_code":11},"8519":{"zip_code":"3308519","prefecture":"埼玉県","city":"さいたま市浦和区","town":"高砂","prefecture_code":11},"9586":{"zip_code":"3309586","prefecture":"埼玉県","city":"さいたま市浦和区","town":"常盤","prefecture_code":11},"8572":{"zip_code":"3308572","prefecture":"埼玉県","city":"さいたま市浦和区","town":"高砂","prefecture_code":11},"8579":{"zip_code":"3308579","prefecture":"埼玉県","city":"さいたま市浦和区","town":"常盤","prefecture_code":11},"8538":{"zip_code":"3308538","prefecture":"埼玉県","city":"さいたま市浦和区","town":"常盤","prefecture_code":11},"8585":{"zip_code":"3308585","prefecture":"埼玉県","city":"さいたま市浦和区","town":"岸町","prefecture_code":11},"9377":{"zip_code":"3309377","prefecture":"埼玉県","city":"さいたま市浦和区","town":"高砂","prefecture_code":11},"8518":{"zip_code":"3308518","prefecture":"埼玉県","city":"さいたま市浦和区","town":"高砂","prefecture_code":11},"9301":{"zip_code":"3309301","prefecture":"埼玉県","city":"さいたま市浦和区","town":"高砂","prefecture_code":11},"8533":{"zip_code":"3308533","prefecture":"埼玉県","city":"さいたま市浦和区","town":"高砂","prefecture_code":11},"9511":{"zip_code":"3309511","prefecture":"埼玉県","city":"さいたま市浦和区","town":"領家","prefecture_code":11},"9330":{"zip_code":"3309330","prefecture":"埼玉県","city":"さいたま市浦和区","town":"領家","prefecture_code":11},"9588":{"zip_code":"3309588","prefecture":"埼玉県","city":"さいたま市浦和区","town":"常盤","prefecture_code":11},"9688":{"zip_code":"3309688","prefecture":"埼玉県","city":"さいたま市浦和区","town":"高砂","prefecture_code":11},"8566":{"zip_code":"3308566","prefecture":"埼玉県","city":"さいたま市浦和区","town":"仲町","prefecture_code":11},"9550":{"zip_code":"3309550","prefecture":"埼玉県","city":"さいたま市浦和区","town":"岸町","prefecture_code":11},"8551":{"zip_code":"3308551","prefecture":"埼玉県","city":"さいたま市浦和区","town":"常盤","prefecture_code":11},"8565":{"zip_code":"3308565","prefecture":"埼玉県","city":"さいたま市浦和区","town":"針ケ谷","prefecture_code":11},"8529":{"zip_code":"3308529","prefecture":"埼玉県","city":"さいたま市浦和区","town":"針ケ谷","prefecture_code":11},"8522":{"zip_code":"3308522","prefecture":"埼玉県","city":"さいたま市浦和区","town":"大原","prefecture_code":11},"8532":{"zip_code":"3308532","prefecture":"埼玉県","city":"さいたま市浦和区","town":"針ヶ谷","prefecture_code":11},"9850":{"zip_code":"3309850","prefecture":"埼玉県","city":"さいたま市浦和区","town":"針ヶ谷","prefecture_code":11},"9311":{"zip_code":"3309311","prefecture":"埼玉県","city":"さいたま市浦和区","town":"上木崎","prefecture_code":11},"9666":{"zip_code":"3309666","prefecture":"埼玉県","city":"さいたま市浦和区","town":"針ヶ谷","prefecture_code":11}}