{"0000":{"zip_code":"3320000","prefecture":"埼玉県","prefecture_kana":"サイタマケン","city":"川口市","city_kana":"カワグチシ","town":"","town_kana":"","prefecture_code":11},"0031":{"zip_code":"3320031","prefecture":"埼玉県","prefecture_kana":"サイタマケン","city":"川口市","city_kana":"カワグチシ","town":"青木","town_kana":"アオキ","prefecture_code":11},"0001":{"zip_code":"3320001","prefecture":"埼玉県","prefecture_kana":"サイタマケン","city":"川口市","city_kana":"カワグチシ","town":"朝日","town_kana":"アサヒ","prefecture_code":11},"0005":{"zip_code":"3320005","prefecture":"埼玉県","prefecture_kana":"サイタマケン","city":"川口市","city_kana":"カワグチシ","town":"新井町","town_kana":"アライチョウ","prefecture_code":11},"0029":{"zip_code":"3320029","prefecture":"埼玉県","prefecture_kana":"サイタマケン","city":"川口市","city_kana":"カワグチシ","town":"荒川町","town_kana":"アラカワチョウ","prefecture_code":11},"0023":{"zip_code":"3320023","prefecture":"埼玉県","prefecture_kana":"サイタマケン","city":"川口市","city_kana":"カワグチシ","town":"飯塚","town_kana":"イイヅカ","prefecture_code":11},"0024":{"zip_code":"3320024","prefecture":"埼玉県","prefecture_kana":"サイタマケン","city":"川口市","city_kana":"カワグチシ","town":"飯原町","town_kana":"イイハラチョウ","prefecture_code":11},"0014":{"zip_code":"3320014","prefecture":"埼玉県","prefecture_kana":"サイタマケン","city":"川口市","city_kana":"カワグチシ","town":"金山町","town_kana":"カナヤマチョウ","prefecture_code":11},"0015":{"zip_code":"3320015","prefecture":"埼玉県","prefecture_kana":"サイタマケン","city":"川口市","city_kana":"カワグチシ","town":"川口","town_kana":"カワグチ","prefecture_code":11},"0007":{"zip_code":"3320007","prefecture":"埼玉県","prefecture_kana":"サイタマケン","city":"川口市","city_kana":"カワグチシ","town":"河原町","town_kana":"カワハラチョウ","prefecture_code":11},"0016":{"zip_code":"3320016","prefecture":"埼玉県","prefecture_kana":"サイタマケン","city":"川口市","city_kana":"カワグチシ","town":"幸町","town_kana":"サイワイチョウ","prefecture_code":11},"0017":{"zip_code":"3320017","prefecture":"埼玉県","prefecture_kana":"サイタマケン","city":"川口市","city_kana":"カワグチシ","town":"栄町","town_kana":"サカエチョウ","prefecture_code":11},"0006":{"zip_code":"3320006","prefecture":"埼玉県","prefecture_kana":"サイタマケン","city":"川口市","city_kana":"カワグチシ","town":"末広","town_kana":"スエヒロ","prefecture_code":11},"0032":{"zip_code":"3320032","prefecture":"埼玉県","prefecture_kana":"サイタマケン","city":"川口市","city_kana":"カワグチシ","town":"中青木","town_kana":"ナカアオキ","prefecture_code":11},"0022":{"zip_code":"3320022","prefecture":"埼玉県","prefecture_kana":"サイタマケン","city":"川口市","city_kana":"カワグチシ","town":"仲町","town_kana":"ナカチョウ","prefecture_code":11},"0034":{"zip_code":"3320034","prefecture":"埼玉県","prefecture_kana":"サイタマケン","city":"川口市","city_kana":"カワグチシ","town":"並木","town_kana":"ナミキ","prefecture_code":11},"0033":{"zip_code":"3320033","prefecture":"埼玉県","prefecture_kana":"サイタマケン","city":"川口市","city_kana":"カワグチシ","town":"並木元町","town_kana":"ナミキモトマチ","prefecture_code":11},"0035":{"zip_code":"3320035","prefecture":"埼玉県","prefecture_kana":"サイタマケン","city":"川口市","city_kana":"カワグチシ","town":"西青木","town_kana":"ニシアオキ","prefecture_code":11},"0021":{"zip_code":"3320021","prefecture":"埼玉県","prefecture_kana":"サイタマケン","city":"川口市","city_kana":"カワグチシ","town":"西川口","town_kana":"ニシカワグチ","prefecture_code":11},"0025":{"zip_code":"3320025","prefecture":"埼玉県","prefecture_kana":"サイタマケン","city":"川口市","city_kana":"カワグチシ","town":"原町","town_kana":"ハラマチ","prefecture_code":11},"0003":{"zip_code":"3320003","prefecture":"埼玉県","prefecture_kana":"サイタマケン","city":"川口市","city_kana":"カワグチシ","town":"東領家","town_kana":"ヒガシリョウケ","prefecture_code":11},"0013":{"zip_code":"3320013","prefecture":"埼玉県","prefecture_kana":"サイタマケン","city":"川口市","city_kana":"カワグチシ","town":"舟戸町","town_kana":"フナトチョウ","prefecture_code":11},"0012":{"zip_code":"3320012","prefecture":"埼玉県","prefecture_kana":"サイタマケン","city":"川口市","city_kana":"カワグチシ","town":"本町","town_kana":"ホンチョウ","prefecture_code":11},"0027":{"zip_code":"3320027","prefecture":"埼玉県","prefecture_kana":"サイタマケン","city":"川口市","city_kana":"カワグチシ","town":"緑町","town_kana":"ミドリチョウ","prefecture_code":11},"0026":{"zip_code":"3320026","prefecture":"埼玉県","prefecture_kana":"サイタマケン","city":"川口市","city_kana":"カワグチシ","town":"南町","town_kana":"ミナミチョウ","prefecture_code":11},"0028":{"zip_code":"3320028","prefecture":"埼玉県","prefecture_kana":"サイタマケン","city":"川口市","city_kana":"カワグチシ","town":"宮町","town_kana":"ミヤチョウ","prefecture_code":11},"0011":{"zip_code":"3320011","prefecture":"埼玉県","prefecture_kana":"サイタマケン","city":"川口市","city_kana":"カワグチシ","town":"元郷","town_kana":"モトゴウ","prefecture_code":11},"0002":{"zip_code":"3320002","prefecture":"埼玉県","prefecture_kana":"サイタマケン","city":"川口市","city_kana":"カワグチシ","town":"弥平","town_kana":"ヤヘイ","prefecture_code":11},"0004":{"zip_code":"3320004","prefecture":"埼玉県","prefecture_kana":"サイタマケン","city":"川口市","city_kana":"カワグチシ","town":"領家","town_kana":"リョウケ","prefecture_code":11},"8548":{"zip_code":"3328548","prefecture":"埼玉県","city":"川口市","town":"本町","prefecture_code":11},"8521":{"zip_code":"3328521","prefecture":"埼玉県","city":"川口市","town":"栄町","prefecture_code":11},"8555":{"zip_code":"3328555","prefecture":"埼玉県","city":"川口市","town":"西青木","prefecture_code":11},"8502":{"zip_code":"3328502","prefecture":"埼玉県","city":"川口市","town":"宮町","prefecture_code":11},"8601":{"zip_code":"3328601","prefecture":"埼玉県","city":"川口市","town":"青木","prefecture_code":11},"8686":{"zip_code":"3328686","prefecture":"埼玉県","city":"川口市","town":"栄町","prefecture_code":11},"8501":{"zip_code":"3328501","prefecture":"埼玉県","city":"川口市","town":"青木","prefecture_code":11},"8666":{"zip_code":"3328666","prefecture":"埼玉県","city":"川口市","town":"青木","prefecture_code":11},"8533":{"zip_code":"3328533","prefecture":"埼玉県","city":"川口市","town":"領家","prefecture_code":11},"8585":{"zip_code":"3328585","prefecture":"埼玉県","city":"川口市","town":"本町","prefecture_code":11},"8558":{"zip_code":"3328558","prefecture":"埼玉県","city":"川口市","town":"西川口","prefecture_code":11},"8511":{"zip_code":"3328511","prefecture":"埼玉県","city":"川口市","town":"栄町","prefecture_code":11},"8512":{"zip_code":"3328512","prefecture":"埼玉県","city":"川口市","town":"末広","prefecture_code":11},"8577":{"zip_code":"3328577","prefecture":"埼玉県","city":"川口市","town":"栄町","prefecture_code":11},"8654":{"zip_code":"3328654","prefecture":"埼玉県","city":"川口市","town":"西川口","prefecture_code":11},"8556":{"zip_code":"3328556","prefecture":"埼玉県","city":"川口市","town":"仲町","prefecture_code":11}}