{"0000":[{"zip_code":"3350000","prefecture":"埼玉県","prefecture_kana":"サイタマケン","city":"蕨市","city_kana":"ワラビシ","town":"","town_kana":"","prefecture_code":11},{"zip_code":"3350000","prefecture":"埼玉県","prefecture_kana":"サイタマケン","city":"戸田市","city_kana":"トダシ","town":"","town_kana":"","prefecture_code":11}],"0001":{"zip_code":"3350001","prefecture":"埼玉県","prefecture_kana":"サイタマケン","city":"蕨市","city_kana":"ワラビシ","town":"北町","town_kana":"キタマチ","prefecture_code":11},"0004":{"zip_code":"3350004","prefecture":"埼玉県","prefecture_kana":"サイタマケン","city":"蕨市","city_kana":"ワラビシ","town":"中央","town_kana":"チュウオウ","prefecture_code":11},"0002":{"zip_code":"3350002","prefecture":"埼玉県","prefecture_kana":"サイタマケン","city":"蕨市","city_kana":"ワラビシ","town":"塚越","town_kana":"ツカゴシ","prefecture_code":11},"0005":{"zip_code":"3350005","prefecture":"埼玉県","prefecture_kana":"サイタマケン","city":"蕨市","city_kana":"ワラビシ","town":"錦町","town_kana":"ニシキチョウ","prefecture_code":11},"0003":{"zip_code":"3350003","prefecture":"埼玉県","prefecture_kana":"サイタマケン","city":"蕨市","city_kana":"ワラビシ","town":"南町","town_kana":"ミナミチョウ","prefecture_code":11},"0022":{"zip_code":"3350022","prefecture":"埼玉県","prefecture_kana":"サイタマケン","city":"戸田市","city_kana":"トダシ","town":"上戸田","town_kana":"カミトダ","prefecture_code":11},"0015":{"zip_code":"3350015","prefecture":"埼玉県","prefecture_kana":"サイタマケン","city":"戸田市","city_kana":"トダシ","town":"川岸","town_kana":"カワギシ","prefecture_code":11},"0013":{"zip_code":"3350013","prefecture":"埼玉県","prefecture_kana":"サイタマケン","city":"戸田市","city_kana":"トダシ","town":"喜沢","town_kana":"キザワ","prefecture_code":11},"0014":{"zip_code":"3350014","prefecture":"埼玉県","prefecture_kana":"サイタマケン","city":"戸田市","city_kana":"トダシ","town":"喜沢南","town_kana":"キザワミナミ","prefecture_code":11},"0034":{"zip_code":"3350034","prefecture":"埼玉県","prefecture_kana":"サイタマケン","city":"戸田市","city_kana":"トダシ","town":"笹目","town_kana":"ササメ","prefecture_code":11},"0035":{"zip_code":"3350035","prefecture":"埼玉県","prefecture_kana":"サイタマケン","city":"戸田市","city_kana":"トダシ","town":"笹目南町","town_kana":"ササメミナミチョウ","prefecture_code":11},"0033":{"zip_code":"3350033","prefecture":"埼玉県","prefecture_kana":"サイタマケン","city":"戸田市","city_kana":"トダシ","town":"笹目北町","town_kana":"ササメキタチョウ","prefecture_code":11},"0037":{"zip_code":"3350037","prefecture":"埼玉県","prefecture_kana":"サイタマケン","city":"戸田市","city_kana":"トダシ","town":"下笹目","town_kana":"シモササメ","prefecture_code":11},"0011":{"zip_code":"3350011","prefecture":"埼玉県","prefecture_kana":"サイタマケン","city":"戸田市","city_kana":"トダシ","town":"下戸田","town_kana":"シモトダ","prefecture_code":11},"0016":{"zip_code":"3350016","prefecture":"埼玉県","prefecture_kana":"サイタマケン","city":"戸田市","city_kana":"トダシ","town":"下前","town_kana":"シモマエ","prefecture_code":11},"0024":{"zip_code":"3350024","prefecture":"埼玉県","prefecture_kana":"サイタマケン","city":"戸田市","city_kana":"トダシ","town":"戸田公園","town_kana":"トダコウエン","prefecture_code":11},"0012":{"zip_code":"3350012","prefecture":"埼玉県","prefecture_kana":"サイタマケン","city":"戸田市","city_kana":"トダシ","town":"中町","town_kana":"ナカチョウ","prefecture_code":11},"0021":{"zip_code":"3350021","prefecture":"埼玉県","prefecture_kana":"サイタマケン","city":"戸田市","city_kana":"トダシ","town":"新曽","town_kana":"ニイゾ","prefecture_code":11},"0026":{"zip_code":"3350026","prefecture":"埼玉県","prefecture_kana":"サイタマケン","city":"戸田市","city_kana":"トダシ","town":"新曽南","town_kana":"ニイゾミナミ","prefecture_code":11},"0036":{"zip_code":"3350036","prefecture":"埼玉県","prefecture_kana":"サイタマケン","city":"戸田市","city_kana":"トダシ","town":"早瀬","town_kana":"ハヤセ","prefecture_code":11},"0027":{"zip_code":"3350027","prefecture":"埼玉県","prefecture_kana":"サイタマケン","city":"戸田市","city_kana":"トダシ","town":"氷川町","town_kana":"ヒカワチョウ","prefecture_code":11},"0031":{"zip_code":"3350031","prefecture":"埼玉県","prefecture_kana":"サイタマケン","city":"戸田市","city_kana":"トダシ","town":"美女木","town_kana":"ビジョギ","prefecture_code":11},"0032":{"zip_code":"3350032","prefecture":"埼玉県","prefecture_kana":"サイタマケン","city":"戸田市","city_kana":"トダシ","town":"美女木東","town_kana":"ビジョギヒガシ","prefecture_code":11},"0023":{"zip_code":"3350023","prefecture":"埼玉県","prefecture_kana":"サイタマケン","city":"戸田市","city_kana":"トダシ","town":"本町","town_kana":"ホンチョウ","prefecture_code":11},"0025":{"zip_code":"3350025","prefecture":"埼玉県","prefecture_kana":"サイタマケン","city":"戸田市","city_kana":"トダシ","town":"南町","town_kana":"ミナミチョウ","prefecture_code":11},"8510":{"zip_code":"3358510","prefecture":"埼玉県","city":"蕨市","town":"中央","prefecture_code":11},"8533":{"zip_code":"3358533","prefecture":"埼玉県","city":"蕨市","town":"錦町","prefecture_code":11},"8501":{"zip_code":"3358501","prefecture":"埼玉県","city":"蕨市","town":"中央","prefecture_code":11},"8655":{"zip_code":"3358655","prefecture":"埼玉県","city":"蕨市","town":"中央","prefecture_code":11},"8666":{"zip_code":"3358666","prefecture":"埼玉県","city":"戸田市","town":"本町","prefecture_code":11},"8585":{"zip_code":"3358585","prefecture":"埼玉県","city":"戸田市","town":"新曽南","prefecture_code":11},"8522":{"zip_code":"3358522","prefecture":"埼玉県","city":"戸田市","town":"上戸田","prefecture_code":11},"8558":{"zip_code":"3358558","prefecture":"埼玉県","city":"戸田市","town":"早瀬","prefecture_code":11},"8502":{"zip_code":"3358502","prefecture":"埼玉県","city":"戸田市","town":"新曽南","prefecture_code":11},"8505":{"zip_code":"3358505","prefecture":"埼玉県","city":"戸田市","town":"川岸","prefecture_code":11},"8588":{"zip_code":"3358588","prefecture":"埼玉県","city":"戸田市","town":"上戸田","prefecture_code":11},"8555":{"zip_code":"3358555","prefecture":"埼玉県","city":"戸田市","town":"本町","prefecture_code":11},"8792":{"zip_code":"3358792","prefecture":"埼玉県","city":"戸田市","town":"美女木東","prefecture_code":11}}