{"0812":{"zip_code":"3900812","prefecture":"長野県","prefecture_kana":"ナガノケン","city":"松本市","city_kana":"マツモトシ","town":"県","town_kana":"アガタ","prefecture_code":20},"0802":{"zip_code":"3900802","prefecture":"長野県","prefecture_kana":"ナガノケン","city":"松本市","city_kana":"マツモトシ","town":"旭","town_kana":"アサヒ","prefecture_code":20},"0303":{"zip_code":"3900303","prefecture":"長野県","prefecture_kana":"ナガノケン","city":"松本市","city_kana":"マツモトシ","town":"浅間温泉","town_kana":"アサマオンセン","prefecture_code":20},"1702":{"zip_code":"3901702","prefecture":"長野県","prefecture_kana":"ナガノケン","city":"松本市","city_kana":"マツモトシ","town":"梓川梓","town_kana":"アズサガワアズサ","prefecture_code":20},"1703":{"zip_code":"3901703","prefecture":"長野県","prefecture_kana":"ナガノケン","city":"松本市","city_kana":"マツモトシ","town":"梓川上野","town_kana":"アズサガワウエノ","prefecture_code":20},"1701":{"zip_code":"3901701","prefecture":"長野県","prefecture_kana":"ナガノケン","city":"松本市","city_kana":"マツモトシ","town":"梓川倭","town_kana":"アズサガワヤマト","prefecture_code":20},"1504":[{"zip_code":"3901504","prefecture":"長野県","prefecture_kana":"ナガノケン","city":"松本市","city_kana":"マツモトシ","town":"安曇","town_kana":"アヅミ","prefecture_code":20},{"zip_code":"3901504","prefecture":"長野県","prefecture_kana":"ナガノケン","city":"松本市","city_kana":"マツモトシ","town":"安曇稲核","town_kana":"アヅミイネコキ","prefecture_code":20}],"1501":[{"zip_code":"3901501","prefecture":"長野県","prefecture_kana":"ナガノケン","city":"松本市","city_kana":"マツモトシ","town":"安曇","town_kana":"アヅミ","prefecture_code":20},{"zip_code":"3901501","prefecture":"長野県","prefecture_kana":"ナガノケン","city":"松本市","city_kana":"マツモトシ","town":"安曇大野田","town_kana":"アヅミオオノタ","prefecture_code":20}],"1516":[{"zip_code":"3901516","prefecture":"長野県","prefecture_kana":"ナガノケン","city":"松本市","city_kana":"マツモトシ","town":"安曇","town_kana":"アヅミ","prefecture_code":20},{"zip_code":"3901516","prefecture":"長野県","prefecture_kana":"ナガノケン","city":"松本市","city_kana":"マツモトシ","town":"安曇上高地","town_kana":"アヅミカミコウチ","prefecture_code":20}],"1514":[{"zip_code":"3901514","prefecture":"長野県","prefecture_kana":"ナガノケン","city":"松本市","city_kana":"マツモトシ","town":"安曇","town_kana":"アヅミ","prefecture_code":20},{"zip_code":"3901514","prefecture":"長野県","prefecture_kana":"ナガノケン","city":"松本市","city_kana":"マツモトシ","town":"安曇沢渡","town_kana":"アヅミサワンド","prefecture_code":20}],"1502":[{"zip_code":"3901502","prefecture":"長野県","prefecture_kana":"ナガノケン","city":"松本市","city_kana":"マツモトシ","town":"安曇","town_kana":"アヅミ","prefecture_code":20},{"zip_code":"3901502","prefecture":"長野県","prefecture_kana":"ナガノケン","city":"松本市","city_kana":"マツモトシ","town":"安曇島々","town_kana":"アヅミシマシマ","prefecture_code":20}],"1515":[{"zip_code":"3901515","prefecture":"長野県","prefecture_kana":"ナガノケン","city":"松本市","city_kana":"マツモトシ","town":"安曇","town_kana":"アヅミ","prefecture_code":20},{"zip_code":"3901515","prefecture":"長野県","prefecture_kana":"ナガノケン","city":"松本市","city_kana":"マツモトシ","town":"安曇白骨","town_kana":"アヅミシラホネ","prefecture_code":20}],"1513":[{"zip_code":"3901513","prefecture":"長野県","prefecture_kana":"ナガノケン","city":"松本市","city_kana":"マツモトシ","town":"安曇","town_kana":"アヅミ","prefecture_code":20},{"zip_code":"3901513","prefecture":"長野県","prefecture_kana":"ナガノケン","city":"松本市","city_kana":"マツモトシ","town":"安曇鈴蘭","town_kana":"アヅミスズラン","prefecture_code":20}],"1511":[{"zip_code":"3901511","prefecture":"長野県","prefecture_kana":"ナガノケン","city":"松本市","city_kana":"マツモトシ","town":"安曇","town_kana":"アヅミ","prefecture_code":20},{"zip_code":"3901511","prefecture":"長野県","prefecture_kana":"ナガノケン","city":"松本市","city_kana":"マツモトシ","town":"安曇千石平","town_kana":"アヅミセンゴクダイラ","prefecture_code":20}],"1512":[{"zip_code":"3901512","prefecture":"長野県","prefecture_kana":"ナガノケン","city":"松本市","city_kana":"マツモトシ","town":"安曇","town_kana":"アヅミ","prefecture_code":20},{"zip_code":"3901512","prefecture":"長野県","prefecture_kana":"ナガノケン","city":"松本市","city_kana":"マツモトシ","town":"安曇楢ノ木","town_kana":"アヅミナラノキ","prefecture_code":20}],"1503":[{"zip_code":"3901503","prefecture":"長野県","prefecture_kana":"ナガノケン","city":"松本市","city_kana":"マツモトシ","town":"安曇","town_kana":"アヅミ","prefecture_code":20},{"zip_code":"3901503","prefecture":"長野県","prefecture_kana":"ナガノケン","city":"松本市","city_kana":"マツモトシ","town":"安曇橋場","town_kana":"アヅミハシバ","prefecture_code":20}],"1506":[{"zip_code":"3901506","prefecture":"長野県","prefecture_kana":"ナガノケン","city":"松本市","city_kana":"マツモトシ","town":"安曇","town_kana":"アヅミ","prefecture_code":20},{"zip_code":"3901506","prefecture":"長野県","prefecture_kana":"ナガノケン","city":"松本市","city_kana":"マツモトシ","town":"安曇番所","town_kana":"アヅミバンドコロ","prefecture_code":20}],"1507":[{"zip_code":"3901507","prefecture":"長野県","prefecture_kana":"ナガノケン","city":"松本市","city_kana":"マツモトシ","town":"安曇","town_kana":"アヅミ","prefecture_code":20},{"zip_code":"3901507","prefecture":"長野県","prefecture_kana":"ナガノケン","city":"松本市","city_kana":"マツモトシ","town":"安曇宮の原","town_kana":"アヅミミヤノハラ","prefecture_code":20}],"1520":{"zip_code":"3901520","prefecture":"長野県","prefecture_kana":"ナガノケン","city":"松本市","city_kana":"マツモトシ","town":"安曇","town_kana":"アヅミ","prefecture_code":20},"0861":{"zip_code":"3900861","prefecture":"長野県","prefecture_kana":"ナガノケン","city":"松本市","city_kana":"マツモトシ","town":"蟻ケ崎","town_kana":"アリガサキ","prefecture_code":20},"0867":{"zip_code":"3900867","prefecture":"長野県","prefecture_kana":"ナガノケン","city":"松本市","city_kana":"マツモトシ","town":"蟻ケ崎台","town_kana":"アリガサキダイ","prefecture_code":20},"0831":{"zip_code":"3900831","prefecture":"長野県","prefecture_kana":"ナガノケン","city":"松本市","city_kana":"マツモトシ","town":"井川城","town_kana":"イガワジョウ","prefecture_code":20},"0845":{"zip_code":"3900845","prefecture":"長野県","prefecture_kana":"ナガノケン","city":"松本市","city_kana":"マツモトシ","town":"石芝","town_kana":"イシシバ","prefecture_code":20},"0827":{"zip_code":"3900827","prefecture":"長野県","prefecture_kana":"ナガノケン","city":"松本市","city_kana":"マツモトシ","town":"出川","town_kana":"イデガワ","prefecture_code":20},"0826":{"zip_code":"3900826","prefecture":"長野県","prefecture_kana":"ナガノケン","city":"松本市","city_kana":"マツモトシ","town":"出川町","town_kana":"イデガワマチ","prefecture_code":20},"1131":{"zip_code":"3901131","prefecture":"長野県","prefecture_kana":"ナガノケン","city":"松本市","city_kana":"マツモトシ","town":"今井","town_kana":"イマイ","prefecture_code":20},"0222":{"zip_code":"3900222","prefecture":"長野県","prefecture_kana":"ナガノケン","city":"松本市","city_kana":"マツモトシ","town":"入山辺","town_kana":"イリヤマベ","prefecture_code":20},"0813":{"zip_code":"3900813","prefecture":"長野県","prefecture_kana":"ナガノケン","city":"松本市","city_kana":"マツモトシ","town":"埋橋","town_kana":"ウズハシ","prefecture_code":20},"0874":{"zip_code":"3900874","prefecture":"長野県","prefecture_kana":"ナガノケン","city":"松本市","city_kana":"マツモトシ","town":"大手","town_kana":"オオテ","prefecture_code":20},"0304":{"zip_code":"3900304","prefecture":"長野県","prefecture_kana":"ナガノケン","city":"松本市","city_kana":"マツモトシ","town":"大村","town_kana":"オオムラ","prefecture_code":20},"0314":{"zip_code":"3900314","prefecture":"長野県","prefecture_kana":"ナガノケン","city":"松本市","city_kana":"マツモトシ","town":"岡田伊深","town_kana":"オカダイブカ","prefecture_code":20},"0313":{"zip_code":"3900313","prefecture":"長野県","prefecture_kana":"ナガノケン","city":"松本市","city_kana":"マツモトシ","town":"岡田下岡田","town_kana":"オカダシモオカダ","prefecture_code":20},"0315":{"zip_code":"3900315","prefecture":"長野県","prefecture_kana":"ナガノケン","city":"松本市","city_kana":"マツモトシ","town":"岡田町","town_kana":"オカダマチ","prefecture_code":20},"0312":{"zip_code":"3900312","prefecture":"長野県","prefecture_kana":"ナガノケン","city":"松本市","city_kana":"マツモトシ","town":"岡田松岡","town_kana":"オカダマツオカ","prefecture_code":20},"0876":{"zip_code":"3900876","prefecture":"長野県","prefecture_kana":"ナガノケン","city":"松本市","city_kana":"マツモトシ","town":"開智","town_kana":"カイチ","prefecture_code":20},"0837":{"zip_code":"3900837","prefecture":"長野県","prefecture_kana":"ナガノケン","city":"松本市","city_kana":"マツモトシ","town":"鎌田","town_kana":"カマダ","prefecture_code":20},"0822":{"zip_code":"3900822","prefecture":"長野県","prefecture_kana":"ナガノケン","city":"松本市","city_kana":"マツモトシ","town":"神田","town_kana":"カンダ","prefecture_code":20},"1243":{"zip_code":"3901243","prefecture":"長野県","prefecture_kana":"ナガノケン","city":"松本市","city_kana":"マツモトシ","town":"神林","town_kana":"カンバヤシ","prefecture_code":20},"0872":{"zip_code":"3900872","prefecture":"長野県","prefecture_kana":"ナガノケン","city":"松本市","city_kana":"マツモトシ","town":"北深志","town_kana":"キタフカシ","prefecture_code":20},"0871":{"zip_code":"3900871","prefecture":"長野県","prefecture_kana":"ナガノケン","city":"松本市","city_kana":"マツモトシ","town":"桐","town_kana":"キリ","prefecture_code":20},"1132":{"zip_code":"3901132","prefecture":"長野県","prefecture_kana":"ナガノケン","city":"松本市","city_kana":"マツモトシ","town":"空港東","town_kana":"クウコウヒガシ","prefecture_code":20},"0847":{"zip_code":"3900847","prefecture":"長野県","prefecture_kana":"ナガノケン","city":"松本市","city_kana":"マツモトシ","town":"笹部","town_kana":"ササベ","prefecture_code":20},"0221":{"zip_code":"3900221","prefecture":"長野県","prefecture_kana":"ナガノケン","city":"松本市","city_kana":"マツモトシ","town":"里山辺","town_kana":"サトヤマベ","prefecture_code":20},"0877":{"zip_code":"3900877","prefecture":"長野県","prefecture_kana":"ナガノケン","city":"松本市","city_kana":"マツモトシ","town":"沢村","town_kana":"サワムラ","prefecture_code":20},"0301":{"zip_code":"3900301","prefecture":"長野県","prefecture_kana":"ナガノケン","city":"松本市","city_kana":"マツモトシ","town":"稲倉","town_kana":"シナグラ","prefecture_code":20},"0851":{"zip_code":"3900851","prefecture":"長野県","prefecture_kana":"ナガノケン","city":"松本市","city_kana":"マツモトシ","town":"島内","town_kana":"シマウチ","prefecture_code":20},"0852":{"zip_code":"3900852","prefecture":"長野県","prefecture_kana":"ナガノケン","city":"松本市","city_kana":"マツモトシ","town":"島立","town_kana":"シマダチ","prefecture_code":20},"0805":{"zip_code":"3900805","prefecture":"長野県","prefecture_kana":"ナガノケン","city":"松本市","city_kana":"マツモトシ","town":"清水","town_kana":"シミズ","prefecture_code":20},"0875":{"zip_code":"3900875","prefecture":"長野県","prefecture_kana":"ナガノケン","city":"松本市","city_kana":"マツモトシ","town":"城西","town_kana":"ジョウセイ","prefecture_code":20},"0807":{"zip_code":"3900807","prefecture":"長野県","prefecture_kana":"ナガノケン","city":"松本市","city_kana":"マツモトシ","town":"城東","town_kana":"ジョウトウ","prefecture_code":20},"0828":{"zip_code":"3900828","prefecture":"長野県","prefecture_kana":"ナガノケン","city":"松本市","city_kana":"マツモトシ","town":"庄内","town_kana":"ショウナイ","prefecture_code":20},"0866":{"zip_code":"3900866","prefecture":"長野県","prefecture_kana":"ナガノケン","city":"松本市","city_kana":"マツモトシ","town":"城山","town_kana":"ジョウヤマ","prefecture_code":20},"0863":{"zip_code":"3900863","prefecture":"長野県","prefecture_kana":"ナガノケン","city":"松本市","city_kana":"マツモトシ","town":"白板","town_kana":"シライタ","prefecture_code":20},"0865":{"zip_code":"3900865","prefecture":"長野県","prefecture_kana":"ナガノケン","city":"松本市","city_kana":"マツモトシ","town":"新橋","town_kana":"シンバシ","prefecture_code":20},"0305":{"zip_code":"3900305","prefecture":"長野県","prefecture_kana":"ナガノケン","city":"松本市","city_kana":"マツモトシ","town":"惣社","town_kana":"ソウザ","prefecture_code":20},"0842":{"zip_code":"3900842","prefecture":"長野県","prefecture_kana":"ナガノケン","city":"松本市","city_kana":"マツモトシ","town":"征矢野","town_kana":"ソヤノ","prefecture_code":20},"0834":{"zip_code":"3900834","prefecture":"長野県","prefecture_kana":"ナガノケン","city":"松本市","city_kana":"マツモトシ","town":"高宮中","town_kana":"タカミヤナカ","prefecture_code":20},"0835":{"zip_code":"3900835","prefecture":"長野県","prefecture_kana":"ナガノケン","city":"松本市","city_kana":"マツモトシ","town":"高宮東","town_kana":"タカミヤヒガシ","prefecture_code":20},"0844":{"zip_code":"3900844","prefecture":"長野県","prefecture_kana":"ナガノケン","city":"松本市","city_kana":"マツモトシ","town":"高宮西","town_kana":"タカミヤニシ","prefecture_code":20},"0843":{"zip_code":"3900843","prefecture":"長野県","prefecture_kana":"ナガノケン","city":"松本市","city_kana":"マツモトシ","town":"高宮南","town_kana":"タカミヤミナミ","prefecture_code":20},"0836":{"zip_code":"3900836","prefecture":"長野県","prefecture_kana":"ナガノケン","city":"松本市","city_kana":"マツモトシ","town":"高宮北","town_kana":"タカミヤキタ","prefecture_code":20},"0811":{"zip_code":"3900811","prefecture":"長野県","prefecture_kana":"ナガノケン","city":"松本市","city_kana":"マツモトシ","town":"中央","town_kana":"チュウオウ","prefecture_code":20},"0821":{"zip_code":"3900821","prefecture":"長野県","prefecture_kana":"ナガノケン","city":"松本市","city_kana":"マツモトシ","town":"筑摩","town_kana":"ツカマ","prefecture_code":20},"0816":{"zip_code":"3900816","prefecture":"長野県","prefecture_kana":"ナガノケン","city":"松本市","city_kana":"マツモトシ","town":"中条","town_kana":"ナカジョウ","prefecture_code":20},"0823":{"zip_code":"3900823","prefecture":"長野県","prefecture_kana":"ナガノケン","city":"松本市","city_kana":"マツモトシ","town":"中山","town_kana":"ナカヤマ","prefecture_code":20},"0824":{"zip_code":"3900824","prefecture":"長野県","prefecture_kana":"ナガノケン","city":"松本市","city_kana":"マツモトシ","town":"中山台","town_kana":"ナカヤマダイ","prefecture_code":20},"1611":{"zip_code":"3901611","prefecture":"長野県","prefecture_kana":"ナガノケン","city":"松本市","city_kana":"マツモトシ","town":"奈川","town_kana":"ナガワ","prefecture_code":20},"0841":{"zip_code":"3900841","prefecture":"長野県","prefecture_kana":"ナガノケン","city":"松本市","city_kana":"マツモトシ","town":"渚","town_kana":"ナギサ","prefecture_code":20},"0825":{"zip_code":"3900825","prefecture":"長野県","prefecture_kana":"ナガノケン","city":"松本市","city_kana":"マツモトシ","town":"並柳","town_kana":"ナミヤナギ","prefecture_code":20},"1241":{"zip_code":"3901241","prefecture":"長野県","prefecture_kana":"ナガノケン","city":"松本市","city_kana":"マツモトシ","town":"新村","town_kana":"ニイムラ","prefecture_code":20},"1401":{"zip_code":"3901401","prefecture":"長野県","prefecture_kana":"ナガノケン","city":"松本市","city_kana":"マツモトシ","town":"波田","town_kana":"ハタ","prefecture_code":20},"0817":{"zip_code":"3900817","prefecture":"長野県","prefecture_kana":"ナガノケン","city":"松本市","city_kana":"マツモトシ","town":"巾上","town_kana":"ハバウエ","prefecture_code":20},"0316":{"zip_code":"3900316","prefecture":"長野県","prefecture_kana":"ナガノケン","city":"松本市","city_kana":"マツモトシ","town":"原","town_kana":"ハラ","prefecture_code":20},"0815":{"zip_code":"3900815","prefecture":"長野県","prefecture_kana":"ナガノケン","city":"松本市","city_kana":"マツモトシ","town":"深志","town_kana":"フカシ","prefecture_code":20},"0833":{"zip_code":"3900833","prefecture":"長野県","prefecture_kana":"ナガノケン","city":"松本市","city_kana":"マツモトシ","town":"双葉","town_kana":"フタバ","prefecture_code":20},"0317":{"zip_code":"3900317","prefecture":"長野県","prefecture_kana":"ナガノケン","city":"松本市","city_kana":"マツモトシ","town":"洞","town_kana":"ホラ","prefecture_code":20},"0814":{"zip_code":"3900814","prefecture":"長野県","prefecture_kana":"ナガノケン","city":"松本市","city_kana":"マツモトシ","town":"本庄","town_kana":"ホンジョウ","prefecture_code":20},"0873":{"zip_code":"3900873","prefecture":"長野県","prefecture_kana":"ナガノケン","city":"松本市","city_kana":"マツモトシ","town":"丸の内","town_kana":"マルノウチ","prefecture_code":20},"0302":{"zip_code":"3900302","prefecture":"長野県","prefecture_kana":"ナガノケン","city":"松本市","city_kana":"マツモトシ","town":"三才山","town_kana":"ミサヤマ","prefecture_code":20},"0801":{"zip_code":"3900801","prefecture":"長野県","prefecture_kana":"ナガノケン","city":"松本市","city_kana":"マツモトシ","town":"美須々","town_kana":"ミスズ","prefecture_code":20},"0311":{"zip_code":"3900311","prefecture":"長野県","prefecture_kana":"ナガノケン","city":"松本市","city_kana":"マツモトシ","town":"水汲","town_kana":"ミズクマ","prefecture_code":20},"0306":{"zip_code":"3900306","prefecture":"長野県","prefecture_kana":"ナガノケン","city":"松本市","city_kana":"マツモトシ","town":"南浅間","town_kana":"ミナミアサマ","prefecture_code":20},"0846":{"zip_code":"3900846","prefecture":"長野県","prefecture_kana":"ナガノケン","city":"松本市","city_kana":"マツモトシ","town":"南原","town_kana":"ミナミハラ","prefecture_code":20},"0832":{"zip_code":"3900832","prefecture":"長野県","prefecture_kana":"ナガノケン","city":"松本市","city_kana":"マツモトシ","town":"南松本","town_kana":"ミナミマツモト","prefecture_code":20},"0862":{"zip_code":"3900862","prefecture":"長野県","prefecture_kana":"ナガノケン","city":"松本市","city_kana":"マツモトシ","town":"宮渕","town_kana":"ミヤブチ","prefecture_code":20},"0864":{"zip_code":"3900864","prefecture":"長野県","prefecture_kana":"ナガノケン","city":"松本市","city_kana":"マツモトシ","town":"宮渕本村","town_kana":"ミヤブチホンムラ","prefecture_code":20},"0806":{"zip_code":"3900806","prefecture":"長野県","prefecture_kana":"ナガノケン","city":"松本市","city_kana":"マツモトシ","town":"女鳥羽","town_kana":"メトバ","prefecture_code":20},"0803":{"zip_code":"3900803","prefecture":"長野県","prefecture_kana":"ナガノケン","city":"松本市","city_kana":"マツモトシ","town":"元町","town_kana":"モトマチ","prefecture_code":20},"0804":{"zip_code":"3900804","prefecture":"長野県","prefecture_kana":"ナガノケン","city":"松本市","city_kana":"マツモトシ","town":"横田","town_kana":"ヨコタ","prefecture_code":20},"0848":{"zip_code":"3900848","prefecture":"長野県","prefecture_kana":"ナガノケン","city":"松本市","city_kana":"マツモトシ","town":"両島","town_kana":"リョウシマ","prefecture_code":20},"1242":{"zip_code":"3901242","prefecture":"長野県","prefecture_kana":"ナガノケン","city":"松本市","city_kana":"マツモトシ","town":"和田","town_kana":"ワダ","prefecture_code":20},"1301":{"zip_code":"3901301","prefecture":"長野県","prefecture_kana":"ナガノケン","city":"東筑摩郡山形村","city_kana":"ヒガシチクマグンヤマガタムラ","town":"","town_kana":"","prefecture_code":20},"1100":{"zip_code":"3901100","prefecture":"長野県","prefecture_kana":"ナガノケン","city":"東筑摩郡朝日村","city_kana":"ヒガシチクマグンアサヒムラ","town":"","town_kana":"","prefecture_code":20},"1102":{"zip_code":"3901102","prefecture":"長野県","prefecture_kana":"ナガノケン","city":"東筑摩郡朝日村","city_kana":"ヒガシチクマグンアサヒムラ","town":"小野沢","town_kana":"オノザワ","prefecture_code":20},"1104":{"zip_code":"3901104","prefecture":"長野県","prefecture_kana":"ナガノケン","city":"東筑摩郡朝日村","city_kana":"ヒガシチクマグンアサヒムラ","town":"古見","town_kana":"コミ","prefecture_code":20},"1101":{"zip_code":"3901101","prefecture":"長野県","prefecture_kana":"ナガノケン","city":"東筑摩郡朝日村","city_kana":"ヒガシチクマグンアサヒムラ","town":"西洗馬","town_kana":"ニシセバ","prefecture_code":20},"1103":{"zip_code":"3901103","prefecture":"長野県","prefecture_kana":"ナガノケン","city":"東筑摩郡朝日村","city_kana":"ヒガシチクマグンアサヒムラ","town":"針尾","town_kana":"ハリオ","prefecture_code":20},"8518":{"zip_code":"3908518","prefecture":"長野県","city":"松本市","town":"井川城","prefecture_code":20},"8714":{"zip_code":"3908714","prefecture":"長野県","city":"松本市","town":"石芝","prefecture_code":20},"8565":{"zip_code":"3908565","prefecture":"長野県","city":"松本市","town":"深志","prefecture_code":20},"8601":{"zip_code":"3908601","prefecture":"長野県","city":"松本市","town":"渚","prefecture_code":20},"8703":{"zip_code":"3908703","prefecture":"長野県","city":"松本市","town":"大手","prefecture_code":20},"8502":{"zip_code":"3908502","prefecture":"長野県","city":"松本市","town":"深志","prefecture_code":20},"8550":{"zip_code":"3908550","prefecture":"長野県","city":"松本市","town":"筑摩","prefecture_code":20},"8501":{"zip_code":"3908501","prefecture":"長野県","city":"松本市","town":"本庄","prefecture_code":20},"8610":{"zip_code":"3908610","prefecture":"長野県","city":"松本市","town":"大字島内","prefecture_code":20},"8639":{"zip_code":"3908639","prefecture":"長野県","city":"松本市","town":"宮渕","prefecture_code":20},"8507":{"zip_code":"3908507","prefecture":"長野県","city":"松本市","town":"深志","prefecture_code":20},"8539":{"zip_code":"3908539","prefecture":"長野県","city":"松本市","town":"大字島立","prefecture_code":20},"8686":{"zip_code":"3908686","prefecture":"長野県","city":"松本市","town":"筑摩","prefecture_code":20},"8611":{"zip_code":"3908611","prefecture":"長野県","city":"松本市","town":"丸の内","prefecture_code":20},"8630":{"zip_code":"3908630","prefecture":"長野県","city":"松本市","town":"大字島内","prefecture_code":20},"8623":{"zip_code":"3908623","prefecture":"長野県","city":"松本市","town":"南松本","prefecture_code":20},"8535":{"zip_code":"3908535","prefecture":"長野県","city":"松本市","town":"中央","prefecture_code":20},"8648":{"zip_code":"3908648","prefecture":"長野県","city":"松本市","town":"城西","prefecture_code":20},"8511":{"zip_code":"3908511","prefecture":"長野県","city":"松本市","town":"深志","prefecture_code":20},"8530":{"zip_code":"3908530","prefecture":"長野県","city":"松本市","town":"庄内","prefecture_code":20},"8621":{"zip_code":"3908621","prefecture":"長野県","city":"松本市","town":"旭","prefecture_code":20},"8707":{"zip_code":"3908707","prefecture":"長野県","city":"松本市","town":"深志","prefecture_code":20},"8506":{"zip_code":"3908506","prefecture":"長野県","city":"松本市","town":"埋橋","prefecture_code":20},"8540":{"zip_code":"3908540","prefecture":"長野県","city":"松本市","town":"渚","prefecture_code":20},"8510":{"zip_code":"3908510","prefecture":"長野県","city":"松本市","town":"本庄","prefecture_code":20},"8533":{"zip_code":"3908533","prefecture":"長野県","city":"松本市","town":"鎌田","prefecture_code":20},"8520":{"zip_code":"3908520","prefecture":"長野県","city":"松本市","town":"本庄","prefecture_code":20},"8531":{"zip_code":"3908531","prefecture":"長野県","city":"松本市","town":"大字島立","prefecture_code":20},"8543":{"zip_code":"3908543","prefecture":"長野県","city":"松本市","town":"県","prefecture_code":20},"8605":{"zip_code":"3908605","prefecture":"長野県","city":"松本市","town":"蟻ケ崎","prefecture_code":20},"8525":{"zip_code":"3908525","prefecture":"長野県","city":"松本市","town":"筑摩","prefecture_code":20},"8603":{"zip_code":"3908603","prefecture":"長野県","city":"松本市","town":"蟻ケ崎","prefecture_code":20},"8602":{"zip_code":"3908602","prefecture":"長野県","city":"松本市","town":"美須々","prefecture_code":20},"8712":{"zip_code":"3908712","prefecture":"長野県","city":"松本市","town":"丸の内","prefecture_code":20},"8541":{"zip_code":"3908541","prefecture":"長野県","city":"松本市","town":"県","prefecture_code":20},"8515":{"zip_code":"3908515","prefecture":"長野県","city":"松本市","town":"県","prefecture_code":20},"8711":{"zip_code":"3908711","prefecture":"長野県","city":"松本市","town":"渚","prefecture_code":20},"8505":{"zip_code":"3908505","prefecture":"長野県","city":"松本市","town":"巾上","prefecture_code":20},"8702":{"zip_code":"3908702","prefecture":"長野県","city":"松本市","town":"白板","prefecture_code":20},"8620":{"zip_code":"3908620","prefecture":"長野県","city":"松本市","town":"丸の内","prefecture_code":20},"8503":{"zip_code":"3908503","prefecture":"長野県","city":"松本市","town":"中央","prefecture_code":20},"8710":{"zip_code":"3908710","prefecture":"長野県","city":"松本市","town":"城西","prefecture_code":20},"8523":{"zip_code":"3908523","prefecture":"長野県","city":"松本市","town":"高宮北","prefecture_code":20},"8555":{"zip_code":"3908555","prefecture":"長野県","city":"松本市","town":"南松本","prefecture_code":20},"8508":{"zip_code":"3908508","prefecture":"長野県","city":"松本市","town":"高宮西","prefecture_code":20},"1189":{"zip_code":"3901189","prefecture":"長野県","city":"松本市","town":"大字今井","prefecture_code":20},"1183":{"zip_code":"3901183","prefecture":"長野県","city":"松本市","town":"大字今井","prefecture_code":20},"1181":{"zip_code":"3901181","prefecture":"長野県","city":"松本市","town":"大字今井","prefecture_code":20},"1187":{"zip_code":"3901187","prefecture":"長野県","city":"松本市","town":"大字今井","prefecture_code":20},"1186":{"zip_code":"3901186","prefecture":"長野県","city":"松本市","town":"大字今井","prefecture_code":20},"1198":{"zip_code":"3901198","prefecture":"長野県","city":"松本市","town":"大字今井","prefecture_code":20},"1185":{"zip_code":"3901185","prefecture":"長野県","city":"松本市","town":"大字今井","prefecture_code":20},"1197":{"zip_code":"3901197","prefecture":"長野県","city":"松本市","town":"大字今井","prefecture_code":20},"1182":{"zip_code":"3901182","prefecture":"長野県","city":"松本市","town":"大字今井","prefecture_code":20},"1293":{"zip_code":"3901293","prefecture":"長野県","city":"松本市","town":"大字和田","prefecture_code":20},"1298":{"zip_code":"3901298","prefecture":"長野県","city":"松本市","town":"大字和田","prefecture_code":20},"1295":[{"zip_code":"3901295","prefecture":"長野県","city":"松本市","town":"大字新村","prefecture_code":20},{"zip_code":"3901295","prefecture":"長野県","city":"松本市","town":"大字新村","prefecture_code":20}],"1492":{"zip_code":"3901492","prefecture":"長野県","city":"松本市","town":"波田","prefecture_code":20},"1592":{"zip_code":"3901592","prefecture":"長野県","city":"松本市","town":"安曇","prefecture_code":20},"1792":{"zip_code":"3901792","prefecture":"長野県","city":"松本市","town":"梓川梓","prefecture_code":20},"1394":{"zip_code":"3901394","prefecture":"長野県","city":"東筑摩郡山形村","town":"","prefecture_code":20},"1393":{"zip_code":"3901393","prefecture":"長野県","city":"東筑摩郡山形村","town":"","prefecture_code":20},"1392":{"zip_code":"3901392","prefecture":"長野県","city":"東筑摩郡山形村","town":"","prefecture_code":20},"1188":{"zip_code":"3901188","prefecture":"長野県","city":"東筑摩郡朝日村","town":"大字小野沢","prefecture_code":20},"1193":{"zip_code":"3901193","prefecture":"長野県","city":"東筑摩郡朝日村","town":"大字小野沢","prefecture_code":20}}