{"0000":{"zip_code":"3980000","prefecture":"長野県","prefecture_kana":"ナガノケン","city":"大町市","city_kana":"オオマチシ","town":"","town_kana":"","prefecture_code":20},"0002":{"zip_code":"3980002","prefecture":"長野県","prefecture_kana":"ナガノケン","city":"大町市","city_kana":"オオマチシ","town":"大町","town_kana":"オオマチ","prefecture_code":20},"0001":{"zip_code":"3980001","prefecture":"長野県","prefecture_kana":"ナガノケン","city":"大町市","city_kana":"オオマチシ","town":"平","town_kana":"タイラ","prefecture_code":20},"0004":{"zip_code":"3980004","prefecture":"長野県","prefecture_kana":"ナガノケン","city":"大町市","city_kana":"オオマチシ","town":"常盤","town_kana":"トキワ","prefecture_code":20},"0003":{"zip_code":"3980003","prefecture":"長野県","prefecture_kana":"ナガノケン","city":"大町市","city_kana":"オオマチシ","town":"社","town_kana":"ヤシロ","prefecture_code":20},"8501":{"zip_code":"3988501","prefecture":"長野県","city":"大町市","town":"大字大町","prefecture_code":20},"8686":{"zip_code":"3988686","prefecture":"長野県","city":"大町市","town":"大町","prefecture_code":20},"8602":{"zip_code":"3988602","prefecture":"長野県","city":"大町市","town":"大町","prefecture_code":20},"8601":{"zip_code":"3988601","prefecture":"長野県","city":"大町市","town":"大町","prefecture_code":20}}