{"0007":{"zip_code":"4500007","prefecture":"愛知県","prefecture_kana":"アイチケン","city":"名古屋市中村区","city_kana":"ナゴヤシナカムラク","town":"笹島町","town_kana":"ササシマチョウ","prefecture_code":23},"0006":{"zip_code":"4500006","prefecture":"愛知県","prefecture_kana":"アイチケン","city":"名古屋市中村区","city_kana":"ナゴヤシナカムラク","town":"下広井町","town_kana":"シモヒロイチョウ","prefecture_code":23},"0001":{"zip_code":"4500001","prefecture":"愛知県","prefecture_kana":"アイチケン","city":"名古屋市中村区","city_kana":"ナゴヤシナカムラク","town":"那古野","town_kana":"ナゴノ","prefecture_code":23},"0005":{"zip_code":"4500005","prefecture":"愛知県","prefecture_kana":"アイチケン","city":"名古屋市中村区","city_kana":"ナゴヤシナカムラク","town":"西日置","town_kana":"ニシヒオキ","prefecture_code":23},"0004":{"zip_code":"4500004","prefecture":"愛知県","prefecture_kana":"アイチケン","city":"名古屋市中村区","city_kana":"ナゴヤシナカムラク","town":"松重町","town_kana":"マツシゲチョウ","prefecture_code":23},"6690":{"zip_code":"4506690","prefecture":"愛知県","prefecture_kana":"アイチケン","city":"名古屋市中村区","city_kana":"ナゴヤシナカムラク","town":"名駅ＪＲゲートタワー","town_kana":"メイエキジェイアールゲートタワー","prefecture_code":23},"6601":{"zip_code":"4506601","prefecture":"愛知県","prefecture_kana":"アイチケン","city":"名古屋市中村区","city_kana":"ナゴヤシナカムラク","town":"名駅ＪＲゲートタワー　１階","town_kana":"メイエキジェイアールゲートタワー1カイ","prefecture_code":23},"6602":{"zip_code":"4506602","prefecture":"愛知県","prefecture_kana":"アイチケン","city":"名古屋市中村区","city_kana":"ナゴヤシナカムラク","town":"名駅ＪＲゲートタワー　２階","town_kana":"メイエキジェイアールゲートタワー2カイ","prefecture_code":23},"6603":{"zip_code":"4506603","prefecture":"愛知県","prefecture_kana":"アイチケン","city":"名古屋市中村区","city_kana":"ナゴヤシナカムラク","town":"名駅ＪＲゲートタワー　３階","town_kana":"メイエキジェイアールゲートタワー3カイ","prefecture_code":23},"6604":{"zip_code":"4506604","prefecture":"愛知県","prefecture_kana":"アイチケン","city":"名古屋市中村区","city_kana":"ナゴヤシナカムラク","town":"名駅ＪＲゲートタワー　４階","town_kana":"メイエキジェイアールゲートタワー4カイ","prefecture_code":23},"6605":{"zip_code":"4506605","prefecture":"愛知県","prefecture_kana":"アイチケン","city":"名古屋市中村区","city_kana":"ナゴヤシナカムラク","town":"名駅ＪＲゲートタワー　５階","town_kana":"メイエキジェイアールゲートタワー5カイ","prefecture_code":23},"6606":{"zip_code":"4506606","prefecture":"愛知県","prefecture_kana":"アイチケン","city":"名古屋市中村区","city_kana":"ナゴヤシナカムラク","town":"名駅ＪＲゲートタワー　６階","town_kana":"メイエキジェイアールゲートタワー6カイ","prefecture_code":23},"6607":{"zip_code":"4506607","prefecture":"愛知県","prefecture_kana":"アイチケン","city":"名古屋市中村区","city_kana":"ナゴヤシナカムラク","town":"名駅ＪＲゲートタワー　７階","town_kana":"メイエキジェイアールゲートタワー7カイ","prefecture_code":23},"6608":{"zip_code":"4506608","prefecture":"愛知県","prefecture_kana":"アイチケン","city":"名古屋市中村区","city_kana":"ナゴヤシナカムラク","town":"名駅ＪＲゲートタワー　８階","town_kana":"メイエキジェイアールゲートタワー8カイ","prefecture_code":23},"6609":{"zip_code":"4506609","prefecture":"愛知県","prefecture_kana":"アイチケン","city":"名古屋市中村区","city_kana":"ナゴヤシナカムラク","town":"名駅ＪＲゲートタワー　９階","town_kana":"メイエキジェイアールゲートタワー9カイ","prefecture_code":23},"6610":{"zip_code":"4506610","prefecture":"愛知県","prefecture_kana":"アイチケン","city":"名古屋市中村区","city_kana":"ナゴヤシナカムラク","town":"名駅ＪＲゲートタワー　１０階","town_kana":"メイエキジェイアールゲートタワー10カイ","prefecture_code":23},"6611":{"zip_code":"4506611","prefecture":"愛知県","prefecture_kana":"アイチケン","city":"名古屋市中村区","city_kana":"ナゴヤシナカムラク","town":"名駅ＪＲゲートタワー　１１階","town_kana":"メイエキジェイアールゲートタワー11カイ","prefecture_code":23},"6612":{"zip_code":"4506612","prefecture":"愛知県","prefecture_kana":"アイチケン","city":"名古屋市中村区","city_kana":"ナゴヤシナカムラク","town":"名駅ＪＲゲートタワー　１２階","town_kana":"メイエキジェイアールゲートタワー12カイ","prefecture_code":23},"6613":{"zip_code":"4506613","prefecture":"愛知県","prefecture_kana":"アイチケン","city":"名古屋市中村区","city_kana":"ナゴヤシナカムラク","town":"名駅ＪＲゲートタワー　１３階","town_kana":"メイエキジェイアールゲートタワー13カイ","prefecture_code":23},"6614":{"zip_code":"4506614","prefecture":"愛知県","prefecture_kana":"アイチケン","city":"名古屋市中村区","city_kana":"ナゴヤシナカムラク","town":"名駅ＪＲゲートタワー　１４階","town_kana":"メイエキジェイアールゲートタワー14カイ","prefecture_code":23},"6615":{"zip_code":"4506615","prefecture":"愛知県","prefecture_kana":"アイチケン","city":"名古屋市中村区","city_kana":"ナゴヤシナカムラク","town":"名駅ＪＲゲートタワー　１５階","town_kana":"メイエキジェイアールゲートタワー15カイ","prefecture_code":23},"6616":{"zip_code":"4506616","prefecture":"愛知県","prefecture_kana":"アイチケン","city":"名古屋市中村区","city_kana":"ナゴヤシナカムラク","town":"名駅ＪＲゲートタワー　１６階","town_kana":"メイエキジェイアールゲートタワー16カイ","prefecture_code":23},"6617":{"zip_code":"4506617","prefecture":"愛知県","prefecture_kana":"アイチケン","city":"名古屋市中村区","city_kana":"ナゴヤシナカムラク","town":"名駅ＪＲゲートタワー　１７階","town_kana":"メイエキジェイアールゲートタワー17カイ","prefecture_code":23},"6618":{"zip_code":"4506618","prefecture":"愛知県","prefecture_kana":"アイチケン","city":"名古屋市中村区","city_kana":"ナゴヤシナカムラク","town":"名駅ＪＲゲートタワー　１８階","town_kana":"メイエキジェイアールゲートタワー18カイ","prefecture_code":23},"6619":{"zip_code":"4506619","prefecture":"愛知県","prefecture_kana":"アイチケン","city":"名古屋市中村区","city_kana":"ナゴヤシナカムラク","town":"名駅ＪＲゲートタワー　１９階","town_kana":"メイエキジェイアールゲートタワー19カイ","prefecture_code":23},"6620":{"zip_code":"4506620","prefecture":"愛知県","prefecture_kana":"アイチケン","city":"名古屋市中村区","city_kana":"ナゴヤシナカムラク","town":"名駅ＪＲゲートタワー　２０階","town_kana":"メイエキジェイアールゲートタワー20カイ","prefecture_code":23},"6621":{"zip_code":"4506621","prefecture":"愛知県","prefecture_kana":"アイチケン","city":"名古屋市中村区","city_kana":"ナゴヤシナカムラク","town":"名駅ＪＲゲートタワー　２１階","town_kana":"メイエキジェイアールゲートタワー21カイ","prefecture_code":23},"6622":{"zip_code":"4506622","prefecture":"愛知県","prefecture_kana":"アイチケン","city":"名古屋市中村区","city_kana":"ナゴヤシナカムラク","town":"名駅ＪＲゲートタワー　２２階","town_kana":"メイエキジェイアールゲートタワー22カイ","prefecture_code":23},"6623":{"zip_code":"4506623","prefecture":"愛知県","prefecture_kana":"アイチケン","city":"名古屋市中村区","city_kana":"ナゴヤシナカムラク","town":"名駅ＪＲゲートタワー　２３階","town_kana":"メイエキジェイアールゲートタワー23カイ","prefecture_code":23},"6624":{"zip_code":"4506624","prefecture":"愛知県","prefecture_kana":"アイチケン","city":"名古屋市中村区","city_kana":"ナゴヤシナカムラク","town":"名駅ＪＲゲートタワー　２４階","town_kana":"メイエキジェイアールゲートタワー24カイ","prefecture_code":23},"6625":{"zip_code":"4506625","prefecture":"愛知県","prefecture_kana":"アイチケン","city":"名古屋市中村区","city_kana":"ナゴヤシナカムラク","town":"名駅ＪＲゲートタワー　２５階","town_kana":"メイエキジェイアールゲートタワー25カイ","prefecture_code":23},"6626":{"zip_code":"4506626","prefecture":"愛知県","prefecture_kana":"アイチケン","city":"名古屋市中村区","city_kana":"ナゴヤシナカムラク","town":"名駅ＪＲゲートタワー　２６階","town_kana":"メイエキジェイアールゲートタワー26カイ","prefecture_code":23},"6627":{"zip_code":"4506627","prefecture":"愛知県","prefecture_kana":"アイチケン","city":"名古屋市中村区","city_kana":"ナゴヤシナカムラク","town":"名駅ＪＲゲートタワー　２７階","town_kana":"メイエキジェイアールゲートタワー27カイ","prefecture_code":23},"6628":{"zip_code":"4506628","prefecture":"愛知県","prefecture_kana":"アイチケン","city":"名古屋市中村区","city_kana":"ナゴヤシナカムラク","town":"名駅ＪＲゲートタワー　２８階","town_kana":"メイエキジェイアールゲートタワー28カイ","prefecture_code":23},"6629":{"zip_code":"4506629","prefecture":"愛知県","prefecture_kana":"アイチケン","city":"名古屋市中村区","city_kana":"ナゴヤシナカムラク","town":"名駅ＪＲゲートタワー　２９階","town_kana":"メイエキジェイアールゲートタワー29カイ","prefecture_code":23},"6630":{"zip_code":"4506630","prefecture":"愛知県","prefecture_kana":"アイチケン","city":"名古屋市中村区","city_kana":"ナゴヤシナカムラク","town":"名駅ＪＲゲートタワー　３０階","town_kana":"メイエキジェイアールゲートタワー30カイ","prefecture_code":23},"6631":{"zip_code":"4506631","prefecture":"愛知県","prefecture_kana":"アイチケン","city":"名古屋市中村区","city_kana":"ナゴヤシナカムラク","town":"名駅ＪＲゲートタワー　３１階","town_kana":"メイエキジェイアールゲートタワー31カイ","prefecture_code":23},"6632":{"zip_code":"4506632","prefecture":"愛知県","prefecture_kana":"アイチケン","city":"名古屋市中村区","city_kana":"ナゴヤシナカムラク","town":"名駅ＪＲゲートタワー　３２階","town_kana":"メイエキジェイアールゲートタワー32カイ","prefecture_code":23},"6633":{"zip_code":"4506633","prefecture":"愛知県","prefecture_kana":"アイチケン","city":"名古屋市中村区","city_kana":"ナゴヤシナカムラク","town":"名駅ＪＲゲートタワー　３３階","town_kana":"メイエキジェイアールゲートタワー33カイ","prefecture_code":23},"6634":{"zip_code":"4506634","prefecture":"愛知県","prefecture_kana":"アイチケン","city":"名古屋市中村区","city_kana":"ナゴヤシナカムラク","town":"名駅ＪＲゲートタワー　３４階","town_kana":"メイエキジェイアールゲートタワー34カイ","prefecture_code":23},"6635":{"zip_code":"4506635","prefecture":"愛知県","prefecture_kana":"アイチケン","city":"名古屋市中村区","city_kana":"ナゴヤシナカムラク","town":"名駅ＪＲゲートタワー　３５階","town_kana":"メイエキジェイアールゲートタワー35カイ","prefecture_code":23},"6636":{"zip_code":"4506636","prefecture":"愛知県","prefecture_kana":"アイチケン","city":"名古屋市中村区","city_kana":"ナゴヤシナカムラク","town":"名駅ＪＲゲートタワー　３６階","town_kana":"メイエキジェイアールゲートタワー36カイ","prefecture_code":23},"6637":{"zip_code":"4506637","prefecture":"愛知県","prefecture_kana":"アイチケン","city":"名古屋市中村区","city_kana":"ナゴヤシナカムラク","town":"名駅ＪＲゲートタワー　３７階","town_kana":"メイエキジェイアールゲートタワー37カイ","prefecture_code":23},"6638":{"zip_code":"4506638","prefecture":"愛知県","prefecture_kana":"アイチケン","city":"名古屋市中村区","city_kana":"ナゴヤシナカムラク","town":"名駅ＪＲゲートタワー　３８階","town_kana":"メイエキジェイアールゲートタワー38カイ","prefecture_code":23},"6639":{"zip_code":"4506639","prefecture":"愛知県","prefecture_kana":"アイチケン","city":"名古屋市中村区","city_kana":"ナゴヤシナカムラク","town":"名駅ＪＲゲートタワー　３９階","town_kana":"メイエキジェイアールゲートタワー39カイ","prefecture_code":23},"6640":{"zip_code":"4506640","prefecture":"愛知県","prefecture_kana":"アイチケン","city":"名古屋市中村区","city_kana":"ナゴヤシナカムラク","town":"名駅ＪＲゲートタワー　４０階","town_kana":"メイエキジェイアールゲートタワー40カイ","prefecture_code":23},"6641":{"zip_code":"4506641","prefecture":"愛知県","prefecture_kana":"アイチケン","city":"名古屋市中村区","city_kana":"ナゴヤシナカムラク","town":"名駅ＪＲゲートタワー　４１階","town_kana":"メイエキジェイアールゲートタワー41カイ","prefecture_code":23},"6642":{"zip_code":"4506642","prefecture":"愛知県","prefecture_kana":"アイチケン","city":"名古屋市中村区","city_kana":"ナゴヤシナカムラク","town":"名駅ＪＲゲートタワー　４２階","town_kana":"メイエキジェイアールゲートタワー42カイ","prefecture_code":23},"6643":{"zip_code":"4506643","prefecture":"愛知県","prefecture_kana":"アイチケン","city":"名古屋市中村区","city_kana":"ナゴヤシナカムラク","town":"名駅ＪＲゲートタワー　４３階","town_kana":"メイエキジェイアールゲートタワー43カイ","prefecture_code":23},"6644":{"zip_code":"4506644","prefecture":"愛知県","prefecture_kana":"アイチケン","city":"名古屋市中村区","city_kana":"ナゴヤシナカムラク","town":"名駅ＪＲゲートタワー　４４階","town_kana":"メイエキジェイアールゲートタワー44カイ","prefecture_code":23},"6645":{"zip_code":"4506645","prefecture":"愛知県","prefecture_kana":"アイチケン","city":"名古屋市中村区","city_kana":"ナゴヤシナカムラク","town":"名駅ＪＲゲートタワー　４５階","town_kana":"メイエキジェイアールゲートタワー45カイ","prefecture_code":23},"6646":{"zip_code":"4506646","prefecture":"愛知県","prefecture_kana":"アイチケン","city":"名古屋市中村区","city_kana":"ナゴヤシナカムラク","town":"名駅ＪＲゲートタワー　４６階","town_kana":"メイエキジェイアールゲートタワー46カイ","prefecture_code":23},"6090":{"zip_code":"4506090","prefecture":"愛知県","prefecture_kana":"アイチケン","city":"名古屋市中村区","city_kana":"ナゴヤシナカムラク","town":"名駅ＪＲセントラルタワーズ","town_kana":"メイエキジェイアールセントラルタワーズ","prefecture_code":23},"6001":{"zip_code":"4506001","prefecture":"愛知県","prefecture_kana":"アイチケン","city":"名古屋市中村区","city_kana":"ナゴヤシナカムラク","town":"名駅ＪＲセントラルタワーズ　１階","town_kana":"メイエキジェイアールセントラルタワーズ1カイ","prefecture_code":23},"6002":{"zip_code":"4506002","prefecture":"愛知県","prefecture_kana":"アイチケン","city":"名古屋市中村区","city_kana":"ナゴヤシナカムラク","town":"名駅ＪＲセントラルタワーズ　２階","town_kana":"メイエキジェイアールセントラルタワーズ2カイ","prefecture_code":23},"6003":{"zip_code":"4506003","prefecture":"愛知県","prefecture_kana":"アイチケン","city":"名古屋市中村区","city_kana":"ナゴヤシナカムラク","town":"名駅ＪＲセントラルタワーズ　３階","town_kana":"メイエキジェイアールセントラルタワーズ3カイ","prefecture_code":23},"6004":{"zip_code":"4506004","prefecture":"愛知県","prefecture_kana":"アイチケン","city":"名古屋市中村区","city_kana":"ナゴヤシナカムラク","town":"名駅ＪＲセントラルタワーズ　４階","town_kana":"メイエキジェイアールセントラルタワーズ4カイ","prefecture_code":23},"6005":{"zip_code":"4506005","prefecture":"愛知県","prefecture_kana":"アイチケン","city":"名古屋市中村区","city_kana":"ナゴヤシナカムラク","town":"名駅ＪＲセントラルタワーズ　５階","town_kana":"メイエキジェイアールセントラルタワーズ5カイ","prefecture_code":23},"6006":{"zip_code":"4506006","prefecture":"愛知県","prefecture_kana":"アイチケン","city":"名古屋市中村区","city_kana":"ナゴヤシナカムラク","town":"名駅ＪＲセントラルタワーズ　６階","town_kana":"メイエキジェイアールセントラルタワーズ6カイ","prefecture_code":23},"6007":{"zip_code":"4506007","prefecture":"愛知県","prefecture_kana":"アイチケン","city":"名古屋市中村区","city_kana":"ナゴヤシナカムラク","town":"名駅ＪＲセントラルタワーズ　７階","town_kana":"メイエキジェイアールセントラルタワーズ7カイ","prefecture_code":23},"6008":{"zip_code":"4506008","prefecture":"愛知県","prefecture_kana":"アイチケン","city":"名古屋市中村区","city_kana":"ナゴヤシナカムラク","town":"名駅ＪＲセントラルタワーズ　８階","town_kana":"メイエキジェイアールセントラルタワーズ8カイ","prefecture_code":23},"6009":{"zip_code":"4506009","prefecture":"愛知県","prefecture_kana":"アイチケン","city":"名古屋市中村区","city_kana":"ナゴヤシナカムラク","town":"名駅ＪＲセントラルタワーズ　９階","town_kana":"メイエキジェイアールセントラルタワーズ9カイ","prefecture_code":23},"6010":{"zip_code":"4506010","prefecture":"愛知県","prefecture_kana":"アイチケン","city":"名古屋市中村区","city_kana":"ナゴヤシナカムラク","town":"名駅ＪＲセントラルタワーズ　１０階","town_kana":"メイエキジェイアールセントラルタワーズ10カイ","prefecture_code":23},"6011":{"zip_code":"4506011","prefecture":"愛知県","prefecture_kana":"アイチケン","city":"名古屋市中村区","city_kana":"ナゴヤシナカムラク","town":"名駅ＪＲセントラルタワーズ　１１階","town_kana":"メイエキジェイアールセントラルタワーズ11カイ","prefecture_code":23},"6012":{"zip_code":"4506012","prefecture":"愛知県","prefecture_kana":"アイチケン","city":"名古屋市中村区","city_kana":"ナゴヤシナカムラク","town":"名駅ＪＲセントラルタワーズ　１２階","town_kana":"メイエキジェイアールセントラルタワーズ12カイ","prefecture_code":23},"6013":{"zip_code":"4506013","prefecture":"愛知県","prefecture_kana":"アイチケン","city":"名古屋市中村区","city_kana":"ナゴヤシナカムラク","town":"名駅ＪＲセントラルタワーズ　１３階","town_kana":"メイエキジェイアールセントラルタワーズ13カイ","prefecture_code":23},"6014":{"zip_code":"4506014","prefecture":"愛知県","prefecture_kana":"アイチケン","city":"名古屋市中村区","city_kana":"ナゴヤシナカムラク","town":"名駅ＪＲセントラルタワーズ　１４階","town_kana":"メイエキジェイアールセントラルタワーズ14カイ","prefecture_code":23},"6015":{"zip_code":"4506015","prefecture":"愛知県","prefecture_kana":"アイチケン","city":"名古屋市中村区","city_kana":"ナゴヤシナカムラク","town":"名駅ＪＲセントラルタワーズ　１５階","town_kana":"メイエキジェイアールセントラルタワーズ15カイ","prefecture_code":23},"6016":{"zip_code":"4506016","prefecture":"愛知県","prefecture_kana":"アイチケン","city":"名古屋市中村区","city_kana":"ナゴヤシナカムラク","town":"名駅ＪＲセントラルタワーズ　１６階","town_kana":"メイエキジェイアールセントラルタワーズ16カイ","prefecture_code":23},"6017":{"zip_code":"4506017","prefecture":"愛知県","prefecture_kana":"アイチケン","city":"名古屋市中村区","city_kana":"ナゴヤシナカムラク","town":"名駅ＪＲセントラルタワーズ　１７階","town_kana":"メイエキジェイアールセントラルタワーズ17カイ","prefecture_code":23},"6018":{"zip_code":"4506018","prefecture":"愛知県","prefecture_kana":"アイチケン","city":"名古屋市中村区","city_kana":"ナゴヤシナカムラク","town":"名駅ＪＲセントラルタワーズ　１８階","town_kana":"メイエキジェイアールセントラルタワーズ18カイ","prefecture_code":23},"6019":{"zip_code":"4506019","prefecture":"愛知県","prefecture_kana":"アイチケン","city":"名古屋市中村区","city_kana":"ナゴヤシナカムラク","town":"名駅ＪＲセントラルタワーズ　１９階","town_kana":"メイエキジェイアールセントラルタワーズ19カイ","prefecture_code":23},"6020":{"zip_code":"4506020","prefecture":"愛知県","prefecture_kana":"アイチケン","city":"名古屋市中村区","city_kana":"ナゴヤシナカムラク","town":"名駅ＪＲセントラルタワーズ　２０階","town_kana":"メイエキジェイアールセントラルタワーズ20カイ","prefecture_code":23},"6021":{"zip_code":"4506021","prefecture":"愛知県","prefecture_kana":"アイチケン","city":"名古屋市中村区","city_kana":"ナゴヤシナカムラク","town":"名駅ＪＲセントラルタワーズ　２１階","town_kana":"メイエキジェイアールセントラルタワーズ21カイ","prefecture_code":23},"6022":{"zip_code":"4506022","prefecture":"愛知県","prefecture_kana":"アイチケン","city":"名古屋市中村区","city_kana":"ナゴヤシナカムラク","town":"名駅ＪＲセントラルタワーズ　２２階","town_kana":"メイエキジェイアールセントラルタワーズ22カイ","prefecture_code":23},"6023":{"zip_code":"4506023","prefecture":"愛知県","prefecture_kana":"アイチケン","city":"名古屋市中村区","city_kana":"ナゴヤシナカムラク","town":"名駅ＪＲセントラルタワーズ　２３階","town_kana":"メイエキジェイアールセントラルタワーズ23カイ","prefecture_code":23},"6024":{"zip_code":"4506024","prefecture":"愛知県","prefecture_kana":"アイチケン","city":"名古屋市中村区","city_kana":"ナゴヤシナカムラク","town":"名駅ＪＲセントラルタワーズ　２４階","town_kana":"メイエキジェイアールセントラルタワーズ24カイ","prefecture_code":23},"6025":{"zip_code":"4506025","prefecture":"愛知県","prefecture_kana":"アイチケン","city":"名古屋市中村区","city_kana":"ナゴヤシナカムラク","town":"名駅ＪＲセントラルタワーズ　２５階","town_kana":"メイエキジェイアールセントラルタワーズ25カイ","prefecture_code":23},"6026":{"zip_code":"4506026","prefecture":"愛知県","prefecture_kana":"アイチケン","city":"名古屋市中村区","city_kana":"ナゴヤシナカムラク","town":"名駅ＪＲセントラルタワーズ　２６階","town_kana":"メイエキジェイアールセントラルタワーズ26カイ","prefecture_code":23},"6027":{"zip_code":"4506027","prefecture":"愛知県","prefecture_kana":"アイチケン","city":"名古屋市中村区","city_kana":"ナゴヤシナカムラク","town":"名駅ＪＲセントラルタワーズ　２７階","town_kana":"メイエキジェイアールセントラルタワーズ27カイ","prefecture_code":23},"6028":{"zip_code":"4506028","prefecture":"愛知県","prefecture_kana":"アイチケン","city":"名古屋市中村区","city_kana":"ナゴヤシナカムラク","town":"名駅ＪＲセントラルタワーズ　２８階","town_kana":"メイエキジェイアールセントラルタワーズ28カイ","prefecture_code":23},"6029":{"zip_code":"4506029","prefecture":"愛知県","prefecture_kana":"アイチケン","city":"名古屋市中村区","city_kana":"ナゴヤシナカムラク","town":"名駅ＪＲセントラルタワーズ　２９階","town_kana":"メイエキジェイアールセントラルタワーズ29カイ","prefecture_code":23},"6030":{"zip_code":"4506030","prefecture":"愛知県","prefecture_kana":"アイチケン","city":"名古屋市中村区","city_kana":"ナゴヤシナカムラク","town":"名駅ＪＲセントラルタワーズ　３０階","town_kana":"メイエキジェイアールセントラルタワーズ30カイ","prefecture_code":23},"6031":{"zip_code":"4506031","prefecture":"愛知県","prefecture_kana":"アイチケン","city":"名古屋市中村区","city_kana":"ナゴヤシナカムラク","town":"名駅ＪＲセントラルタワーズ　３１階","town_kana":"メイエキジェイアールセントラルタワーズ31カイ","prefecture_code":23},"6032":{"zip_code":"4506032","prefecture":"愛知県","prefecture_kana":"アイチケン","city":"名古屋市中村区","city_kana":"ナゴヤシナカムラク","town":"名駅ＪＲセントラルタワーズ　３２階","town_kana":"メイエキジェイアールセントラルタワーズ32カイ","prefecture_code":23},"6033":{"zip_code":"4506033","prefecture":"愛知県","prefecture_kana":"アイチケン","city":"名古屋市中村区","city_kana":"ナゴヤシナカムラク","town":"名駅ＪＲセントラルタワーズ　３３階","town_kana":"メイエキジェイアールセントラルタワーズ33カイ","prefecture_code":23},"6034":{"zip_code":"4506034","prefecture":"愛知県","prefecture_kana":"アイチケン","city":"名古屋市中村区","city_kana":"ナゴヤシナカムラク","town":"名駅ＪＲセントラルタワーズ　３４階","town_kana":"メイエキジェイアールセントラルタワーズ34カイ","prefecture_code":23},"6035":{"zip_code":"4506035","prefecture":"愛知県","prefecture_kana":"アイチケン","city":"名古屋市中村区","city_kana":"ナゴヤシナカムラク","town":"名駅ＪＲセントラルタワーズ　３５階","town_kana":"メイエキジェイアールセントラルタワーズ35カイ","prefecture_code":23},"6036":{"zip_code":"4506036","prefecture":"愛知県","prefecture_kana":"アイチケン","city":"名古屋市中村区","city_kana":"ナゴヤシナカムラク","town":"名駅ＪＲセントラルタワーズ　３６階","town_kana":"メイエキジェイアールセントラルタワーズ36カイ","prefecture_code":23},"6037":{"zip_code":"4506037","prefecture":"愛知県","prefecture_kana":"アイチケン","city":"名古屋市中村区","city_kana":"ナゴヤシナカムラク","town":"名駅ＪＲセントラルタワーズ　３７階","town_kana":"メイエキジェイアールセントラルタワーズ37カイ","prefecture_code":23},"6038":{"zip_code":"4506038","prefecture":"愛知県","prefecture_kana":"アイチケン","city":"名古屋市中村区","city_kana":"ナゴヤシナカムラク","town":"名駅ＪＲセントラルタワーズ　３８階","town_kana":"メイエキジェイアールセントラルタワーズ38カイ","prefecture_code":23},"6039":{"zip_code":"4506039","prefecture":"愛知県","prefecture_kana":"アイチケン","city":"名古屋市中村区","city_kana":"ナゴヤシナカムラク","town":"名駅ＪＲセントラルタワーズ　３９階","town_kana":"メイエキジェイアールセントラルタワーズ39カイ","prefecture_code":23},"6040":{"zip_code":"4506040","prefecture":"愛知県","prefecture_kana":"アイチケン","city":"名古屋市中村区","city_kana":"ナゴヤシナカムラク","town":"名駅ＪＲセントラルタワーズ　４０階","town_kana":"メイエキジェイアールセントラルタワーズ40カイ","prefecture_code":23},"6041":{"zip_code":"4506041","prefecture":"愛知県","prefecture_kana":"アイチケン","city":"名古屋市中村区","city_kana":"ナゴヤシナカムラク","town":"名駅ＪＲセントラルタワーズ　４１階","town_kana":"メイエキジェイアールセントラルタワーズ41カイ","prefecture_code":23},"6042":{"zip_code":"4506042","prefecture":"愛知県","prefecture_kana":"アイチケン","city":"名古屋市中村区","city_kana":"ナゴヤシナカムラク","town":"名駅ＪＲセントラルタワーズ　４２階","town_kana":"メイエキジェイアールセントラルタワーズ42カイ","prefecture_code":23},"6043":{"zip_code":"4506043","prefecture":"愛知県","prefecture_kana":"アイチケン","city":"名古屋市中村区","city_kana":"ナゴヤシナカムラク","town":"名駅ＪＲセントラルタワーズ　４３階","town_kana":"メイエキジェイアールセントラルタワーズ43カイ","prefecture_code":23},"6044":{"zip_code":"4506044","prefecture":"愛知県","prefecture_kana":"アイチケン","city":"名古屋市中村区","city_kana":"ナゴヤシナカムラク","town":"名駅ＪＲセントラルタワーズ　４４階","town_kana":"メイエキジェイアールセントラルタワーズ44カイ","prefecture_code":23},"6045":{"zip_code":"4506045","prefecture":"愛知県","prefecture_kana":"アイチケン","city":"名古屋市中村区","city_kana":"ナゴヤシナカムラク","town":"名駅ＪＲセントラルタワーズ　４５階","town_kana":"メイエキジェイアールセントラルタワーズ45カイ","prefecture_code":23},"6046":{"zip_code":"4506046","prefecture":"愛知県","prefecture_kana":"アイチケン","city":"名古屋市中村区","city_kana":"ナゴヤシナカムラク","town":"名駅ＪＲセントラルタワーズ　４６階","town_kana":"メイエキジェイアールセントラルタワーズ46カイ","prefecture_code":23},"6047":{"zip_code":"4506047","prefecture":"愛知県","prefecture_kana":"アイチケン","city":"名古屋市中村区","city_kana":"ナゴヤシナカムラク","town":"名駅ＪＲセントラルタワーズ　４７階","town_kana":"メイエキジェイアールセントラルタワーズ47カイ","prefecture_code":23},"6048":{"zip_code":"4506048","prefecture":"愛知県","prefecture_kana":"アイチケン","city":"名古屋市中村区","city_kana":"ナゴヤシナカムラク","town":"名駅ＪＲセントラルタワーズ　４８階","town_kana":"メイエキジェイアールセントラルタワーズ48カイ","prefecture_code":23},"6049":{"zip_code":"4506049","prefecture":"愛知県","prefecture_kana":"アイチケン","city":"名古屋市中村区","city_kana":"ナゴヤシナカムラク","town":"名駅ＪＲセントラルタワーズ　４９階","town_kana":"メイエキジェイアールセントラルタワーズ49カイ","prefecture_code":23},"6050":{"zip_code":"4506050","prefecture":"愛知県","prefecture_kana":"アイチケン","city":"名古屋市中村区","city_kana":"ナゴヤシナカムラク","town":"名駅ＪＲセントラルタワーズ　５０階","town_kana":"メイエキジェイアールセントラルタワーズ50カイ","prefecture_code":23},"6051":{"zip_code":"4506051","prefecture":"愛知県","prefecture_kana":"アイチケン","city":"名古屋市中村区","city_kana":"ナゴヤシナカムラク","town":"名駅ＪＲセントラルタワーズ　５１階","town_kana":"メイエキジェイアールセントラルタワーズ51カイ","prefecture_code":23},"6390":{"zip_code":"4506390","prefecture":"愛知県","prefecture_kana":"アイチケン","city":"名古屋市中村区","city_kana":"ナゴヤシナカムラク","town":"名駅ＪＰタワー名古屋","town_kana":"メイエキジェイピータワーナゴヤ","prefecture_code":23},"6301":{"zip_code":"4506301","prefecture":"愛知県","prefecture_kana":"アイチケン","city":"名古屋市中村区","city_kana":"ナゴヤシナカムラク","town":"名駅ＪＰタワー名古屋　１階","town_kana":"メイエキジェイピータワーナゴヤ1カイ","prefecture_code":23},"6302":{"zip_code":"4506302","prefecture":"愛知県","prefecture_kana":"アイチケン","city":"名古屋市中村区","city_kana":"ナゴヤシナカムラク","town":"名駅ＪＰタワー名古屋　２階","town_kana":"メイエキジェイピータワーナゴヤ2カイ","prefecture_code":23},"6303":{"zip_code":"4506303","prefecture":"愛知県","prefecture_kana":"アイチケン","city":"名古屋市中村区","city_kana":"ナゴヤシナカムラク","town":"名駅ＪＰタワー名古屋　３階","town_kana":"メイエキジェイピータワーナゴヤ3カイ","prefecture_code":23},"6304":{"zip_code":"4506304","prefecture":"愛知県","prefecture_kana":"アイチケン","city":"名古屋市中村区","city_kana":"ナゴヤシナカムラク","town":"名駅ＪＰタワー名古屋　４階","town_kana":"メイエキジェイピータワーナゴヤ4カイ","prefecture_code":23},"6305":{"zip_code":"4506305","prefecture":"愛知県","prefecture_kana":"アイチケン","city":"名古屋市中村区","city_kana":"ナゴヤシナカムラク","town":"名駅ＪＰタワー名古屋　５階","town_kana":"メイエキジェイピータワーナゴヤ5カイ","prefecture_code":23},"6306":{"zip_code":"4506306","prefecture":"愛知県","prefecture_kana":"アイチケン","city":"名古屋市中村区","city_kana":"ナゴヤシナカムラク","town":"名駅ＪＰタワー名古屋　６階","town_kana":"メイエキジェイピータワーナゴヤ6カイ","prefecture_code":23},"6307":{"zip_code":"4506307","prefecture":"愛知県","prefecture_kana":"アイチケン","city":"名古屋市中村区","city_kana":"ナゴヤシナカムラク","town":"名駅ＪＰタワー名古屋　７階","town_kana":"メイエキジェイピータワーナゴヤ7カイ","prefecture_code":23},"6308":{"zip_code":"4506308","prefecture":"愛知県","prefecture_kana":"アイチケン","city":"名古屋市中村区","city_kana":"ナゴヤシナカムラク","town":"名駅ＪＰタワー名古屋　８階","town_kana":"メイエキジェイピータワーナゴヤ8カイ","prefecture_code":23},"6309":{"zip_code":"4506309","prefecture":"愛知県","prefecture_kana":"アイチケン","city":"名古屋市中村区","city_kana":"ナゴヤシナカムラク","town":"名駅ＪＰタワー名古屋　９階","town_kana":"メイエキジェイピータワーナゴヤ9カイ","prefecture_code":23},"6310":{"zip_code":"4506310","prefecture":"愛知県","prefecture_kana":"アイチケン","city":"名古屋市中村区","city_kana":"ナゴヤシナカムラク","town":"名駅ＪＰタワー名古屋　１０階","town_kana":"メイエキジェイピータワーナゴヤ10カイ","prefecture_code":23},"6311":{"zip_code":"4506311","prefecture":"愛知県","prefecture_kana":"アイチケン","city":"名古屋市中村区","city_kana":"ナゴヤシナカムラク","town":"名駅ＪＰタワー名古屋　１１階","town_kana":"メイエキジェイピータワーナゴヤ11カイ","prefecture_code":23},"6312":{"zip_code":"4506312","prefecture":"愛知県","prefecture_kana":"アイチケン","city":"名古屋市中村区","city_kana":"ナゴヤシナカムラク","town":"名駅ＪＰタワー名古屋　１２階","town_kana":"メイエキジェイピータワーナゴヤ12カイ","prefecture_code":23},"6313":{"zip_code":"4506313","prefecture":"愛知県","prefecture_kana":"アイチケン","city":"名古屋市中村区","city_kana":"ナゴヤシナカムラク","town":"名駅ＪＰタワー名古屋　１３階","town_kana":"メイエキジェイピータワーナゴヤ13カイ","prefecture_code":23},"6314":{"zip_code":"4506314","prefecture":"愛知県","prefecture_kana":"アイチケン","city":"名古屋市中村区","city_kana":"ナゴヤシナカムラク","town":"名駅ＪＰタワー名古屋　１４階","town_kana":"メイエキジェイピータワーナゴヤ14カイ","prefecture_code":23},"6315":{"zip_code":"4506315","prefecture":"愛知県","prefecture_kana":"アイチケン","city":"名古屋市中村区","city_kana":"ナゴヤシナカムラク","town":"名駅ＪＰタワー名古屋　１５階","town_kana":"メイエキジェイピータワーナゴヤ15カイ","prefecture_code":23},"6316":{"zip_code":"4506316","prefecture":"愛知県","prefecture_kana":"アイチケン","city":"名古屋市中村区","city_kana":"ナゴヤシナカムラク","town":"名駅ＪＰタワー名古屋　１６階","town_kana":"メイエキジェイピータワーナゴヤ16カイ","prefecture_code":23},"6317":{"zip_code":"4506317","prefecture":"愛知県","prefecture_kana":"アイチケン","city":"名古屋市中村区","city_kana":"ナゴヤシナカムラク","town":"名駅ＪＰタワー名古屋　１７階","town_kana":"メイエキジェイピータワーナゴヤ17カイ","prefecture_code":23},"6318":{"zip_code":"4506318","prefecture":"愛知県","prefecture_kana":"アイチケン","city":"名古屋市中村区","city_kana":"ナゴヤシナカムラク","town":"名駅ＪＰタワー名古屋　１８階","town_kana":"メイエキジェイピータワーナゴヤ18カイ","prefecture_code":23},"6319":{"zip_code":"4506319","prefecture":"愛知県","prefecture_kana":"アイチケン","city":"名古屋市中村区","city_kana":"ナゴヤシナカムラク","town":"名駅ＪＰタワー名古屋　１９階","town_kana":"メイエキジェイピータワーナゴヤ19カイ","prefecture_code":23},"6320":{"zip_code":"4506320","prefecture":"愛知県","prefecture_kana":"アイチケン","city":"名古屋市中村区","city_kana":"ナゴヤシナカムラク","town":"名駅ＪＰタワー名古屋　２０階","town_kana":"メイエキジェイピータワーナゴヤ20カイ","prefecture_code":23},"6321":{"zip_code":"4506321","prefecture":"愛知県","prefecture_kana":"アイチケン","city":"名古屋市中村区","city_kana":"ナゴヤシナカムラク","town":"名駅ＪＰタワー名古屋　２１階","town_kana":"メイエキジェイピータワーナゴヤ21カイ","prefecture_code":23},"6322":{"zip_code":"4506322","prefecture":"愛知県","prefecture_kana":"アイチケン","city":"名古屋市中村区","city_kana":"ナゴヤシナカムラク","town":"名駅ＪＰタワー名古屋　２２階","town_kana":"メイエキジェイピータワーナゴヤ22カイ","prefecture_code":23},"6323":{"zip_code":"4506323","prefecture":"愛知県","prefecture_kana":"アイチケン","city":"名古屋市中村区","city_kana":"ナゴヤシナカムラク","town":"名駅ＪＰタワー名古屋　２３階","town_kana":"メイエキジェイピータワーナゴヤ23カイ","prefecture_code":23},"6324":{"zip_code":"4506324","prefecture":"愛知県","prefecture_kana":"アイチケン","city":"名古屋市中村区","city_kana":"ナゴヤシナカムラク","town":"名駅ＪＰタワー名古屋　２４階","town_kana":"メイエキジェイピータワーナゴヤ24カイ","prefecture_code":23},"6325":{"zip_code":"4506325","prefecture":"愛知県","prefecture_kana":"アイチケン","city":"名古屋市中村区","city_kana":"ナゴヤシナカムラク","town":"名駅ＪＰタワー名古屋　２５階","town_kana":"メイエキジェイピータワーナゴヤ25カイ","prefecture_code":23},"6326":{"zip_code":"4506326","prefecture":"愛知県","prefecture_kana":"アイチケン","city":"名古屋市中村区","city_kana":"ナゴヤシナカムラク","town":"名駅ＪＰタワー名古屋　２６階","town_kana":"メイエキジェイピータワーナゴヤ26カイ","prefecture_code":23},"6327":{"zip_code":"4506327","prefecture":"愛知県","prefecture_kana":"アイチケン","city":"名古屋市中村区","city_kana":"ナゴヤシナカムラク","town":"名駅ＪＰタワー名古屋　２７階","town_kana":"メイエキジェイピータワーナゴヤ27カイ","prefecture_code":23},"6328":{"zip_code":"4506328","prefecture":"愛知県","prefecture_kana":"アイチケン","city":"名古屋市中村区","city_kana":"ナゴヤシナカムラク","town":"名駅ＪＰタワー名古屋　２８階","town_kana":"メイエキジェイピータワーナゴヤ28カイ","prefecture_code":23},"6329":{"zip_code":"4506329","prefecture":"愛知県","prefecture_kana":"アイチケン","city":"名古屋市中村区","city_kana":"ナゴヤシナカムラク","town":"名駅ＪＰタワー名古屋　２９階","town_kana":"メイエキジェイピータワーナゴヤ29カイ","prefecture_code":23},"6330":{"zip_code":"4506330","prefecture":"愛知県","prefecture_kana":"アイチケン","city":"名古屋市中村区","city_kana":"ナゴヤシナカムラク","town":"名駅ＪＰタワー名古屋　３０階","town_kana":"メイエキジェイピータワーナゴヤ30カイ","prefecture_code":23},"6331":{"zip_code":"4506331","prefecture":"愛知県","prefecture_kana":"アイチケン","city":"名古屋市中村区","city_kana":"ナゴヤシナカムラク","town":"名駅ＪＰタワー名古屋　３１階","town_kana":"メイエキジェイピータワーナゴヤ31カイ","prefecture_code":23},"6332":{"zip_code":"4506332","prefecture":"愛知県","prefecture_kana":"アイチケン","city":"名古屋市中村区","city_kana":"ナゴヤシナカムラク","town":"名駅ＪＰタワー名古屋　３２階","town_kana":"メイエキジェイピータワーナゴヤ32カイ","prefecture_code":23},"6333":{"zip_code":"4506333","prefecture":"愛知県","prefecture_kana":"アイチケン","city":"名古屋市中村区","city_kana":"ナゴヤシナカムラク","town":"名駅ＪＰタワー名古屋　３３階","town_kana":"メイエキジェイピータワーナゴヤ33カイ","prefecture_code":23},"6334":{"zip_code":"4506334","prefecture":"愛知県","prefecture_kana":"アイチケン","city":"名古屋市中村区","city_kana":"ナゴヤシナカムラク","town":"名駅ＪＰタワー名古屋　３４階","town_kana":"メイエキジェイピータワーナゴヤ34カイ","prefecture_code":23},"6335":{"zip_code":"4506335","prefecture":"愛知県","prefecture_kana":"アイチケン","city":"名古屋市中村区","city_kana":"ナゴヤシナカムラク","town":"名駅ＪＰタワー名古屋　３５階","town_kana":"メイエキジェイピータワーナゴヤ35カイ","prefecture_code":23},"6336":{"zip_code":"4506336","prefecture":"愛知県","prefecture_kana":"アイチケン","city":"名古屋市中村区","city_kana":"ナゴヤシナカムラク","town":"名駅ＪＰタワー名古屋　３６階","town_kana":"メイエキジェイピータワーナゴヤ36カイ","prefecture_code":23},"6337":{"zip_code":"4506337","prefecture":"愛知県","prefecture_kana":"アイチケン","city":"名古屋市中村区","city_kana":"ナゴヤシナカムラク","town":"名駅ＪＰタワー名古屋　３７階","town_kana":"メイエキジェイピータワーナゴヤ37カイ","prefecture_code":23},"6338":{"zip_code":"4506338","prefecture":"愛知県","prefecture_kana":"アイチケン","city":"名古屋市中村区","city_kana":"ナゴヤシナカムラク","town":"名駅ＪＰタワー名古屋　３８階","town_kana":"メイエキジェイピータワーナゴヤ38カイ","prefecture_code":23},"6339":{"zip_code":"4506339","prefecture":"愛知県","prefecture_kana":"アイチケン","city":"名古屋市中村区","city_kana":"ナゴヤシナカムラク","town":"名駅ＪＰタワー名古屋　３９階","town_kana":"メイエキジェイピータワーナゴヤ39カイ","prefecture_code":23},"6340":{"zip_code":"4506340","prefecture":"愛知県","prefecture_kana":"アイチケン","city":"名古屋市中村区","city_kana":"ナゴヤシナカムラク","town":"名駅ＪＰタワー名古屋　４０階","town_kana":"メイエキジェイピータワーナゴヤ40カイ","prefecture_code":23},"6490":{"zip_code":"4506490","prefecture":"愛知県","prefecture_kana":"アイチケン","city":"名古屋市中村区","city_kana":"ナゴヤシナカムラク","town":"名駅大名古屋ビルヂング","town_kana":"メイエキダイナゴヤビルヂング","prefecture_code":23},"6401":{"zip_code":"4506401","prefecture":"愛知県","prefecture_kana":"アイチケン","city":"名古屋市中村区","city_kana":"ナゴヤシナカムラク","town":"名駅大名古屋ビルヂング　１階","town_kana":"メイエキダイナゴヤビルヂング1カイ","prefecture_code":23},"6402":{"zip_code":"4506402","prefecture":"愛知県","prefecture_kana":"アイチケン","city":"名古屋市中村区","city_kana":"ナゴヤシナカムラク","town":"名駅大名古屋ビルヂング　２階","town_kana":"メイエキダイナゴヤビルヂング2カイ","prefecture_code":23},"6403":{"zip_code":"4506403","prefecture":"愛知県","prefecture_kana":"アイチケン","city":"名古屋市中村区","city_kana":"ナゴヤシナカムラク","town":"名駅大名古屋ビルヂング　３階","town_kana":"メイエキダイナゴヤビルヂング3カイ","prefecture_code":23},"6404":{"zip_code":"4506404","prefecture":"愛知県","prefecture_kana":"アイチケン","city":"名古屋市中村区","city_kana":"ナゴヤシナカムラク","town":"名駅大名古屋ビルヂング　４階","town_kana":"メイエキダイナゴヤビルヂング4カイ","prefecture_code":23},"6405":{"zip_code":"4506405","prefecture":"愛知県","prefecture_kana":"アイチケン","city":"名古屋市中村区","city_kana":"ナゴヤシナカムラク","town":"名駅大名古屋ビルヂング　５階","town_kana":"メイエキダイナゴヤビルヂング5カイ","prefecture_code":23},"6406":{"zip_code":"4506406","prefecture":"愛知県","prefecture_kana":"アイチケン","city":"名古屋市中村区","city_kana":"ナゴヤシナカムラク","town":"名駅大名古屋ビルヂング　６階","town_kana":"メイエキダイナゴヤビルヂング6カイ","prefecture_code":23},"6407":{"zip_code":"4506407","prefecture":"愛知県","prefecture_kana":"アイチケン","city":"名古屋市中村区","city_kana":"ナゴヤシナカムラク","town":"名駅大名古屋ビルヂング　７階","town_kana":"メイエキダイナゴヤビルヂング7カイ","prefecture_code":23},"6408":{"zip_code":"4506408","prefecture":"愛知県","prefecture_kana":"アイチケン","city":"名古屋市中村区","city_kana":"ナゴヤシナカムラク","town":"名駅大名古屋ビルヂング　８階","town_kana":"メイエキダイナゴヤビルヂング8カイ","prefecture_code":23},"6409":{"zip_code":"4506409","prefecture":"愛知県","prefecture_kana":"アイチケン","city":"名古屋市中村区","city_kana":"ナゴヤシナカムラク","town":"名駅大名古屋ビルヂング　９階","town_kana":"メイエキダイナゴヤビルヂング9カイ","prefecture_code":23},"6410":{"zip_code":"4506410","prefecture":"愛知県","prefecture_kana":"アイチケン","city":"名古屋市中村区","city_kana":"ナゴヤシナカムラク","town":"名駅大名古屋ビルヂング　１０階","town_kana":"メイエキダイナゴヤビルヂング10カイ","prefecture_code":23},"6411":{"zip_code":"4506411","prefecture":"愛知県","prefecture_kana":"アイチケン","city":"名古屋市中村区","city_kana":"ナゴヤシナカムラク","town":"名駅大名古屋ビルヂング　１１階","town_kana":"メイエキダイナゴヤビルヂング11カイ","prefecture_code":23},"6412":{"zip_code":"4506412","prefecture":"愛知県","prefecture_kana":"アイチケン","city":"名古屋市中村区","city_kana":"ナゴヤシナカムラク","town":"名駅大名古屋ビルヂング　１２階","town_kana":"メイエキダイナゴヤビルヂング12カイ","prefecture_code":23},"6413":{"zip_code":"4506413","prefecture":"愛知県","prefecture_kana":"アイチケン","city":"名古屋市中村区","city_kana":"ナゴヤシナカムラク","town":"名駅大名古屋ビルヂング　１３階","town_kana":"メイエキダイナゴヤビルヂング13カイ","prefecture_code":23},"6414":{"zip_code":"4506414","prefecture":"愛知県","prefecture_kana":"アイチケン","city":"名古屋市中村区","city_kana":"ナゴヤシナカムラク","town":"名駅大名古屋ビルヂング　１４階","town_kana":"メイエキダイナゴヤビルヂング14カイ","prefecture_code":23},"6415":{"zip_code":"4506415","prefecture":"愛知県","prefecture_kana":"アイチケン","city":"名古屋市中村区","city_kana":"ナゴヤシナカムラク","town":"名駅大名古屋ビルヂング　１５階","town_kana":"メイエキダイナゴヤビルヂング15カイ","prefecture_code":23},"6416":{"zip_code":"4506416","prefecture":"愛知県","prefecture_kana":"アイチケン","city":"名古屋市中村区","city_kana":"ナゴヤシナカムラク","town":"名駅大名古屋ビルヂング　１６階","town_kana":"メイエキダイナゴヤビルヂング16カイ","prefecture_code":23},"6417":{"zip_code":"4506417","prefecture":"愛知県","prefecture_kana":"アイチケン","city":"名古屋市中村区","city_kana":"ナゴヤシナカムラク","town":"名駅大名古屋ビルヂング　１７階","town_kana":"メイエキダイナゴヤビルヂング17カイ","prefecture_code":23},"6418":{"zip_code":"4506418","prefecture":"愛知県","prefecture_kana":"アイチケン","city":"名古屋市中村区","city_kana":"ナゴヤシナカムラク","town":"名駅大名古屋ビルヂング　１８階","town_kana":"メイエキダイナゴヤビルヂング18カイ","prefecture_code":23},"6419":{"zip_code":"4506419","prefecture":"愛知県","prefecture_kana":"アイチケン","city":"名古屋市中村区","city_kana":"ナゴヤシナカムラク","town":"名駅大名古屋ビルヂング　１９階","town_kana":"メイエキダイナゴヤビルヂング19カイ","prefecture_code":23},"6420":{"zip_code":"4506420","prefecture":"愛知県","prefecture_kana":"アイチケン","city":"名古屋市中村区","city_kana":"ナゴヤシナカムラク","town":"名駅大名古屋ビルヂング　２０階","town_kana":"メイエキダイナゴヤビルヂング20カイ","prefecture_code":23},"6421":{"zip_code":"4506421","prefecture":"愛知県","prefecture_kana":"アイチケン","city":"名古屋市中村区","city_kana":"ナゴヤシナカムラク","town":"名駅大名古屋ビルヂング　２１階","town_kana":"メイエキダイナゴヤビルヂング21カイ","prefecture_code":23},"6422":{"zip_code":"4506422","prefecture":"愛知県","prefecture_kana":"アイチケン","city":"名古屋市中村区","city_kana":"ナゴヤシナカムラク","town":"名駅大名古屋ビルヂング　２２階","town_kana":"メイエキダイナゴヤビルヂング22カイ","prefecture_code":23},"6423":{"zip_code":"4506423","prefecture":"愛知県","prefecture_kana":"アイチケン","city":"名古屋市中村区","city_kana":"ナゴヤシナカムラク","town":"名駅大名古屋ビルヂング　２３階","town_kana":"メイエキダイナゴヤビルヂング23カイ","prefecture_code":23},"6424":{"zip_code":"4506424","prefecture":"愛知県","prefecture_kana":"アイチケン","city":"名古屋市中村区","city_kana":"ナゴヤシナカムラク","town":"名駅大名古屋ビルヂング　２４階","town_kana":"メイエキダイナゴヤビルヂング24カイ","prefecture_code":23},"6425":{"zip_code":"4506425","prefecture":"愛知県","prefecture_kana":"アイチケン","city":"名古屋市中村区","city_kana":"ナゴヤシナカムラク","town":"名駅大名古屋ビルヂング　２５階","town_kana":"メイエキダイナゴヤビルヂング25カイ","prefecture_code":23},"6426":{"zip_code":"4506426","prefecture":"愛知県","prefecture_kana":"アイチケン","city":"名古屋市中村区","city_kana":"ナゴヤシナカムラク","town":"名駅大名古屋ビルヂング　２６階","town_kana":"メイエキダイナゴヤビルヂング26カイ","prefecture_code":23},"6427":{"zip_code":"4506427","prefecture":"愛知県","prefecture_kana":"アイチケン","city":"名古屋市中村区","city_kana":"ナゴヤシナカムラク","town":"名駅大名古屋ビルヂング　２７階","town_kana":"メイエキダイナゴヤビルヂング27カイ","prefecture_code":23},"6428":{"zip_code":"4506428","prefecture":"愛知県","prefecture_kana":"アイチケン","city":"名古屋市中村区","city_kana":"ナゴヤシナカムラク","town":"名駅大名古屋ビルヂング　２８階","town_kana":"メイエキダイナゴヤビルヂング28カイ","prefecture_code":23},"6429":{"zip_code":"4506429","prefecture":"愛知県","prefecture_kana":"アイチケン","city":"名古屋市中村区","city_kana":"ナゴヤシナカムラク","town":"名駅大名古屋ビルヂング　２９階","town_kana":"メイエキダイナゴヤビルヂング29カイ","prefecture_code":23},"6430":{"zip_code":"4506430","prefecture":"愛知県","prefecture_kana":"アイチケン","city":"名古屋市中村区","city_kana":"ナゴヤシナカムラク","town":"名駅大名古屋ビルヂング　３０階","town_kana":"メイエキダイナゴヤビルヂング30カイ","prefecture_code":23},"6431":{"zip_code":"4506431","prefecture":"愛知県","prefecture_kana":"アイチケン","city":"名古屋市中村区","city_kana":"ナゴヤシナカムラク","town":"名駅大名古屋ビルヂング　３１階","town_kana":"メイエキダイナゴヤビルヂング31カイ","prefecture_code":23},"6432":{"zip_code":"4506432","prefecture":"愛知県","prefecture_kana":"アイチケン","city":"名古屋市中村区","city_kana":"ナゴヤシナカムラク","town":"名駅大名古屋ビルヂング　３２階","town_kana":"メイエキダイナゴヤビルヂング32カイ","prefecture_code":23},"6433":{"zip_code":"4506433","prefecture":"愛知県","prefecture_kana":"アイチケン","city":"名古屋市中村区","city_kana":"ナゴヤシナカムラク","town":"名駅大名古屋ビルヂング　３３階","town_kana":"メイエキダイナゴヤビルヂング33カイ","prefecture_code":23},"6434":{"zip_code":"4506434","prefecture":"愛知県","prefecture_kana":"アイチケン","city":"名古屋市中村区","city_kana":"ナゴヤシナカムラク","town":"名駅大名古屋ビルヂング　３４階","town_kana":"メイエキダイナゴヤビルヂング34カイ","prefecture_code":23},"6290":{"zip_code":"4506290","prefecture":"愛知県","prefecture_kana":"アイチケン","city":"名古屋市中村区","city_kana":"ナゴヤシナカムラク","town":"名駅ミッドランドスクエア高層棟","town_kana":"メイエキミッドランドスクエアコウソウトウ","prefecture_code":23},"6201":{"zip_code":"4506201","prefecture":"愛知県","prefecture_kana":"アイチケン","city":"名古屋市中村区","city_kana":"ナゴヤシナカムラク","town":"名駅ミッドランドスクエア高層棟　１階","town_kana":"メイエキミッドランドスクエアコウソウトウ1カイ","prefecture_code":23},"6202":{"zip_code":"4506202","prefecture":"愛知県","prefecture_kana":"アイチケン","city":"名古屋市中村区","city_kana":"ナゴヤシナカムラク","town":"名駅ミッドランドスクエア高層棟　２階","town_kana":"メイエキミッドランドスクエアコウソウトウ2カイ","prefecture_code":23},"6203":{"zip_code":"4506203","prefecture":"愛知県","prefecture_kana":"アイチケン","city":"名古屋市中村区","city_kana":"ナゴヤシナカムラク","town":"名駅ミッドランドスクエア高層棟　３階","town_kana":"メイエキミッドランドスクエアコウソウトウ3カイ","prefecture_code":23},"6204":{"zip_code":"4506204","prefecture":"愛知県","prefecture_kana":"アイチケン","city":"名古屋市中村区","city_kana":"ナゴヤシナカムラク","town":"名駅ミッドランドスクエア高層棟　４階","town_kana":"メイエキミッドランドスクエアコウソウトウ4カイ","prefecture_code":23},"6205":{"zip_code":"4506205","prefecture":"愛知県","prefecture_kana":"アイチケン","city":"名古屋市中村区","city_kana":"ナゴヤシナカムラク","town":"名駅ミッドランドスクエア高層棟　５階","town_kana":"メイエキミッドランドスクエアコウソウトウ5カイ","prefecture_code":23},"6206":{"zip_code":"4506206","prefecture":"愛知県","prefecture_kana":"アイチケン","city":"名古屋市中村区","city_kana":"ナゴヤシナカムラク","town":"名駅ミッドランドスクエア高層棟　６階","town_kana":"メイエキミッドランドスクエアコウソウトウ6カイ","prefecture_code":23},"6207":{"zip_code":"4506207","prefecture":"愛知県","prefecture_kana":"アイチケン","city":"名古屋市中村区","city_kana":"ナゴヤシナカムラク","town":"名駅ミッドランドスクエア高層棟　７階","town_kana":"メイエキミッドランドスクエアコウソウトウ7カイ","prefecture_code":23},"6208":{"zip_code":"4506208","prefecture":"愛知県","prefecture_kana":"アイチケン","city":"名古屋市中村区","city_kana":"ナゴヤシナカムラク","town":"名駅ミッドランドスクエア高層棟　８階","town_kana":"メイエキミッドランドスクエアコウソウトウ8カイ","prefecture_code":23},"6209":{"zip_code":"4506209","prefecture":"愛知県","prefecture_kana":"アイチケン","city":"名古屋市中村区","city_kana":"ナゴヤシナカムラク","town":"名駅ミッドランドスクエア高層棟　９階","town_kana":"メイエキミッドランドスクエアコウソウトウ9カイ","prefecture_code":23},"6210":{"zip_code":"4506210","prefecture":"愛知県","prefecture_kana":"アイチケン","city":"名古屋市中村区","city_kana":"ナゴヤシナカムラク","town":"名駅ミッドランドスクエア高層棟　１０階","town_kana":"メイエキミッドランドスクエアコウソウトウ10カイ","prefecture_code":23},"6211":{"zip_code":"4506211","prefecture":"愛知県","prefecture_kana":"アイチケン","city":"名古屋市中村区","city_kana":"ナゴヤシナカムラク","town":"名駅ミッドランドスクエア高層棟　１１階","town_kana":"メイエキミッドランドスクエアコウソウトウ11カイ","prefecture_code":23},"6212":{"zip_code":"4506212","prefecture":"愛知県","prefecture_kana":"アイチケン","city":"名古屋市中村区","city_kana":"ナゴヤシナカムラク","town":"名駅ミッドランドスクエア高層棟　１２階","town_kana":"メイエキミッドランドスクエアコウソウトウ12カイ","prefecture_code":23},"6213":{"zip_code":"4506213","prefecture":"愛知県","prefecture_kana":"アイチケン","city":"名古屋市中村区","city_kana":"ナゴヤシナカムラク","town":"名駅ミッドランドスクエア高層棟　１３階","town_kana":"メイエキミッドランドスクエアコウソウトウ13カイ","prefecture_code":23},"6214":{"zip_code":"4506214","prefecture":"愛知県","prefecture_kana":"アイチケン","city":"名古屋市中村区","city_kana":"ナゴヤシナカムラク","town":"名駅ミッドランドスクエア高層棟　１４階","town_kana":"メイエキミッドランドスクエアコウソウトウ14カイ","prefecture_code":23},"6215":{"zip_code":"4506215","prefecture":"愛知県","prefecture_kana":"アイチケン","city":"名古屋市中村区","city_kana":"ナゴヤシナカムラク","town":"名駅ミッドランドスクエア高層棟　１５階","town_kana":"メイエキミッドランドスクエアコウソウトウ15カイ","prefecture_code":23},"6216":{"zip_code":"4506216","prefecture":"愛知県","prefecture_kana":"アイチケン","city":"名古屋市中村区","city_kana":"ナゴヤシナカムラク","town":"名駅ミッドランドスクエア高層棟　１６階","town_kana":"メイエキミッドランドスクエアコウソウトウ16カイ","prefecture_code":23},"6217":{"zip_code":"4506217","prefecture":"愛知県","prefecture_kana":"アイチケン","city":"名古屋市中村区","city_kana":"ナゴヤシナカムラク","town":"名駅ミッドランドスクエア高層棟　１７階","town_kana":"メイエキミッドランドスクエアコウソウトウ17カイ","prefecture_code":23},"6218":{"zip_code":"4506218","prefecture":"愛知県","prefecture_kana":"アイチケン","city":"名古屋市中村区","city_kana":"ナゴヤシナカムラク","town":"名駅ミッドランドスクエア高層棟　１８階","town_kana":"メイエキミッドランドスクエアコウソウトウ18カイ","prefecture_code":23},"6219":{"zip_code":"4506219","prefecture":"愛知県","prefecture_kana":"アイチケン","city":"名古屋市中村区","city_kana":"ナゴヤシナカムラク","town":"名駅ミッドランドスクエア高層棟　１９階","town_kana":"メイエキミッドランドスクエアコウソウトウ19カイ","prefecture_code":23},"6220":{"zip_code":"4506220","prefecture":"愛知県","prefecture_kana":"アイチケン","city":"名古屋市中村区","city_kana":"ナゴヤシナカムラク","town":"名駅ミッドランドスクエア高層棟　２０階","town_kana":"メイエキミッドランドスクエアコウソウトウ20カイ","prefecture_code":23},"6221":{"zip_code":"4506221","prefecture":"愛知県","prefecture_kana":"アイチケン","city":"名古屋市中村区","city_kana":"ナゴヤシナカムラク","town":"名駅ミッドランドスクエア高層棟　２１階","town_kana":"メイエキミッドランドスクエアコウソウトウ21カイ","prefecture_code":23},"6222":{"zip_code":"4506222","prefecture":"愛知県","prefecture_kana":"アイチケン","city":"名古屋市中村区","city_kana":"ナゴヤシナカムラク","town":"名駅ミッドランドスクエア高層棟　２２階","town_kana":"メイエキミッドランドスクエアコウソウトウ22カイ","prefecture_code":23},"6223":{"zip_code":"4506223","prefecture":"愛知県","prefecture_kana":"アイチケン","city":"名古屋市中村区","city_kana":"ナゴヤシナカムラク","town":"名駅ミッドランドスクエア高層棟　２３階","town_kana":"メイエキミッドランドスクエアコウソウトウ23カイ","prefecture_code":23},"6224":{"zip_code":"4506224","prefecture":"愛知県","prefecture_kana":"アイチケン","city":"名古屋市中村区","city_kana":"ナゴヤシナカムラク","town":"名駅ミッドランドスクエア高層棟　２４階","town_kana":"メイエキミッドランドスクエアコウソウトウ24カイ","prefecture_code":23},"6225":{"zip_code":"4506225","prefecture":"愛知県","prefecture_kana":"アイチケン","city":"名古屋市中村区","city_kana":"ナゴヤシナカムラク","town":"名駅ミッドランドスクエア高層棟　２５階","town_kana":"メイエキミッドランドスクエアコウソウトウ25カイ","prefecture_code":23},"6226":{"zip_code":"4506226","prefecture":"愛知県","prefecture_kana":"アイチケン","city":"名古屋市中村区","city_kana":"ナゴヤシナカムラク","town":"名駅ミッドランドスクエア高層棟　２６階","town_kana":"メイエキミッドランドスクエアコウソウトウ26カイ","prefecture_code":23},"6227":{"zip_code":"4506227","prefecture":"愛知県","prefecture_kana":"アイチケン","city":"名古屋市中村区","city_kana":"ナゴヤシナカムラク","town":"名駅ミッドランドスクエア高層棟　２７階","town_kana":"メイエキミッドランドスクエアコウソウトウ27カイ","prefecture_code":23},"6228":{"zip_code":"4506228","prefecture":"愛知県","prefecture_kana":"アイチケン","city":"名古屋市中村区","city_kana":"ナゴヤシナカムラク","town":"名駅ミッドランドスクエア高層棟　２８階","town_kana":"メイエキミッドランドスクエアコウソウトウ28カイ","prefecture_code":23},"6229":{"zip_code":"4506229","prefecture":"愛知県","prefecture_kana":"アイチケン","city":"名古屋市中村区","city_kana":"ナゴヤシナカムラク","town":"名駅ミッドランドスクエア高層棟　２９階","town_kana":"メイエキミッドランドスクエアコウソウトウ29カイ","prefecture_code":23},"6230":{"zip_code":"4506230","prefecture":"愛知県","prefecture_kana":"アイチケン","city":"名古屋市中村区","city_kana":"ナゴヤシナカムラク","town":"名駅ミッドランドスクエア高層棟　３０階","town_kana":"メイエキミッドランドスクエアコウソウトウ30カイ","prefecture_code":23},"6231":{"zip_code":"4506231","prefecture":"愛知県","prefecture_kana":"アイチケン","city":"名古屋市中村区","city_kana":"ナゴヤシナカムラク","town":"名駅ミッドランドスクエア高層棟　３１階","town_kana":"メイエキミッドランドスクエアコウソウトウ31カイ","prefecture_code":23},"6232":{"zip_code":"4506232","prefecture":"愛知県","prefecture_kana":"アイチケン","city":"名古屋市中村区","city_kana":"ナゴヤシナカムラク","town":"名駅ミッドランドスクエア高層棟　３２階","town_kana":"メイエキミッドランドスクエアコウソウトウ32カイ","prefecture_code":23},"6233":{"zip_code":"4506233","prefecture":"愛知県","prefecture_kana":"アイチケン","city":"名古屋市中村区","city_kana":"ナゴヤシナカムラク","town":"名駅ミッドランドスクエア高層棟　３３階","town_kana":"メイエキミッドランドスクエアコウソウトウ33カイ","prefecture_code":23},"6234":{"zip_code":"4506234","prefecture":"愛知県","prefecture_kana":"アイチケン","city":"名古屋市中村区","city_kana":"ナゴヤシナカムラク","town":"名駅ミッドランドスクエア高層棟　３４階","town_kana":"メイエキミッドランドスクエアコウソウトウ34カイ","prefecture_code":23},"6235":{"zip_code":"4506235","prefecture":"愛知県","prefecture_kana":"アイチケン","city":"名古屋市中村区","city_kana":"ナゴヤシナカムラク","town":"名駅ミッドランドスクエア高層棟　３５階","town_kana":"メイエキミッドランドスクエアコウソウトウ35カイ","prefecture_code":23},"6236":{"zip_code":"4506236","prefecture":"愛知県","prefecture_kana":"アイチケン","city":"名古屋市中村区","city_kana":"ナゴヤシナカムラク","town":"名駅ミッドランドスクエア高層棟　３６階","town_kana":"メイエキミッドランドスクエアコウソウトウ36カイ","prefecture_code":23},"6237":{"zip_code":"4506237","prefecture":"愛知県","prefecture_kana":"アイチケン","city":"名古屋市中村区","city_kana":"ナゴヤシナカムラク","town":"名駅ミッドランドスクエア高層棟　３７階","town_kana":"メイエキミッドランドスクエアコウソウトウ37カイ","prefecture_code":23},"6238":{"zip_code":"4506238","prefecture":"愛知県","prefecture_kana":"アイチケン","city":"名古屋市中村区","city_kana":"ナゴヤシナカムラク","town":"名駅ミッドランドスクエア高層棟　３８階","town_kana":"メイエキミッドランドスクエアコウソウトウ38カイ","prefecture_code":23},"6239":{"zip_code":"4506239","prefecture":"愛知県","prefecture_kana":"アイチケン","city":"名古屋市中村区","city_kana":"ナゴヤシナカムラク","town":"名駅ミッドランドスクエア高層棟　３９階","town_kana":"メイエキミッドランドスクエアコウソウトウ39カイ","prefecture_code":23},"6240":{"zip_code":"4506240","prefecture":"愛知県","prefecture_kana":"アイチケン","city":"名古屋市中村区","city_kana":"ナゴヤシナカムラク","town":"名駅ミッドランドスクエア高層棟　４０階","town_kana":"メイエキミッドランドスクエアコウソウトウ40カイ","prefecture_code":23},"6241":{"zip_code":"4506241","prefecture":"愛知県","prefecture_kana":"アイチケン","city":"名古屋市中村区","city_kana":"ナゴヤシナカムラク","town":"名駅ミッドランドスクエア高層棟　４１階","town_kana":"メイエキミッドランドスクエアコウソウトウ41カイ","prefecture_code":23},"6242":{"zip_code":"4506242","prefecture":"愛知県","prefecture_kana":"アイチケン","city":"名古屋市中村区","city_kana":"ナゴヤシナカムラク","town":"名駅ミッドランドスクエア高層棟　４２階","town_kana":"メイエキミッドランドスクエアコウソウトウ42カイ","prefecture_code":23},"6243":{"zip_code":"4506243","prefecture":"愛知県","prefecture_kana":"アイチケン","city":"名古屋市中村区","city_kana":"ナゴヤシナカムラク","town":"名駅ミッドランドスクエア高層棟　４３階","town_kana":"メイエキミッドランドスクエアコウソウトウ43カイ","prefecture_code":23},"6244":{"zip_code":"4506244","prefecture":"愛知県","prefecture_kana":"アイチケン","city":"名古屋市中村区","city_kana":"ナゴヤシナカムラク","town":"名駅ミッドランドスクエア高層棟　４４階","town_kana":"メイエキミッドランドスクエアコウソウトウ44カイ","prefecture_code":23},"6245":{"zip_code":"4506245","prefecture":"愛知県","prefecture_kana":"アイチケン","city":"名古屋市中村区","city_kana":"ナゴヤシナカムラク","town":"名駅ミッドランドスクエア高層棟　４５階","town_kana":"メイエキミッドランドスクエアコウソウトウ45カイ","prefecture_code":23},"6246":{"zip_code":"4506246","prefecture":"愛知県","prefecture_kana":"アイチケン","city":"名古屋市中村区","city_kana":"ナゴヤシナカムラク","town":"名駅ミッドランドスクエア高層棟　４６階","town_kana":"メイエキミッドランドスクエアコウソウトウ46カイ","prefecture_code":23},"6247":{"zip_code":"4506247","prefecture":"愛知県","prefecture_kana":"アイチケン","city":"名古屋市中村区","city_kana":"ナゴヤシナカムラク","town":"名駅ミッドランドスクエア高層棟　４７階","town_kana":"メイエキミッドランドスクエアコウソウトウ47カイ","prefecture_code":23},"0002":{"zip_code":"4500002","prefecture":"愛知県","prefecture_kana":"アイチケン","city":"名古屋市中村区","city_kana":"ナゴヤシナカムラク","town":"名駅","town_kana":"メイエキ","prefecture_code":23},"0003":{"zip_code":"4500003","prefecture":"愛知県","prefecture_kana":"アイチケン","city":"名古屋市中村区","city_kana":"ナゴヤシナカムラク","town":"名駅南","town_kana":"メイエキミナミ","prefecture_code":23},"8583":{"zip_code":"4508583","prefecture":"愛知県","city":"名古屋市中村区","town":"名駅南","prefecture_code":23},"8995":{"zip_code":"4508995","prefecture":"愛知県","city":"名古屋市中村区","town":"名駅","prefecture_code":23},"8511":{"zip_code":"4508511","prefecture":"愛知県","city":"名古屋市中村区","town":"名駅南","prefecture_code":23},"8765":{"zip_code":"4508765","prefecture":"愛知県","city":"名古屋市中村区","town":"名駅南","prefecture_code":23},"8515":{"zip_code":"4508515","prefecture":"愛知県","city":"名古屋市中村区","town":"名駅","prefecture_code":23},"8561":{"zip_code":"4508561","prefecture":"愛知県","city":"名古屋市中村区","town":"名駅","prefecture_code":23},"8533":{"zip_code":"4508533","prefecture":"愛知県","city":"名古屋市中村区","town":"名駅","prefecture_code":23},"8651":{"zip_code":"4508651","prefecture":"愛知県","city":"名古屋市中村区","town":"名駅","prefecture_code":23},"8505":{"zip_code":"4508505","prefecture":"愛知県","city":"名古屋市中村区","town":"名駅","prefecture_code":23},"8585":{"zip_code":"4508585","prefecture":"愛知県","city":"名古屋市中村区","town":"名駅","prefecture_code":23},"8567":{"zip_code":"4508567","prefecture":"愛知県","city":"名古屋市中村区","town":"名駅","prefecture_code":23},"8520":{"zip_code":"4508520","prefecture":"愛知県","city":"名古屋市中村区","town":"名駅","prefecture_code":23},"6133":{"zip_code":"4506133","prefecture":"愛知県","city":"名古屋市中村区","town":"名駅","prefecture_code":23},"8615":{"zip_code":"4508615","prefecture":"愛知県","city":"名古屋市中村区","town":"名駅南","prefecture_code":23},"6363":{"zip_code":"4506363","prefecture":"愛知県","city":"名古屋市中村区","town":"名駅","prefecture_code":23},"8640":{"zip_code":"4508640","prefecture":"愛知県","city":"名古屋市中村区","town":"那古野","prefecture_code":23},"8614":{"zip_code":"4508614","prefecture":"愛知県","city":"名古屋市中村区","town":"名駅南","prefecture_code":23},"8711":{"zip_code":"4508711","prefecture":"愛知県","city":"名古屋市中村区","town":"名駅","prefecture_code":23},"8575":{"zip_code":"4508575","prefecture":"愛知県","city":"名古屋市中村区","town":"名駅","prefecture_code":23},"8626":{"zip_code":"4508626","prefecture":"愛知県","city":"名古屋市中村区","town":"名駅南","prefecture_code":23},"6660":{"zip_code":"4506660","prefecture":"愛知県","city":"名古屋市中村区","town":"名駅","prefecture_code":23},"8501":{"zip_code":"4508501","prefecture":"愛知県","city":"名古屋市中村区","town":"名駅","prefecture_code":23},"8730":{"zip_code":"4508730","prefecture":"愛知県","city":"名古屋市中村区","town":"名駅南","prefecture_code":23},"8601":{"zip_code":"4508601","prefecture":"愛知県","city":"名古屋市中村区","town":"名駅南","prefecture_code":23},"8997":{"zip_code":"4508997","prefecture":"愛知県","city":"名古屋市中村区","town":"名駅","prefecture_code":23},"8996":{"zip_code":"4508996","prefecture":"愛知県","city":"名古屋市中村区","town":"名駅","prefecture_code":23},"8620":{"zip_code":"4508620","prefecture":"愛知県","city":"名古屋市中村区","town":"名駅南","prefecture_code":23},"8611":{"zip_code":"4508611","prefecture":"愛知県","city":"名古屋市中村区","town":"名駅南","prefecture_code":23},"8680":{"zip_code":"4508680","prefecture":"愛知県","city":"名古屋市中村区","town":"名駅","prefecture_code":23},"8577":{"zip_code":"4508577","prefecture":"愛知県","city":"名古屋市中村区","town":"名駅南","prefecture_code":23},"8618":{"zip_code":"4508618","prefecture":"愛知県","city":"名古屋市中村区","town":"名駅南","prefecture_code":23},"8540":{"zip_code":"4508540","prefecture":"愛知県","city":"名古屋市中村区","town":"名駅","prefecture_code":23},"8523":{"zip_code":"4508523","prefecture":"愛知県","city":"名古屋市中村区","town":"名駅","prefecture_code":23},"8530":{"zip_code":"4508530","prefecture":"愛知県","city":"名古屋市中村区","town":"名駅","prefecture_code":23},"8993":{"zip_code":"4508993","prefecture":"愛知県","city":"名古屋市中村区","town":"名駅","prefecture_code":23},"8503":{"zip_code":"4508503","prefecture":"愛知県","city":"名古屋市中村区","town":"名駅","prefecture_code":23},"8677":{"zip_code":"4508677","prefecture":"愛知県","city":"名古屋市中村区","town":"名駅南","prefecture_code":23}}