{"0000":{"zip_code":"4600000","prefecture":"愛知県","prefecture_kana":"アイチケン","city":"名古屋市中区","city_kana":"ナゴヤシナカク","town":"","town_kana":"","prefecture_code":23},"0006":{"zip_code":"4600006","prefecture":"愛知県","prefecture_kana":"アイチケン","city":"名古屋市中区","city_kana":"ナゴヤシナカク","town":"葵","town_kana":"アオイ","prefecture_code":23},"0026":{"zip_code":"4600026","prefecture":"愛知県","prefecture_kana":"アイチケン","city":"名古屋市中区","city_kana":"ナゴヤシナカク","town":"伊勢山","town_kana":"イセヤマ","prefecture_code":23},"0015":{"zip_code":"4600015","prefecture":"愛知県","prefecture_kana":"アイチケン","city":"名古屋市中区","city_kana":"ナゴヤシナカク","town":"大井町","town_kana":"オオイチョウ","prefecture_code":23},"0011":{"zip_code":"4600011","prefecture":"愛知県","prefecture_kana":"アイチケン","city":"名古屋市中区","city_kana":"ナゴヤシナカク","town":"大須","town_kana":"オオス","prefecture_code":23},"0022":{"zip_code":"4600022","prefecture":"愛知県","prefecture_kana":"アイチケン","city":"名古屋市中区","city_kana":"ナゴヤシナカク","town":"金山","town_kana":"カナヤマ","prefecture_code":23},"0023":{"zip_code":"4600023","prefecture":"愛知県","prefecture_kana":"アイチケン","city":"名古屋市中区","city_kana":"ナゴヤシナカク","town":"金山町","town_kana":"カナヤマチョウ","prefecture_code":23},"0013":{"zip_code":"4600013","prefecture":"愛知県","prefecture_kana":"アイチケン","city":"名古屋市中区","city_kana":"ナゴヤシナカク","town":"上前津","town_kana":"カミマエヅ","prefecture_code":23},"0008":{"zip_code":"4600008","prefecture":"愛知県","prefecture_kana":"アイチケン","city":"名古屋市中区","city_kana":"ナゴヤシナカク","town":"栄","town_kana":"サカエ","prefecture_code":23},"0001":{"zip_code":"4600001","prefecture":"愛知県","prefecture_kana":"アイチケン","city":"名古屋市中区","city_kana":"ナゴヤシナカク","town":"三の丸","town_kana":"サンノマル","prefecture_code":23},"0007":{"zip_code":"4600007","prefecture":"愛知県","prefecture_kana":"アイチケン","city":"名古屋市中区","city_kana":"ナゴヤシナカク","town":"新栄","town_kana":"シンサカエ","prefecture_code":23},"0004":{"zip_code":"4600004","prefecture":"愛知県","prefecture_kana":"アイチケン","city":"名古屋市中区","city_kana":"ナゴヤシナカク","town":"新栄町","town_kana":"シンサカエマチ","prefecture_code":23},"0016":{"zip_code":"4600016","prefecture":"愛知県","prefecture_kana":"アイチケン","city":"名古屋市中区","city_kana":"ナゴヤシナカク","town":"橘","town_kana":"タチバナ","prefecture_code":23},"0012":{"zip_code":"4600012","prefecture":"愛知県","prefecture_kana":"アイチケン","city":"名古屋市中区","city_kana":"ナゴヤシナカク","town":"千代田","town_kana":"チヨダ","prefecture_code":23},"0003":{"zip_code":"4600003","prefecture":"愛知県","prefecture_kana":"アイチケン","city":"名古屋市中区","city_kana":"ナゴヤシナカク","town":"錦","town_kana":"ニシキ","prefecture_code":23},"0032":{"zip_code":"4600032","prefecture":"愛知県","prefecture_kana":"アイチケン","city":"名古屋市中区","city_kana":"ナゴヤシナカク","town":"二の丸","town_kana":"ニノマル","prefecture_code":23},"0005":{"zip_code":"4600005","prefecture":"愛知県","prefecture_kana":"アイチケン","city":"名古屋市中区","city_kana":"ナゴヤシナカク","town":"東桜","town_kana":"ヒガシサクラ","prefecture_code":23},"0014":{"zip_code":"4600014","prefecture":"愛知県","prefecture_kana":"アイチケン","city":"名古屋市中区","city_kana":"ナゴヤシナカク","town":"富士見町","town_kana":"フジミチョウ","prefecture_code":23},"0025":{"zip_code":"4600025","prefecture":"愛知県","prefecture_kana":"アイチケン","city":"名古屋市中区","city_kana":"ナゴヤシナカク","town":"古渡町","town_kana":"フルワタリチョウ","prefecture_code":23},"0021":{"zip_code":"4600021","prefecture":"愛知県","prefecture_kana":"アイチケン","city":"名古屋市中区","city_kana":"ナゴヤシナカク","town":"平和","town_kana":"ヘイワ","prefecture_code":23},"0031":{"zip_code":"4600031","prefecture":"愛知県","prefecture_kana":"アイチケン","city":"名古屋市中区","city_kana":"ナゴヤシナカク","town":"本丸","town_kana":"ホンマル","prefecture_code":23},"0024":{"zip_code":"4600024","prefecture":"愛知県","prefecture_kana":"アイチケン","city":"名古屋市中区","city_kana":"ナゴヤシナカク","town":"正木","town_kana":"マサキ","prefecture_code":23},"0017":{"zip_code":"4600017","prefecture":"愛知県","prefecture_kana":"アイチケン","city":"名古屋市中区","city_kana":"ナゴヤシナカク","town":"松原","town_kana":"マツバラ","prefecture_code":23},"0002":{"zip_code":"4600002","prefecture":"愛知県","prefecture_kana":"アイチケン","city":"名古屋市中区","city_kana":"ナゴヤシナカク","town":"丸の内","town_kana":"マルノウチ","prefecture_code":23},"0018":{"zip_code":"4600018","prefecture":"愛知県","prefecture_kana":"アイチケン","city":"名古屋市中区","city_kana":"ナゴヤシナカク","town":"門前町","town_kana":"モンゼンチョウ","prefecture_code":23},"8672":{"zip_code":"4608672","prefecture":"愛知県","city":"名古屋市中区","town":"千代田","prefecture_code":23},"8450":{"zip_code":"4608450","prefecture":"愛知県","city":"名古屋市中区","town":"栄","prefecture_code":23},"8512":{"zip_code":"4608512","prefecture":"愛知県","city":"名古屋市中区","town":"三の丸","prefecture_code":23},"8566":{"zip_code":"4608566","prefecture":"愛知県","city":"名古屋市中区","town":"丸の内","prefecture_code":23},"8483":{"zip_code":"4608483","prefecture":"愛知県","city":"名古屋市中区","town":"新栄町","prefecture_code":23},"8534":{"zip_code":"4608534","prefecture":"愛知県","city":"名古屋市中区","town":"三の丸","prefecture_code":23},"8507":{"zip_code":"4608507","prefecture":"愛知県","city":"名古屋市中区","town":"三の丸","prefecture_code":23},"8481":{"zip_code":"4608481","prefecture":"愛知県","city":"名古屋市中区","town":"新栄","prefecture_code":23},"8555":{"zip_code":"4608555","prefecture":"愛知県","city":"名古屋市中区","town":"丸の内","prefecture_code":23},"8630":{"zip_code":"4608630","prefecture":"愛知県","city":"名古屋市中区","town":"錦","prefecture_code":23},"8444":{"zip_code":"4608444","prefecture":"愛知県","city":"名古屋市中区","town":"栄","prefecture_code":23},"8619":{"zip_code":"4608619","prefecture":"愛知県","city":"名古屋市中区","town":"錦","prefecture_code":23},"8618":{"zip_code":"4608618","prefecture":"愛知県","city":"名古屋市中区","town":"錦","prefecture_code":23},"8558":{"zip_code":"4608558","prefecture":"愛知県","city":"名古屋市中区","town":"丸の内","prefecture_code":23},"8302":{"zip_code":"4608302","prefecture":"愛知県","city":"名古屋市中区","town":"大須","prefecture_code":23},"8468":{"zip_code":"4608468","prefecture":"愛知県","city":"名古屋市中区","town":"栄","prefecture_code":23},"8451":{"zip_code":"4608451","prefecture":"愛知県","city":"名古屋市中区","town":"栄","prefecture_code":23},"8360":{"zip_code":"4608360","prefecture":"愛知県","city":"名古屋市中区","town":"正木","prefecture_code":23},"8448":{"zip_code":"4608448","prefecture":"愛知県","city":"名古屋市中区","town":"栄","prefecture_code":23},"8439":{"zip_code":"4608439","prefecture":"愛知県","city":"名古屋市中区","town":"栄","prefecture_code":23},"8637":{"zip_code":"4608637","prefecture":"愛知県","city":"名古屋市中区","town":"丸の内","prefecture_code":23},"8540":{"zip_code":"4608540","prefecture":"愛知県","city":"名古屋市中区","town":"丸の内","prefecture_code":23},"8426":{"zip_code":"4608426","prefecture":"愛知県","city":"名古屋市中区","town":"栄","prefecture_code":23},"8586":{"zip_code":"4608586","prefecture":"愛知県","city":"名古屋市中区","town":"錦","prefecture_code":23},"8331":{"zip_code":"4608331","prefecture":"愛知県","city":"名古屋市中区","town":"上前津","prefecture_code":23},"8577":{"zip_code":"4608577","prefecture":"愛知県","city":"名古屋市中区","town":"丸の内","prefecture_code":23},"8402":{"zip_code":"4608402","prefecture":"愛知県","city":"名古屋市中区","town":"栄","prefecture_code":23},"8570":{"zip_code":"4608570","prefecture":"愛知県","city":"名古屋市中区","town":"丸の内","prefecture_code":23},"8606":{"zip_code":"4608606","prefecture":"愛知県","city":"名古屋市中区","town":"栄","prefecture_code":23},"8460":{"zip_code":"4608460","prefecture":"愛知県","city":"名古屋市中区","town":"新栄","prefecture_code":23},"8350":{"zip_code":"4608350","prefecture":"愛知県","city":"名古屋市中区","town":"正木","prefecture_code":23},"8633":{"zip_code":"4608633","prefecture":"愛知県","city":"名古屋市中区","town":"錦","prefecture_code":23},"8538":{"zip_code":"4608538","prefecture":"愛知県","city":"名古屋市中区","town":"錦","prefecture_code":23},"8430":{"zip_code":"4608430","prefecture":"愛知県","city":"名古屋市中区","town":"栄","prefecture_code":23},"8545":{"zip_code":"4608545","prefecture":"愛知県","city":"名古屋市中区","town":"錦","prefecture_code":23},"8533":{"zip_code":"4608533","prefecture":"愛知県","city":"名古屋市中区","town":"丸の内","prefecture_code":23},"8330":{"zip_code":"4608330","prefecture":"愛知県","city":"名古屋市中区","town":"上前津","prefecture_code":23},"8445":{"zip_code":"4608445","prefecture":"愛知県","city":"名古屋市中区","town":"栄","prefecture_code":23},"8408":{"zip_code":"4608408","prefecture":"愛知県","city":"名古屋市中区","town":"栄","prefecture_code":23},"8621":{"zip_code":"4608621","prefecture":"愛知県","city":"名古屋市中区","town":"錦","prefecture_code":23},"8608":{"zip_code":"4608608","prefecture":"愛知県","city":"名古屋市中区","town":"錦","prefecture_code":23},"8475":{"zip_code":"4608475","prefecture":"愛知県","city":"名古屋市中区","town":"新栄","prefecture_code":23},"8461":{"zip_code":"4608461","prefecture":"愛知県","city":"名古屋市中区","town":"新栄","prefecture_code":23},"8338":{"zip_code":"4608338","prefecture":"愛知県","city":"名古屋市中区","town":"古渡町","prefecture_code":23},"8433":{"zip_code":"4608433","prefecture":"愛知県","city":"名古屋市中区","town":"栄","prefecture_code":23},"8707":{"zip_code":"4608707","prefecture":"愛知県","city":"名古屋市中区","town":"錦","prefecture_code":23},"8603":{"zip_code":"4608603","prefecture":"愛知県","city":"名古屋市中区","town":"錦","prefecture_code":23},"8485":{"zip_code":"4608485","prefecture":"愛知県","city":"名古屋市中区","town":"千代田","prefecture_code":23},"8315":{"zip_code":"4608315","prefecture":"愛知県","city":"名古屋市中区","town":"大須","prefecture_code":23},"8435":{"zip_code":"4608435","prefecture":"愛知県","city":"名古屋市中区","town":"栄","prefecture_code":23},"8550":{"zip_code":"4608550","prefecture":"愛知県","city":"名古屋市中区","town":"丸の内","prefecture_code":23},"8440":{"zip_code":"4608440","prefecture":"愛知県","city":"名古屋市中区","town":"栄","prefecture_code":23},"8415":{"zip_code":"4608415","prefecture":"愛知県","city":"名古屋市中区","town":"栄","prefecture_code":23},"8351":[{"zip_code":"4608351","prefecture":"愛知県","city":"名古屋市中区","town":"正木","prefecture_code":23},{"zip_code":"4608351","prefecture":"愛知県","city":"名古屋市中区","town":"正木","prefecture_code":23}],"8416":{"zip_code":"4608416","prefecture":"愛知県","city":"名古屋市中区","town":"栄","prefecture_code":23},"8587":{"zip_code":"4608587","prefecture":"愛知県","city":"名古屋市中区","town":"錦","prefecture_code":23},"8403":{"zip_code":"4608403","prefecture":"愛知県","city":"名古屋市中区","town":"栄","prefecture_code":23},"8318":{"zip_code":"4608318","prefecture":"愛知県","city":"名古屋市中区","town":"千代田","prefecture_code":23},"8535":{"zip_code":"4608535","prefecture":"愛知県","city":"名古屋市中区","town":"栄","prefecture_code":23},"8477":{"zip_code":"4608477","prefecture":"愛知県","city":"名古屋市中区","town":"栄","prefecture_code":23},"8411":{"zip_code":"4608411","prefecture":"愛知県","city":"名古屋市中区","town":"栄","prefecture_code":23},"8532":{"zip_code":"4608532","prefecture":"愛知県","city":"名古屋市中区","town":"錦","prefecture_code":23},"8791":{"zip_code":"4608791","prefecture":"愛知県","city":"名古屋市中区","town":"大須","prefecture_code":23},"8623":{"zip_code":"4608623","prefecture":"愛知県","city":"名古屋市中区","town":"錦","prefecture_code":23},"8625":{"zip_code":"4608625","prefecture":"愛知県","city":"名古屋市中区","town":"錦","prefecture_code":23},"8631":{"zip_code":"4608631","prefecture":"愛知県","city":"名古屋市中区","town":"錦","prefecture_code":23},"8611":{"zip_code":"4608611","prefecture":"愛知県","city":"名古屋市中区","town":"錦","prefecture_code":23},"8517":{"zip_code":"4608517","prefecture":"愛知県","city":"名古屋市中区","town":"丸の内","prefecture_code":23},"8514":{"zip_code":"4608514","prefecture":"愛知県","city":"名古屋市中区","town":"三の丸","prefecture_code":23},"8201":{"zip_code":"4608201","prefecture":"愛知県","city":"名古屋市中区","town":"丸の内","prefecture_code":23},"8632":{"zip_code":"4608632","prefecture":"愛知県","city":"名古屋市中区","town":"錦","prefecture_code":23},"8333":{"zip_code":"4608333","prefecture":"愛知県","city":"名古屋市中区","town":"上前津","prefecture_code":23},"8614":{"zip_code":"4608614","prefecture":"愛知県","city":"名古屋市中区","town":"錦","prefecture_code":23},"8559":{"zip_code":"4608559","prefecture":"愛知県","city":"名古屋市中区","town":"丸の内","prefecture_code":23},"8580":{"zip_code":"4608580","prefecture":"愛知県","city":"名古屋市中区","town":"錦","prefecture_code":23},"8575":{"zip_code":"4608575","prefecture":"愛知県","city":"名古屋市中区","town":"丸の内","prefecture_code":23},"8530":{"zip_code":"4608530","prefecture":"愛知県","city":"名古屋市中区","town":"丸の内","prefecture_code":23},"8204":{"zip_code":"4608204","prefecture":"愛知県","city":"名古屋市中区","town":"栄","prefecture_code":23},"8473":{"zip_code":"4608473","prefecture":"愛知県","city":"名古屋市中区","town":"新栄","prefecture_code":23},"8455":{"zip_code":"4608455","prefecture":"愛知県","city":"名古屋市中区","town":"栄","prefecture_code":23},"8456":{"zip_code":"4608456","prefecture":"愛知県","city":"名古屋市中区","town":"栄","prefecture_code":23},"8358":{"zip_code":"4608358","prefecture":"愛知県","city":"名古屋市中区","town":"大須","prefecture_code":23},"8638":{"zip_code":"4608638","prefecture":"愛知県","city":"名古屋市中区","town":"錦","prefecture_code":23},"8312":{"zip_code":"4608312","prefecture":"愛知県","city":"名古屋市中区","town":"千代田","prefecture_code":23},"8551":{"zip_code":"4608551","prefecture":"愛知県","city":"名古屋市中区","town":"丸の内","prefecture_code":23},"8536":{"zip_code":"4608536","prefecture":"愛知県","city":"名古屋市中区","town":"錦","prefecture_code":23},"8420":{"zip_code":"4608420","prefecture":"愛知県","city":"名古屋市中区","town":"栄","prefecture_code":23},"8412":{"zip_code":"4608412","prefecture":"愛知県","city":"名古屋市中区","town":"錦","prefecture_code":23},"8383":{"zip_code":"4608383","prefecture":"愛知県","city":"名古屋市中区","town":"金山","prefecture_code":23},"8491":{"zip_code":"4608491","prefecture":"愛知県","city":"名古屋市中区","town":"葵","prefecture_code":23},"8434":{"zip_code":"4608434","prefecture":"愛知県","city":"名古屋市中区","town":"栄","prefecture_code":23},"8528":{"zip_code":"4608528","prefecture":"愛知県","city":"名古屋市中区","town":"三の丸","prefecture_code":23},"8510":{"zip_code":"4608510","prefecture":"愛知県","city":"名古屋市中区","town":"三の丸","prefecture_code":23},"8462":{"zip_code":"4608462","prefecture":"愛知県","city":"名古屋市中区","town":"新栄町","prefecture_code":23},"8310":{"zip_code":"4608310","prefecture":"愛知県","city":"名古屋市中区","town":"千代田","prefecture_code":23},"8425":{"zip_code":"4608425","prefecture":"愛知県","city":"名古屋市中区","town":"栄","prefecture_code":23},"8320":{"zip_code":"4608320","prefecture":"愛知県","city":"名古屋市中区","town":"松原","prefecture_code":23},"8482":{"zip_code":"4608482","prefecture":"愛知県","city":"名古屋市中区","town":"新栄町","prefecture_code":23},"8432":{"zip_code":"4608432","prefecture":"愛知県","city":"名古屋市中区","town":"栄","prefecture_code":23},"8521":{"zip_code":"4608521","prefecture":"愛知県","city":"名古屋市中区","town":"三の丸","prefecture_code":23},"8431":{"zip_code":"4608431","prefecture":"愛知県","city":"名古屋市中区","town":"錦","prefecture_code":23},"8516":{"zip_code":"4608516","prefecture":"愛知県","city":"名古屋市中区","town":"三の丸","prefecture_code":23},"8541":{"zip_code":"4608541","prefecture":"愛知県","city":"名古屋市中区","town":"丸の内","prefecture_code":23},"8615":{"zip_code":"4608615","prefecture":"愛知県","city":"名古屋市中区","town":"錦","prefecture_code":23},"8484":{"zip_code":"4608484","prefecture":"愛知県","city":"名古屋市中区","town":"錦","prefecture_code":23},"8515":{"zip_code":"4608515","prefecture":"愛知県","city":"名古屋市中区","town":"丸の内","prefecture_code":23},"8560":{"zip_code":"4608560","prefecture":"愛知県","city":"名古屋市中区","town":"丸の内","prefecture_code":23},"8505":{"zip_code":"4608505","prefecture":"愛知県","city":"名古屋市中区","town":"三の丸","prefecture_code":23},"8503":{"zip_code":"4608503","prefecture":"愛知県","city":"名古屋市中区","town":"三の丸","prefecture_code":23},"8520":{"zip_code":"4608520","prefecture":"愛知県","city":"名古屋市中区","town":"三の丸","prefecture_code":23},"8626":{"zip_code":"4608626","prefecture":"愛知県","city":"名古屋市中区","town":"正木","prefecture_code":23},"8202":{"zip_code":"4608202","prefecture":"愛知県","city":"名古屋市中区","town":"丸の内","prefecture_code":23},"8447":{"zip_code":"4608447","prefecture":"愛知県","city":"名古屋市中区","town":"栄","prefecture_code":23},"8422":{"zip_code":"4608422","prefecture":"愛知県","city":"名古屋市中区","town":"栄","prefecture_code":23},"8523":{"zip_code":"4608523","prefecture":"愛知県","city":"名古屋市中区","town":"三の丸","prefecture_code":23},"8504":{"zip_code":"4608504","prefecture":"愛知県","city":"名古屋市中区","town":"三の丸","prefecture_code":23},"8509":{"zip_code":"4608509","prefecture":"愛知県","city":"名古屋市中区","town":"三の丸","prefecture_code":23},"8311":{"zip_code":"4608311","prefecture":"愛知県","city":"名古屋市中区","town":"橘","prefecture_code":23},"8522":{"zip_code":"4608522","prefecture":"愛知県","city":"名古屋市中区","town":"三の丸","prefecture_code":23},"8513":{"zip_code":"4608513","prefecture":"愛知県","city":"名古屋市中区","town":"三の丸","prefecture_code":23},"8524":{"zip_code":"4608524","prefecture":"愛知県","city":"名古屋市中区","town":"三の丸","prefecture_code":23},"8601":{"zip_code":"4608601","prefecture":"愛知県","city":"名古屋市中区","town":"錦","prefecture_code":23},"8610":{"zip_code":"4608610","prefecture":"愛知県","city":"名古屋市中区","town":"錦","prefecture_code":23},"8203":{"zip_code":"4608203","prefecture":"愛知県","city":"名古屋市中区","town":"栄","prefecture_code":23},"8417":{"zip_code":"4608417","prefecture":"愛知県","city":"名古屋市中区","town":"新栄町","prefecture_code":23},"8525":{"zip_code":"4608525","prefecture":"愛知県","city":"名古屋市中区","town":"錦","prefecture_code":23},"8617":{"zip_code":"4608617","prefecture":"愛知県","city":"名古屋市中区","town":"丸の内","prefecture_code":23},"8366":{"zip_code":"4608366","prefecture":"愛知県","city":"名古屋市中区","town":"栄","prefecture_code":23},"8620":{"zip_code":"4608620","prefecture":"愛知県","city":"名古屋市中区","town":"錦","prefecture_code":23},"8506":{"zip_code":"4608506","prefecture":"愛知県","city":"名古屋市中区","town":"三の丸","prefecture_code":23},"8567":{"zip_code":"4608567","prefecture":"愛知県","city":"名古屋市中区","town":"丸の内","prefecture_code":23},"8628":{"zip_code":"4608628","prefecture":"愛知県","city":"名古屋市中区","town":"錦","prefecture_code":23},"8441":{"zip_code":"4608441","prefecture":"愛知県","city":"名古屋市中区","town":"栄","prefecture_code":23},"8518":{"zip_code":"4608518","prefecture":"愛知県","city":"名古屋市中区","town":"錦","prefecture_code":23},"8585":{"zip_code":"4608585","prefecture":"愛知県","city":"名古屋市中区","town":"錦","prefecture_code":23},"8404":{"zip_code":"4608404","prefecture":"愛知県","city":"名古屋市中区","town":"栄","prefecture_code":23},"8531":{"zip_code":"4608531","prefecture":"愛知県","city":"名古屋市中区","town":"丸の内","prefecture_code":23},"8605":{"zip_code":"4608605","prefecture":"愛知県","city":"名古屋市中区","town":"錦","prefecture_code":23},"8616":{"zip_code":"4608616","prefecture":"愛知県","city":"名古屋市中区","town":"錦","prefecture_code":23},"8543":{"zip_code":"4608543","prefecture":"愛知県","city":"名古屋市中区","town":"丸の内","prefecture_code":23},"8321":{"zip_code":"4608321","prefecture":"愛知県","city":"名古屋市中区","town":"新栄","prefecture_code":23},"8635":{"zip_code":"4608635","prefecture":"愛知県","city":"名古屋市中区","town":"錦","prefecture_code":23},"8685":{"zip_code":"4608685","prefecture":"愛知県","city":"名古屋市中区","town":"栄","prefecture_code":23},"8660":{"zip_code":"4608660","prefecture":"愛知県","city":"名古屋市中区","town":"錦","prefecture_code":23},"8574":{"zip_code":"4608574","prefecture":"愛知県","city":"名古屋市中区","town":"丸の内","prefecture_code":23},"8602":{"zip_code":"4608602","prefecture":"愛知県","city":"名古屋市中区","town":"錦","prefecture_code":23},"8588":{"zip_code":"4608588","prefecture":"愛知県","city":"名古屋市中区","town":"錦","prefecture_code":23},"8380":{"zip_code":"4608380","prefecture":"愛知県","city":"名古屋市中区","town":"金山","prefecture_code":23},"8490":{"zip_code":"4608490","prefecture":"愛知県","city":"名古屋市中区","town":"東桜","prefecture_code":23},"8472":{"zip_code":"4608472","prefecture":"愛知県","city":"名古屋市中区","town":"新栄","prefecture_code":23},"8314":{"zip_code":"4608314","prefecture":"愛知県","city":"名古屋市中区","town":"橘","prefecture_code":23},"8501":{"zip_code":"4608501","prefecture":"愛知県","city":"名古屋市中区","town":"三の丸","prefecture_code":23},"8405":{"zip_code":"4608405","prefecture":"愛知県","city":"名古屋市中区","town":"新栄","prefecture_code":23},"8508":{"zip_code":"4608508","prefecture":"愛知県","city":"名古屋市中区","town":"三の丸","prefecture_code":23},"8511":{"zip_code":"4608511","prefecture":"愛知県","city":"名古屋市中区","town":"三の丸","prefecture_code":23},"8319":{"zip_code":"4608319","prefecture":"愛知県","city":"名古屋市中区","town":"大須","prefecture_code":23},"8325":{"zip_code":"4608325","prefecture":"愛知県","city":"名古屋市中区","town":"大須","prefecture_code":23},"8470":{"zip_code":"4608470","prefecture":"愛知県","city":"名古屋市中区","town":"栄","prefecture_code":23},"8578":{"zip_code":"4608578","prefecture":"愛知県","city":"名古屋市中区","town":"丸の内","prefecture_code":23},"8388":{"zip_code":"4608388","prefecture":"愛知県","city":"名古屋市中区","town":"千代田","prefecture_code":23},"8401":{"zip_code":"4608401","prefecture":"愛知県","city":"名古屋市中区","town":"栄","prefecture_code":23},"8568":{"zip_code":"4608568","prefecture":"愛知県","city":"名古屋市中区","town":"栄","prefecture_code":23},"8488":{"zip_code":"4608488","prefecture":"愛知県","city":"名古屋市中区","town":"栄","prefecture_code":23},"8687":{"zip_code":"4608687","prefecture":"愛知県","city":"名古屋市中区","town":"古渡町","prefecture_code":23},"8683":{"zip_code":"4608683","prefecture":"愛知県","city":"名古屋市中区","town":"栄","prefecture_code":23},"8657":{"zip_code":"4608657","prefecture":"愛知県","city":"名古屋市中区","town":"大須","prefecture_code":23},"8666":{"zip_code":"4608666","prefecture":"愛知県","city":"名古屋市中区","town":"栄","prefecture_code":23},"8665":{"zip_code":"4608665","prefecture":"愛知県","city":"名古屋市中区","town":"栄","prefecture_code":23},"8678":{"zip_code":"4608678","prefecture":"愛知県","city":"名古屋市中区","town":"栄","prefecture_code":23},"8682":{"zip_code":"4608682","prefecture":"愛知県","city":"名古屋市中区","town":"錦","prefecture_code":23},"8650":{"zip_code":"4608650","prefecture":"愛知県","city":"名古屋市中区","town":"大須","prefecture_code":23},"8684":{"zip_code":"4608684","prefecture":"愛知県","city":"名古屋市中区","town":"錦","prefecture_code":23},"8670":{"zip_code":"4608670","prefecture":"愛知県","city":"名古屋市中区","town":"丸の内","prefecture_code":23},"8706":{"zip_code":"4608706","prefecture":"愛知県","city":"名古屋市中区","town":"錦","prefecture_code":23},"8681":{"zip_code":"4608681","prefecture":"愛知県","city":"名古屋市中区","town":"栄","prefecture_code":23},"8669":{"zip_code":"4608669","prefecture":"愛知県","city":"名古屋市中区","town":"栄","prefecture_code":23},"8656":{"zip_code":"4608656","prefecture":"愛知県","city":"名古屋市中区","town":"丸の内","prefecture_code":23},"8688":{"zip_code":"4608688","prefecture":"愛知県","city":"名古屋市中区","town":"栄","prefecture_code":23},"8674":{"zip_code":"4608674","prefecture":"愛知県","city":"名古屋市中区","town":"栄","prefecture_code":23},"8686":{"zip_code":"4608686","prefecture":"愛知県","city":"名古屋市中区","town":"平和","prefecture_code":23},"8718":{"zip_code":"4608718","prefecture":"愛知県","city":"名古屋市中区","town":"錦","prefecture_code":23},"8655":{"zip_code":"4608655","prefecture":"愛知県","city":"名古屋市中区","town":"千代田","prefecture_code":23},"8703":{"zip_code":"4608703","prefecture":"愛知県","city":"名古屋市中区","town":"栄","prefecture_code":23},"8667":{"zip_code":"4608667","prefecture":"愛知県","city":"名古屋市中区","town":"錦","prefecture_code":23},"8663":{"zip_code":"4608663","prefecture":"愛知県","city":"名古屋市中区","town":"丸の内","prefecture_code":23},"8653":{"zip_code":"4608653","prefecture":"愛知県","city":"名古屋市中区","town":"錦","prefecture_code":23},"8690":{"zip_code":"4608690","prefecture":"愛知県","city":"名古屋市中区","town":"正木","prefecture_code":23},"8704":{"zip_code":"4608704","prefecture":"愛知県","city":"名古屋市中区","town":"金山","prefecture_code":23},"8651":{"zip_code":"4608651","prefecture":"愛知県","city":"名古屋市中区","town":"錦","prefecture_code":23},"8720":{"zip_code":"4608720","prefecture":"愛知県","city":"名古屋市中区","town":"栄","prefecture_code":23},"8671":{"zip_code":"4608671","prefecture":"愛知県","city":"名古屋市中区","town":"錦","prefecture_code":23},"8701":{"zip_code":"4608701","prefecture":"愛知県","city":"名古屋市中区","town":"錦","prefecture_code":23},"8668":{"zip_code":"4608668","prefecture":"愛知県","city":"名古屋市中区","town":"錦","prefecture_code":23},"8708":{"zip_code":"4608708","prefecture":"愛知県","city":"名古屋市中区","town":"錦","prefecture_code":23},"8689":{"zip_code":"4608689","prefecture":"愛知県","city":"名古屋市中区","town":"錦","prefecture_code":23},"8711":{"zip_code":"4608711","prefecture":"愛知県","city":"名古屋市中区","town":"錦","prefecture_code":23},"8679":{"zip_code":"4608679","prefecture":"愛知県","city":"名古屋市中区","town":"錦","prefecture_code":23}}