{"0014":{"zip_code":"4950014","prefecture":"愛知県","prefecture_kana":"アイチケン","city":"稲沢市","city_kana":"イナザワシ","town":"祖父江町大牧","town_kana":"ソブエチョウオオマキ","prefecture_code":23},"0022":{"zip_code":"4950022","prefecture":"愛知県","prefecture_kana":"アイチケン","city":"稲沢市","city_kana":"イナザワシ","town":"祖父江町甲新田","town_kana":"ソブエチョウカブトシンデン","prefecture_code":23},"0031":{"zip_code":"4950031","prefecture":"愛知県","prefecture_kana":"アイチケン","city":"稲沢市","city_kana":"イナザワシ","town":"祖父江町上牧","town_kana":"ソブエチョウカンマキ","prefecture_code":23},"0015":{"zip_code":"4950015","prefecture":"愛知県","prefecture_kana":"アイチケン","city":"稲沢市","city_kana":"イナザワシ","town":"祖父江町桜方","town_kana":"ソブエチョウサクラガタ","prefecture_code":23},"0021":{"zip_code":"4950021","prefecture":"愛知県","prefecture_kana":"アイチケン","city":"稲沢市","city_kana":"イナザワシ","town":"祖父江町三丸渕","town_kana":"ソブエチョウサンマルブチ","prefecture_code":23},"0037":{"zip_code":"4950037","prefecture":"愛知県","prefecture_kana":"アイチケン","city":"稲沢市","city_kana":"イナザワシ","town":"祖父江町拾町野","town_kana":"ソブエチョウジッチョウノ","prefecture_code":23},"0023":{"zip_code":"4950023","prefecture":"愛知県","prefecture_kana":"アイチケン","city":"稲沢市","city_kana":"イナザワシ","town":"祖父江町島本","town_kana":"ソブエチョウシマモト","prefecture_code":23},"0035":{"zip_code":"4950035","prefecture":"愛知県","prefecture_kana":"アイチケン","city":"稲沢市","city_kana":"イナザワシ","town":"祖父江町神明津","town_kana":"ソブエチョウシンミョウヅ","prefecture_code":23},"0001":{"zip_code":"4950001","prefecture":"愛知県","prefecture_kana":"アイチケン","city":"稲沢市","city_kana":"イナザワシ","town":"祖父江町祖父江","town_kana":"ソブエチョウソブエ","prefecture_code":23},"0032":{"zip_code":"4950032","prefecture":"愛知県","prefecture_kana":"アイチケン","city":"稲沢市","city_kana":"イナザワシ","town":"祖父江町中牧","town_kana":"ソブエチョウナカマキ","prefecture_code":23},"0034":{"zip_code":"4950034","prefecture":"愛知県","prefecture_kana":"アイチケン","city":"稲沢市","city_kana":"イナザワシ","town":"祖父江町西鵜之本","town_kana":"ソブエチョウニシウノモト","prefecture_code":23},"0024":{"zip_code":"4950024","prefecture":"愛知県","prefecture_kana":"アイチケン","city":"稲沢市","city_kana":"イナザワシ","town":"祖父江町野田","town_kana":"ソブエチョウノダ","prefecture_code":23},"0013":{"zip_code":"4950013","prefecture":"愛知県","prefecture_kana":"アイチケン","city":"稲沢市","city_kana":"イナザワシ","town":"祖父江町二俣","town_kana":"ソブエチョウフタマタ","prefecture_code":23},"0012":{"zip_code":"4950012","prefecture":"愛知県","prefecture_kana":"アイチケン","city":"稲沢市","city_kana":"イナザワシ","town":"祖父江町本甲","town_kana":"ソブエチョウホンコウ","prefecture_code":23},"0036":{"zip_code":"4950036","prefecture":"愛知県","prefecture_kana":"アイチケン","city":"稲沢市","city_kana":"イナザワシ","town":"祖父江町馬飼","town_kana":"ソブエチョウマカイ","prefecture_code":23},"0011":{"zip_code":"4950011","prefecture":"愛知県","prefecture_kana":"アイチケン","city":"稲沢市","city_kana":"イナザワシ","town":"祖父江町森上","town_kana":"ソブエチョウモリカミ","prefecture_code":23},"0002":{"zip_code":"4950002","prefecture":"愛知県","prefecture_kana":"アイチケン","city":"稲沢市","city_kana":"イナザワシ","town":"祖父江町山崎","town_kana":"ソブエチョウヤマザキ","prefecture_code":23},"0033":{"zip_code":"4950033","prefecture":"愛知県","prefecture_kana":"アイチケン","city":"稲沢市","city_kana":"イナザワシ","town":"祖父江町四貫","town_kana":"ソブエチョウヨツノキ","prefecture_code":23},"0025":{"zip_code":"4950025","prefecture":"愛知県","prefecture_kana":"アイチケン","city":"稲沢市","city_kana":"イナザワシ","town":"祖父江町両寺内","town_kana":"ソブエチョウリョウジナイ","prefecture_code":23},"8501":{"zip_code":"4958501","prefecture":"愛知県","city":"稲沢市","town":"祖父江町森上","prefecture_code":23},"8531":{"zip_code":"4958531","prefecture":"愛知県","city":"稲沢市","town":"祖父江町本甲","prefecture_code":23},"8505":{"zip_code":"4958505","prefecture":"愛知県","city":"稲沢市","town":"祖父江町二俣","prefecture_code":23},"8511":{"zip_code":"4958511","prefecture":"愛知県","city":"稲沢市","town":"祖父江町上牧","prefecture_code":23},"8601":{"zip_code":"4958601","prefecture":"愛知県","city":"稲沢市","town":"祖父江町祖父江","prefecture_code":23},"8517":{"zip_code":"4958517","prefecture":"愛知県","city":"稲沢市","town":"祖父江町甲新田","prefecture_code":23},"8510":{"zip_code":"4958510","prefecture":"愛知県","city":"稲沢市","town":"祖父江町四貫","prefecture_code":23}}