{"0000":{"zip_code":"5500000","prefecture":"大阪府","prefecture_kana":"オオサカフ","city":"大阪市西区","city_kana":"オオサカシニシク","town":"","town_kana":"","prefecture_code":27},"0026":{"zip_code":"5500026","prefecture":"大阪府","prefecture_kana":"オオサカフ","city":"大阪市西区","city_kana":"オオサカシニシク","town":"安治川","town_kana":"アジガワ","prefecture_code":27},"0011":{"zip_code":"5500011","prefecture":"大阪府","prefecture_kana":"オオサカフ","city":"大阪市西区","city_kana":"オオサカシニシク","town":"阿波座","town_kana":"アワザ","prefecture_code":27},"0012":{"zip_code":"5500012","prefecture":"大阪府","prefecture_kana":"オオサカフ","city":"大阪市西区","city_kana":"オオサカシニシク","town":"立売堀","town_kana":"イタチボリ","prefecture_code":27},"0004":{"zip_code":"5500004","prefecture":"大阪府","prefecture_kana":"オオサカフ","city":"大阪市西区","city_kana":"オオサカシニシク","town":"靱本町","town_kana":"ウツボホンマチ","prefecture_code":27},"0002":{"zip_code":"5500002","prefecture":"大阪府","prefecture_kana":"オオサカフ","city":"大阪市西区","city_kana":"オオサカシニシク","town":"江戸堀","town_kana":"エドボリ","prefecture_code":27},"0006":{"zip_code":"5500006","prefecture":"大阪府","prefecture_kana":"オオサカフ","city":"大阪市西区","city_kana":"オオサカシニシク","town":"江之子島","town_kana":"エノコジマ","prefecture_code":27},"0021":{"zip_code":"5500021","prefecture":"大阪府","prefecture_kana":"オオサカフ","city":"大阪市西区","city_kana":"オオサカシニシク","town":"川口","town_kana":"カワグチ","prefecture_code":27},"0014":{"zip_code":"5500014","prefecture":"大阪府","prefecture_kana":"オオサカフ","city":"大阪市西区","city_kana":"オオサカシニシク","town":"北堀江","town_kana":"キタホリエ","prefecture_code":27},"0003":{"zip_code":"5500003","prefecture":"大阪府","prefecture_kana":"オオサカフ","city":"大阪市西区","city_kana":"オオサカシニシク","town":"京町堀","town_kana":"キョウマチボリ","prefecture_code":27},"0027":{"zip_code":"5500027","prefecture":"大阪府","prefecture_kana":"オオサカフ","city":"大阪市西区","city_kana":"オオサカシニシク","town":"九条","town_kana":"クジョウ","prefecture_code":27},"0025":{"zip_code":"5500025","prefecture":"大阪府","prefecture_kana":"オオサカフ","city":"大阪市西区","city_kana":"オオサカシニシク","town":"九条南","town_kana":"クジョウミナミ","prefecture_code":27},"0024":{"zip_code":"5500024","prefecture":"大阪府","prefecture_kana":"オオサカフ","city":"大阪市西区","city_kana":"オオサカシニシク","town":"境川","town_kana":"サカイガワ","prefecture_code":27},"0013":{"zip_code":"5500013","prefecture":"大阪府","prefecture_kana":"オオサカフ","city":"大阪市西区","city_kana":"オオサカシニシク","town":"新町","town_kana":"シンマチ","prefecture_code":27},"0023":{"zip_code":"5500023","prefecture":"大阪府","prefecture_kana":"オオサカフ","city":"大阪市西区","city_kana":"オオサカシニシク","town":"千代崎","town_kana":"チヨザキ","prefecture_code":27},"0001":{"zip_code":"5500001","prefecture":"大阪府","prefecture_kana":"オオサカフ","city":"大阪市西区","city_kana":"オオサカシニシク","town":"土佐堀","town_kana":"トサボリ","prefecture_code":27},"0005":{"zip_code":"5500005","prefecture":"大阪府","prefecture_kana":"オオサカフ","city":"大阪市西区","city_kana":"オオサカシニシク","town":"西本町","town_kana":"ニシホンマチ","prefecture_code":27},"0022":{"zip_code":"5500022","prefecture":"大阪府","prefecture_kana":"オオサカフ","city":"大阪市西区","city_kana":"オオサカシニシク","town":"本田","town_kana":"ホンデン","prefecture_code":27},"0015":{"zip_code":"5500015","prefecture":"大阪府","prefecture_kana":"オオサカフ","city":"大阪市西区","city_kana":"オオサカシニシク","town":"南堀江","town_kana":"ミナミホリエ","prefecture_code":27},"8578":{"zip_code":"5508578","prefecture":"大阪府","city":"大阪市西区","town":"北堀江","prefecture_code":27},"8527":{"zip_code":"5508527","prefecture":"大阪府","city":"大阪市西区","town":"江戸堀","prefecture_code":27},"8552":{"zip_code":"5508552","prefecture":"大阪府","city":"大阪市西区","town":"九条南","prefecture_code":27},"8566":{"zip_code":"5508566","prefecture":"大阪府","city":"大阪市西区","town":"九条南","prefecture_code":27},"8501":{"zip_code":"5508501","prefecture":"大阪府","city":"大阪市西区","town":"新町","prefecture_code":27},"8567":{"zip_code":"5508567","prefecture":"大阪府","city":"大阪市西区","town":"立売堀","prefecture_code":27},"8505":{"zip_code":"5508505","prefecture":"大阪府","city":"大阪市西区","town":"本田","prefecture_code":27},"8659":{"zip_code":"5508659","prefecture":"大阪府","city":"大阪市西区","town":"靱本町","prefecture_code":27},"8558":{"zip_code":"5508558","prefecture":"大阪府","city":"大阪市西区","town":"江戸堀","prefecture_code":27},"8530":{"zip_code":"5508530","prefecture":"大阪府","city":"大阪市西区","town":"靱本町","prefecture_code":27},"8580":{"zip_code":"5508580","prefecture":"大阪府","city":"大阪市西区","town":"北堀江","prefecture_code":27},"8575":{"zip_code":"5508575","prefecture":"大阪府","city":"大阪市西区","town":"江戸堀","prefecture_code":27},"8555":{"zip_code":"5508555","prefecture":"大阪府","city":"大阪市西区","town":"西本町","prefecture_code":27},"8538":{"zip_code":"5508538","prefecture":"大阪府","city":"大阪市西区","town":"江戸堀","prefecture_code":27},"8502":{"zip_code":"5508502","prefecture":"大阪府","city":"大阪市西区","town":"立売堀","prefecture_code":27},"8550":{"zip_code":"5508550","prefecture":"大阪府","city":"大阪市西区","town":"阿波座","prefecture_code":27},"8510":{"zip_code":"5508510","prefecture":"大阪府","city":"大阪市西区","town":"靱本町","prefecture_code":27},"8577":{"zip_code":"5508577","prefecture":"大阪府","city":"大阪市西区","town":"江戸堀","prefecture_code":27},"8508":{"zip_code":"5508508","prefecture":"大阪府","city":"大阪市西区","town":"南堀江","prefecture_code":27},"8587":{"zip_code":"5508587","prefecture":"大阪府","city":"大阪市西区","town":"土佐堀","prefecture_code":27},"8570":{"zip_code":"5508570","prefecture":"大阪府","city":"大阪市西区","town":"江戸堀","prefecture_code":27},"8662":{"zip_code":"5508662","prefecture":"大阪府","city":"大阪市西区","town":"新町","prefecture_code":27},"8585":{"zip_code":"5508585","prefecture":"大阪府","city":"大阪市西区","town":"北堀江","prefecture_code":27},"8503":{"zip_code":"5508503","prefecture":"大阪府","city":"大阪市西区","town":"西本町","prefecture_code":27},"8660":{"zip_code":"5508660","prefecture":"大阪府","city":"大阪市西区","town":"立売堀","prefecture_code":27}}