{"0000":{"zip_code":"5590000","prefecture":"大阪府","prefecture_kana":"オオサカフ","city":"大阪市住之江区","city_kana":"オオサカシスミノエク","town":"","town_kana":"","prefecture_code":27},"0003":{"zip_code":"5590003","prefecture":"大阪府","prefecture_kana":"オオサカフ","city":"大阪市住之江区","city_kana":"オオサカシスミノエク","town":"安立","town_kana":"アンリュウ","prefecture_code":27},"0023":{"zip_code":"5590023","prefecture":"大阪府","prefecture_kana":"オオサカフ","city":"大阪市住之江区","city_kana":"オオサカシスミノエク","town":"泉","town_kana":"イズミ","prefecture_code":27},"0011":{"zip_code":"5590011","prefecture":"大阪府","prefecture_kana":"オオサカフ","city":"大阪市住之江区","city_kana":"オオサカシスミノエク","town":"北加賀屋","town_kana":"キタカガヤ","prefecture_code":27},"0014":{"zip_code":"5590014","prefecture":"大阪府","prefecture_kana":"オオサカフ","city":"大阪市住之江区","city_kana":"オオサカシスミノエク","town":"北島","town_kana":"キタジマ","prefecture_code":27},"0001":{"zip_code":"5590001","prefecture":"大阪府","prefecture_kana":"オオサカフ","city":"大阪市住之江区","city_kana":"オオサカシスミノエク","town":"粉浜","town_kana":"コハマ","prefecture_code":27},"0007":{"zip_code":"5590007","prefecture":"大阪府","prefecture_kana":"オオサカフ","city":"大阪市住之江区","city_kana":"オオサカシスミノエク","town":"粉浜西","town_kana":"コハマニシ","prefecture_code":27},"0021":{"zip_code":"5590021","prefecture":"大阪府","prefecture_kana":"オオサカフ","city":"大阪市住之江区","city_kana":"オオサカシスミノエク","town":"柴谷","town_kana":"シバタニ","prefecture_code":27},"0024":{"zip_code":"5590024","prefecture":"大阪府","prefecture_kana":"オオサカフ","city":"大阪市住之江区","city_kana":"オオサカシスミノエク","town":"新北島","town_kana":"シンキタジマ","prefecture_code":27},"0004":{"zip_code":"5590004","prefecture":"大阪府","prefecture_kana":"オオサカフ","city":"大阪市住之江区","city_kana":"オオサカシスミノエク","town":"住之江","town_kana":"スミノエ","prefecture_code":27},"0017":{"zip_code":"5590017","prefecture":"大阪府","prefecture_kana":"オオサカフ","city":"大阪市住之江区","city_kana":"オオサカシスミノエク","town":"中加賀屋","town_kana":"ナカカガヤ","prefecture_code":27},"0033":{"zip_code":"5590033","prefecture":"大阪府","prefecture_kana":"オオサカフ","city":"大阪市住之江区","city_kana":"オオサカシスミノエク","town":"南港中","town_kana":"ナンコウナカ","prefecture_code":27},"0031":{"zip_code":"5590031","prefecture":"大阪府","prefecture_kana":"オオサカフ","city":"大阪市住之江区","city_kana":"オオサカシスミノエク","town":"南港東","town_kana":"ナンコウヒガシ","prefecture_code":27},"0032":{"zip_code":"5590032","prefecture":"大阪府","prefecture_kana":"オオサカフ","city":"大阪市住之江区","city_kana":"オオサカシスミノエク","town":"南港南","town_kana":"ナンコウミナミ","prefecture_code":27},"0034":{"zip_code":"5590034","prefecture":"大阪府","prefecture_kana":"オオサカフ","city":"大阪市住之江区","city_kana":"オオサカシスミノエク","town":"南港北","town_kana":"ナンコウキタ","prefecture_code":27},"0016":{"zip_code":"5590016","prefecture":"大阪府","prefecture_kana":"オオサカフ","city":"大阪市住之江区","city_kana":"オオサカシスミノエク","town":"西加賀屋","town_kana":"ニシカガヤ","prefecture_code":27},"0005":{"zip_code":"5590005","prefecture":"大阪府","prefecture_kana":"オオサカフ","city":"大阪市住之江区","city_kana":"オオサカシスミノエク","town":"西住之江","town_kana":"ニシスミノエ","prefecture_code":27},"0002":{"zip_code":"5590002","prefecture":"大阪府","prefecture_kana":"オオサカフ","city":"大阪市住之江区","city_kana":"オオサカシスミノエク","town":"浜口東","town_kana":"ハマグチヒガシ","prefecture_code":27},"0006":{"zip_code":"5590006","prefecture":"大阪府","prefecture_kana":"オオサカフ","city":"大阪市住之江区","city_kana":"オオサカシスミノエク","town":"浜口西","town_kana":"ハマグチニシ","prefecture_code":27},"0012":{"zip_code":"5590012","prefecture":"大阪府","prefecture_kana":"オオサカフ","city":"大阪市住之江区","city_kana":"オオサカシスミノエク","town":"東加賀屋","town_kana":"ヒガシカガヤ","prefecture_code":27},"0025":{"zip_code":"5590025","prefecture":"大阪府","prefecture_kana":"オオサカフ","city":"大阪市住之江区","city_kana":"オオサカシスミノエク","town":"平林南","town_kana":"ヒラバヤシミナミ","prefecture_code":27},"0026":{"zip_code":"5590026","prefecture":"大阪府","prefecture_kana":"オオサカフ","city":"大阪市住之江区","city_kana":"オオサカシスミノエク","town":"平林北","town_kana":"ヒラバヤシキタ","prefecture_code":27},"0013":{"zip_code":"5590013","prefecture":"大阪府","prefecture_kana":"オオサカフ","city":"大阪市住之江区","city_kana":"オオサカシスミノエク","town":"御崎","town_kana":"ミサキ","prefecture_code":27},"0022":{"zip_code":"5590022","prefecture":"大阪府","prefecture_kana":"オオサカフ","city":"大阪市住之江区","city_kana":"オオサカシスミノエク","town":"緑木","town_kana":"ミドリギ","prefecture_code":27},"0015":{"zip_code":"5590015","prefecture":"大阪府","prefecture_kana":"オオサカフ","city":"大阪市住之江区","city_kana":"オオサカシスミノエク","town":"南加賀屋","town_kana":"ミナミカガヤ","prefecture_code":27},"8519":{"zip_code":"5598519","prefecture":"大阪府","city":"大阪市住之江区","town":"南港北","prefecture_code":27},"8602":{"zip_code":"5598602","prefecture":"大阪府","city":"大阪市住之江区","town":"南港北","prefecture_code":27},"8658":{"zip_code":"5598658","prefecture":"大阪府","city":"大阪市住之江区","town":"平林南","prefecture_code":27},"8558":{"zip_code":"5598558","prefecture":"大阪府","city":"大阪市住之江区","town":"南港北","prefecture_code":27},"8604":{"zip_code":"5598604","prefecture":"大阪府","city":"大阪市住之江区","town":"南港南","prefecture_code":27},"8555":{"zip_code":"5598555","prefecture":"大阪府","city":"大阪市住之江区","town":"南港北","prefecture_code":27},"8561":{"zip_code":"5598561","prefecture":"大阪府","city":"大阪市住之江区","town":"北加賀屋","prefecture_code":27},"8501":{"zip_code":"5598501","prefecture":"大阪府","city":"大阪市住之江区","town":"南港北","prefecture_code":27},"8553":{"zip_code":"5598553","prefecture":"大阪府","city":"大阪市住之江区","town":"平林南","prefecture_code":27},"8605":{"zip_code":"5598605","prefecture":"大阪府","city":"大阪市住之江区","town":"柴谷","prefecture_code":27},"8511":{"zip_code":"5598511","prefecture":"大阪府","city":"大阪市住之江区","town":"南港東","prefecture_code":27},"8585":{"zip_code":"5598585","prefecture":"大阪府","city":"大阪市住之江区","town":"浜口西","prefecture_code":27},"8601":{"zip_code":"5598601","prefecture":"大阪府","city":"大阪市住之江区","town":"御崎","prefecture_code":27},"8550":{"zip_code":"5598550","prefecture":"大阪府","city":"大阪市住之江区","town":"平林南","prefecture_code":27},"8560":{"zip_code":"5598560","prefecture":"大阪府","city":"大阪市住之江区","town":"新北島","prefecture_code":27},"8729":{"zip_code":"5598729","prefecture":"大阪府","city":"大阪市住之江区","town":"平林北","prefecture_code":27},"8559":{"zip_code":"5598559","prefecture":"大阪府","city":"大阪市住之江区","town":"南港北","prefecture_code":27},"8502":{"zip_code":"5598502","prefecture":"大阪府","city":"大阪市住之江区","town":"東加賀屋","prefecture_code":27},"8510":{"zip_code":"5598510","prefecture":"大阪府","city":"大阪市住之江区","town":"南港北","prefecture_code":27},"8651":{"zip_code":"5598651","prefecture":"大阪府","city":"大阪市住之江区","town":"柴谷","prefecture_code":27},"8611":{"zip_code":"5598611","prefecture":"大阪府","city":"大阪市住之江区","town":"南港北","prefecture_code":27},"8588":{"zip_code":"5598588","prefecture":"大阪府","city":"大阪市住之江区","town":"南港北","prefecture_code":27}}