{"0000":[{"zip_code":"6180000","prefecture":"京都府","prefecture_kana":"キョウトフ","city":"乙訓郡大山崎町","city_kana":"オトクニグンオオヤマザキチョウ","town":"","town_kana":"","prefecture_code":26},{"zip_code":"6180000","prefecture":"大阪府","prefecture_kana":"オオサカフ","city":"三島郡島本町","city_kana":"ミシマグンシマモトチョウ","town":"","town_kana":"","prefecture_code":27}],"0091":{"zip_code":"6180091","prefecture":"京都府","prefecture_kana":"キョウトフ","city":"乙訓郡大山崎町","city_kana":"オトクニグンオオヤマザキチョウ","town":"円明寺","town_kana":"エンミョウジ","prefecture_code":26},"0071":{"zip_code":"6180071","prefecture":"京都府","prefecture_kana":"キョウトフ","city":"乙訓郡大山崎町","city_kana":"オトクニグンオオヤマザキチョウ","town":"大山崎","town_kana":"オオヤマザキ","prefecture_code":26},"0081":{"zip_code":"6180081","prefecture":"京都府","prefecture_kana":"キョウトフ","city":"乙訓郡大山崎町","city_kana":"オトクニグンオオヤマザキチョウ","town":"下植野","town_kana":"シモウエノ","prefecture_code":26},"0015":{"zip_code":"6180015","prefecture":"大阪府","prefecture_kana":"オオサカフ","city":"三島郡島本町","city_kana":"ミシマグンシマモトチョウ","town":"青葉","town_kana":"アオバ","prefecture_code":27},"0013":{"zip_code":"6180013","prefecture":"大阪府","prefecture_kana":"オオサカフ","city":"三島郡島本町","city_kana":"ミシマグンシマモトチョウ","town":"江川","town_kana":"エガワ","prefecture_code":27},"0004":{"zip_code":"6180004","prefecture":"大阪府","prefecture_kana":"オオサカフ","city":"三島郡島本町","city_kana":"ミシマグンシマモトチョウ","town":"大沢","town_kana":"オオサワ","prefecture_code":27},"0022":{"zip_code":"6180022","prefecture":"大阪府","prefecture_kana":"オオサカフ","city":"三島郡島本町","city_kana":"ミシマグンシマモトチョウ","town":"桜井","town_kana":"サクライ","prefecture_code":27},"0023":{"zip_code":"6180023","prefecture":"大阪府","prefecture_kana":"オオサカフ","city":"三島郡島本町","city_kana":"ミシマグンシマモトチョウ","town":"桜井台","town_kana":"サクライダイ","prefecture_code":27},"0003":{"zip_code":"6180003","prefecture":"大阪府","prefecture_kana":"オオサカフ","city":"三島郡島本町","city_kana":"ミシマグンシマモトチョウ","town":"尺代","town_kana":"シャクダイ","prefecture_code":27},"0012":{"zip_code":"6180012","prefecture":"大阪府","prefecture_kana":"オオサカフ","city":"三島郡島本町","city_kana":"ミシマグンシマモトチョウ","town":"高浜","town_kana":"タカハマ","prefecture_code":27},"0002":{"zip_code":"6180002","prefecture":"大阪府","prefecture_kana":"オオサカフ","city":"三島郡島本町","city_kana":"ミシマグンシマモトチョウ","town":"東大寺","town_kana":"トウダイジ","prefecture_code":27},"0021":{"zip_code":"6180021","prefecture":"大阪府","prefecture_kana":"オオサカフ","city":"三島郡島本町","city_kana":"ミシマグンシマモトチョウ","town":"百山","town_kana":"ヒャクヤマ","prefecture_code":27},"0011":{"zip_code":"6180011","prefecture":"大阪府","prefecture_kana":"オオサカフ","city":"三島郡島本町","city_kana":"ミシマグンシマモトチョウ","town":"広瀬","town_kana":"ヒロセ","prefecture_code":27},"0014":{"zip_code":"6180014","prefecture":"大阪府","prefecture_kana":"オオサカフ","city":"三島郡島本町","city_kana":"ミシマグンシマモトチョウ","town":"水無瀬","town_kana":"ミナセ","prefecture_code":27},"0001":{"zip_code":"6180001","prefecture":"大阪府","prefecture_kana":"オオサカフ","city":"三島郡島本町","city_kana":"ミシマグンシマモトチョウ","town":"山崎","town_kana":"ヤマザキ","prefecture_code":27},"0024":{"zip_code":"6180024","prefecture":"大阪府","prefecture_kana":"オオサカフ","city":"三島郡島本町","city_kana":"ミシマグンシマモトチョウ","town":"若山台","town_kana":"ワカヤマダイ","prefecture_code":27},"8501":{"zip_code":"6188501","prefecture":"京都府","city":"乙訓郡大山崎町","town":"字円明寺","prefecture_code":26},"8567":{"zip_code":"6188567","prefecture":"京都府","city":"乙訓郡大山崎町","town":"字下植野","prefecture_code":26},"8511":{"zip_code":"6188511","prefecture":"京都府","city":"乙訓郡大山崎町","town":"字大山崎","prefecture_code":26},"8525":{"zip_code":"6188525","prefecture":"京都府","city":"乙訓郡大山崎町","town":"字大山崎","prefecture_code":26},"8558":{"zip_code":"6188558","prefecture":"京都府","city":"乙訓郡大山崎町","town":"字大山崎","prefecture_code":26},"8585":{"zip_code":"6188585","prefecture":"大阪府","city":"三島郡島本町","town":"桜井","prefecture_code":27},"8555":{"zip_code":"6188555","prefecture":"大阪府","city":"三島郡島本町","town":"江川","prefecture_code":27},"8570":{"zip_code":"6188570","prefecture":"大阪府","city":"三島郡島本町","town":"桜井","prefecture_code":27},"8518":{"zip_code":"6188518","prefecture":"大阪府","city":"三島郡島本町","town":"大字山崎","prefecture_code":27}}