{"0000":[{"zip_code":"6500000","prefecture":"兵庫県","prefecture_kana":"ヒョウゴケン","city":"神戸市中央区","city_kana":"コウベシチュウオウク","town":"","town_kana":"","prefecture_code":28},{"zip_code":"6500000","prefecture":"兵庫県","prefecture_kana":"ヒョウゴケン","city":"神戸市西区","city_kana":"コウベシニシク","town":"","town_kana":"","prefecture_code":28}],"0025":{"zip_code":"6500025","prefecture":"兵庫県","prefecture_kana":"ヒョウゴケン","city":"神戸市中央区","city_kana":"コウベシチュウオウク","town":"相生町","town_kana":"アイオイチョウ","prefecture_code":28},"0037":{"zip_code":"6500037","prefecture":"兵庫県","prefecture_kana":"ヒョウゴケン","city":"神戸市中央区","city_kana":"コウベシチュウオウク","town":"明石町","town_kana":"アカシマチ","prefecture_code":28},"0032":{"zip_code":"6500032","prefecture":"兵庫県","prefecture_kana":"ヒョウゴケン","city":"神戸市中央区","city_kana":"コウベシチュウオウク","town":"伊藤町","town_kana":"イトウマチ","prefecture_code":28},"0033":{"zip_code":"6500033","prefecture":"兵庫県","prefecture_kana":"ヒョウゴケン","city":"神戸市中央区","city_kana":"コウベシチュウオウク","town":"江戸町","town_kana":"エドマチ","prefecture_code":28},"0024":{"zip_code":"6500024","prefecture":"兵庫県","prefecture_kana":"ヒョウゴケン","city":"神戸市中央区","city_kana":"コウベシチュウオウク","town":"海岸通","town_kana":"カイガンドオリ","prefecture_code":28},"0001":{"zip_code":"6500001","prefecture":"兵庫県","prefecture_kana":"ヒョウゴケン","city":"神戸市中央区","city_kana":"コウベシチュウオウク","town":"加納町","town_kana":"カノウチョウ","prefecture_code":28},"0012":{"zip_code":"6500012","prefecture":"兵庫県","prefecture_kana":"ヒョウゴケン","city":"神戸市中央区","city_kana":"コウベシチュウオウク","town":"北長狭通","town_kana":"キタナガサドオリ","prefecture_code":28},"0002":{"zip_code":"6500002","prefecture":"兵庫県","prefecture_kana":"ヒョウゴケン","city":"神戸市中央区","city_kana":"コウベシチュウオウク","town":"北野町","town_kana":"キタノチョウ","prefecture_code":28},"0034":{"zip_code":"6500034","prefecture":"兵庫県","prefecture_kana":"ヒョウゴケン","city":"神戸市中央区","city_kana":"コウベシチュウオウク","town":"京町","town_kana":"キョウマチ","prefecture_code":28},"0017":{"zip_code":"6500017","prefecture":"兵庫県","prefecture_kana":"ヒョウゴケン","city":"神戸市中央区","city_kana":"コウベシチュウオウク","town":"楠町","town_kana":"クスノキチョウ","prefecture_code":28},"0048":{"zip_code":"6500048","prefecture":"兵庫県","prefecture_kana":"ヒョウゴケン","city":"神戸市中央区","city_kana":"コウベシチュウオウク","town":"神戸空港","town_kana":"コウベクウコウ","prefecture_code":28},"0007":{"zip_code":"6500007","prefecture":"兵庫県","prefecture_kana":"ヒョウゴケン","city":"神戸市中央区","city_kana":"コウベシチュウオウク","town":"神戸港地方","town_kana":"コウベコウジカタ","prefecture_code":28},"0026":{"zip_code":"6500026","prefecture":"兵庫県","prefecture_kana":"ヒョウゴケン","city":"神戸市中央区","city_kana":"コウベシチュウオウク","town":"古湊通","town_kana":"コミナトドオリ","prefecture_code":28},"0023":{"zip_code":"6500023","prefecture":"兵庫県","prefecture_kana":"ヒョウゴケン","city":"神戸市中央区","city_kana":"コウベシチュウオウク","town":"栄町通","town_kana":"サカエマチドオリ","prefecture_code":28},"0021":{"zip_code":"6500021","prefecture":"兵庫県","prefecture_kana":"ヒョウゴケン","city":"神戸市中央区","city_kana":"コウベシチュウオウク","town":"三宮町","town_kana":"サンノミヤチョウ","prefecture_code":28},"0011":{"zip_code":"6500011","prefecture":"兵庫県","prefecture_kana":"ヒョウゴケン","city":"神戸市中央区","city_kana":"コウベシチュウオウク","town":"下山手通","town_kana":"シモヤマテドオリ","prefecture_code":28},"0041":{"zip_code":"6500041","prefecture":"兵庫県","prefecture_kana":"ヒョウゴケン","city":"神戸市中央区","city_kana":"コウベシチュウオウク","town":"新港町","town_kana":"シンコウチョウ","prefecture_code":28},"0006":{"zip_code":"6500006","prefecture":"兵庫県","prefecture_kana":"ヒョウゴケン","city":"神戸市中央区","city_kana":"コウベシチュウオウク","town":"諏訪山町","town_kana":"スワヤマチョウ","prefecture_code":28},"0016":{"zip_code":"6500016","prefecture":"兵庫県","prefecture_kana":"ヒョウゴケン","city":"神戸市中央区","city_kana":"コウベシチュウオウク","town":"橘通","town_kana":"タチバナドオリ","prefecture_code":28},"0015":{"zip_code":"6500015","prefecture":"兵庫県","prefecture_kana":"ヒョウゴケン","city":"神戸市中央区","city_kana":"コウベシチュウオウク","town":"多聞通","town_kana":"タモンドオリ","prefecture_code":28},"0027":{"zip_code":"6500027","prefecture":"兵庫県","prefecture_kana":"ヒョウゴケン","city":"神戸市中央区","city_kana":"コウベシチュウオウク","town":"中町通","town_kana":"ナカマチドオリ","prefecture_code":28},"0004":{"zip_code":"6500004","prefecture":"兵庫県","prefecture_kana":"ヒョウゴケン","city":"神戸市中央区","city_kana":"コウベシチュウオウク","town":"中山手通","town_kana":"ナカヤマテドオリ","prefecture_code":28},"0035":{"zip_code":"6500035","prefecture":"兵庫県","prefecture_kana":"ヒョウゴケン","city":"神戸市中央区","city_kana":"コウベシチュウオウク","town":"浪花町","town_kana":"ナニワマチ","prefecture_code":28},"0038":{"zip_code":"6500038","prefecture":"兵庫県","prefecture_kana":"ヒョウゴケン","city":"神戸市中央区","city_kana":"コウベシチュウオウク","town":"西町","town_kana":"ニシマチ","prefecture_code":28},"0042":{"zip_code":"6500042","prefecture":"兵庫県","prefecture_kana":"ヒョウゴケン","city":"神戸市中央区","city_kana":"コウベシチュウオウク","town":"波止場町","town_kana":"ハトバチョウ","prefecture_code":28},"0013":{"zip_code":"6500013","prefecture":"兵庫県","prefecture_kana":"ヒョウゴケン","city":"神戸市中央区","city_kana":"コウベシチュウオウク","town":"花隈町","town_kana":"ハナクマチョウ","prefecture_code":28},"0036":{"zip_code":"6500036","prefecture":"兵庫県","prefecture_kana":"ヒョウゴケン","city":"神戸市中央区","city_kana":"コウベシチュウオウク","town":"播磨町","town_kana":"ハリママチ","prefecture_code":28},"0044":{"zip_code":"6500044","prefecture":"兵庫県","prefecture_kana":"ヒョウゴケン","city":"神戸市中央区","city_kana":"コウベシチュウオウク","town":"東川崎町","town_kana":"ヒガシカワサキチョウ","prefecture_code":28},"0031":{"zip_code":"6500031","prefecture":"兵庫県","prefecture_kana":"ヒョウゴケン","city":"神戸市中央区","city_kana":"コウベシチュウオウク","town":"東町","town_kana":"ヒガシマチ","prefecture_code":28},"0005":{"zip_code":"6500005","prefecture":"兵庫県","prefecture_kana":"ヒョウゴケン","city":"神戸市中央区","city_kana":"コウベシチュウオウク","town":"再度筋町","town_kana":"フタタビスジチョウ","prefecture_code":28},"0043":{"zip_code":"6500043","prefecture":"兵庫県","prefecture_kana":"ヒョウゴケン","city":"神戸市中央区","city_kana":"コウベシチュウオウク","town":"弁天町","town_kana":"ベンテンチョウ","prefecture_code":28},"0039":{"zip_code":"6500039","prefecture":"兵庫県","prefecture_kana":"ヒョウゴケン","city":"神戸市中央区","city_kana":"コウベシチュウオウク","town":"前町","town_kana":"マエマチ","prefecture_code":28},"0045":{"zip_code":"6500045","prefecture":"兵庫県","prefecture_kana":"ヒョウゴケン","city":"神戸市中央区","city_kana":"コウベシチュウオウク","town":"港島","town_kana":"ミナトジマ","prefecture_code":28},"0046":{"zip_code":"6500046","prefecture":"兵庫県","prefecture_kana":"ヒョウゴケン","city":"神戸市中央区","city_kana":"コウベシチュウオウク","town":"港島中町","town_kana":"ミナトジマナカマチ","prefecture_code":28},"0047":{"zip_code":"6500047","prefecture":"兵庫県","prefecture_kana":"ヒョウゴケン","city":"神戸市中央区","city_kana":"コウベシチュウオウク","town":"港島南町","town_kana":"ミナトジマミナミマチ","prefecture_code":28},"0014":{"zip_code":"6500014","prefecture":"兵庫県","prefecture_kana":"ヒョウゴケン","city":"神戸市中央区","city_kana":"コウベシチュウオウク","town":"元町高架通","town_kana":"モトマチコウカドオリ","prefecture_code":28},"0022":{"zip_code":"6500022","prefecture":"兵庫県","prefecture_kana":"ヒョウゴケン","city":"神戸市中央区","city_kana":"コウベシチュウオウク","town":"元町通","town_kana":"モトマチドオリ","prefecture_code":28},"0003":{"zip_code":"6500003","prefecture":"兵庫県","prefecture_kana":"ヒョウゴケン","city":"神戸市中央区","city_kana":"コウベシチュウオウク","town":"山本通","town_kana":"ヤマモトドオリ","prefecture_code":28},"8522":{"zip_code":"6508522","prefecture":"兵庫県","city":"神戸市中央区","town":"明石町","prefecture_code":28},"8515":{"zip_code":"6508515","prefecture":"兵庫県","city":"神戸市中央区","town":"中山手通","prefecture_code":28},"8520":{"zip_code":"6508520","prefecture":"兵庫県","city":"神戸市中央区","town":"東川崎町","prefecture_code":28},"8555":{"zip_code":"6508555","prefecture":"兵庫県","city":"神戸市中央区","town":"港島中町","prefecture_code":28},"8503":{"zip_code":"6508503","prefecture":"兵庫県","city":"神戸市中央区","town":"山本通","prefecture_code":28},"8588":{"zip_code":"6508588","prefecture":"兵庫県","city":"神戸市中央区","town":"東川崎町","prefecture_code":28},"8521":{"zip_code":"6508521","prefecture":"兵庫県","city":"神戸市中央区","town":"港島中町","prefecture_code":28},"8525":{"zip_code":"6508525","prefecture":"兵庫県","city":"神戸市中央区","town":"浪花町","prefecture_code":28},"8560":{"zip_code":"6508560","prefecture":"兵庫県","city":"神戸市中央区","town":"波止場町","prefecture_code":28},"8660":{"zip_code":"6508660","prefecture":"兵庫県","city":"神戸市中央区","town":"浪花町","prefecture_code":28},"8787":{"zip_code":"6508787","prefecture":"兵庫県","city":"神戸市中央区","town":"栄町通","prefecture_code":28},"8580":{"zip_code":"6508580","prefecture":"兵庫県","city":"神戸市中央区","town":"東川崎町","prefecture_code":28},"8576":{"zip_code":"6508576","prefecture":"兵庫県","city":"神戸市中央区","town":"元町通","prefecture_code":28},"8584":{"zip_code":"6508584","prefecture":"兵庫県","city":"神戸市中央区","town":"江戸町","prefecture_code":28},"8585":{"zip_code":"6508585","prefecture":"兵庫県","city":"神戸市中央区","town":"港島中町","prefecture_code":28},"8565":{"zip_code":"6508565","prefecture":"兵庫県","city":"神戸市中央区","town":"橘通","prefecture_code":28},"8586":{"zip_code":"6508586","prefecture":"兵庫県","city":"神戸市中央区","town":"港島","prefecture_code":28},"8502":{"zip_code":"6508502","prefecture":"兵庫県","city":"神戸市中央区","town":"中山手通","prefecture_code":28},"8570":{"zip_code":"6508570","prefecture":"兵庫県","city":"神戸市中央区","town":"加納町","prefecture_code":28},"8543":{"zip_code":"6508543","prefecture":"兵庫県","city":"神戸市中央区","town":"港島中町","prefecture_code":28},"8539":{"zip_code":"6508539","prefecture":"兵庫県","city":"神戸市中央区","town":"三宮町","prefecture_code":28},"8511":{"zip_code":"6508511","prefecture":"兵庫県","city":"神戸市中央区","town":"中山手通","prefecture_code":28},"8575":{"zip_code":"6508575","prefecture":"兵庫県","city":"神戸市中央区","town":"橘通","prefecture_code":28},"8501":{"zip_code":"6508501","prefecture":"兵庫県","city":"神戸市中央区","town":"栄町通","prefecture_code":28},"8533":{"zip_code":"6508533","prefecture":"兵庫県","city":"神戸市中央区","town":"栄町通","prefecture_code":28},"8550":{"zip_code":"6508550","prefecture":"兵庫県","city":"神戸市中央区","town":"港島中町","prefecture_code":28},"8551":{"zip_code":"6508551","prefecture":"兵庫県","city":"神戸市中央区","town":"波止場町","prefecture_code":28},"8546":{"zip_code":"6508546","prefecture":"兵庫県","city":"神戸市中央区","town":"港島中町","prefecture_code":28},"8530":{"zip_code":"6508530","prefecture":"兵庫県","city":"神戸市中央区","town":"港島","prefecture_code":28},"8510":{"zip_code":"6508510","prefecture":"兵庫県","city":"神戸市中央区","town":"下山手通","prefecture_code":28},"8528":{"zip_code":"6508528","prefecture":"兵庫県","city":"神戸市中央区","town":"港島中町","prefecture_code":28},"8567":{"zip_code":"6508567","prefecture":"兵庫県","city":"神戸市中央区","town":"下山手通","prefecture_code":28},"8558":{"zip_code":"6508558","prefecture":"兵庫県","city":"神戸市中央区","town":"港島中町","prefecture_code":28},"8559":{"zip_code":"6508559","prefecture":"兵庫県","city":"神戸市中央区","town":"港島中町","prefecture_code":28},"8577":{"zip_code":"6508577","prefecture":"兵庫県","city":"神戸市中央区","town":"港島中町","prefecture_code":28},"8536":{"zip_code":"6508536","prefecture":"兵庫県","city":"神戸市中央区","town":"港島中町","prefecture_code":28},"8571":{"zip_code":"6508571","prefecture":"兵庫県","city":"神戸市中央区","town":"東川崎町","prefecture_code":28},"8589":{"zip_code":"6508589","prefecture":"兵庫県","city":"神戸市中央区","town":"波止場町","prefecture_code":28},"8670":{"zip_code":"6508670","prefecture":"兵庫県","city":"神戸市中央区","town":"東川崎町","prefecture_code":28},"8680":{"zip_code":"6508680","prefecture":"兵庫県","city":"神戸市中央区","town":"東川崎町","prefecture_code":28},"8686":{"zip_code":"6508686","prefecture":"兵庫県","city":"神戸市中央区","town":"浪花町","prefecture_code":28},"8666":{"zip_code":"6508666","prefecture":"兵庫県","city":"神戸市中央区","town":"海岸通","prefecture_code":28},"8677":{"zip_code":"6508677","prefecture":"兵庫県","city":"神戸市中央区","town":"楠町","prefecture_code":28},"8794":{"zip_code":"6508794","prefecture":"兵庫県","city":"神戸市中央区","town":"栄町通","prefecture_code":28},"8505":{"zip_code":"6508505","prefecture":"兵庫県","city":"神戸市中央区","town":"磯上通","prefecture_code":28}}