{"0000":{"zip_code":"7260000","prefecture":"広島県","prefecture_kana":"ヒロシマケン","city":"府中市","city_kana":"フチュウシ","town":"","town_kana":"","prefecture_code":34},"0031":{"zip_code":"7260031","prefecture":"広島県","prefecture_kana":"ヒロシマケン","city":"府中市","city_kana":"フチュウシ","town":"荒谷町","town_kana":"アラタニチョウ","prefecture_code":34},"0002":{"zip_code":"7260002","prefecture":"広島県","prefecture_kana":"ヒロシマケン","city":"府中市","city_kana":"フチュウシ","town":"鵜飼町","town_kana":"ウカイチョウ","prefecture_code":34},"0034":{"zip_code":"7260034","prefecture":"広島県","prefecture_kana":"ヒロシマケン","city":"府中市","city_kana":"フチュウシ","town":"上山町","town_kana":"ウヤマチョウ","prefecture_code":34},"0025":{"zip_code":"7260025","prefecture":"広島県","prefecture_kana":"ヒロシマケン","city":"府中市","city_kana":"フチュウシ","town":"河南町","town_kana":"カナンチョウ","prefecture_code":34},"0023":{"zip_code":"7260023","prefecture":"広島県","prefecture_kana":"ヒロシマケン","city":"府中市","city_kana":"フチュウシ","town":"栗柄町","town_kana":"クリガラチョウ","prefecture_code":34},"0036":{"zip_code":"7260036","prefecture":"広島県","prefecture_kana":"ヒロシマケン","city":"府中市","city_kana":"フチュウシ","town":"河面町","town_kana":"コウモチョウ","prefecture_code":34},"0006":{"zip_code":"7260006","prefecture":"広島県","prefecture_kana":"ヒロシマケン","city":"府中市","city_kana":"フチュウシ","town":"桜が丘","town_kana":"サクラガオカ","prefecture_code":34},"0026":{"zip_code":"7260026","prefecture":"広島県","prefecture_kana":"ヒロシマケン","city":"府中市","city_kana":"フチュウシ","town":"三郎丸町","town_kana":"サブロウマルチョウ","prefecture_code":34},"0027":{"zip_code":"7260027","prefecture":"広島県","prefecture_kana":"ヒロシマケン","city":"府中市","city_kana":"フチュウシ","town":"篠根町","town_kana":"シノネチョウ","prefecture_code":34},"0024":{"zip_code":"7260024","prefecture":"広島県","prefecture_kana":"ヒロシマケン","city":"府中市","city_kana":"フチュウシ","town":"僧殿町","town_kana":"ソウドノチョウ","prefecture_code":34},"0013":{"zip_code":"7260013","prefecture":"広島県","prefecture_kana":"ヒロシマケン","city":"府中市","city_kana":"フチュウシ","town":"高木町","town_kana":"タカギチョウ","prefecture_code":34},"0035":{"zip_code":"7260035","prefecture":"広島県","prefecture_kana":"ヒロシマケン","city":"府中市","city_kana":"フチュウシ","town":"父石町","town_kana":"チイシチョウ","prefecture_code":34},"0032":{"zip_code":"7260032","prefecture":"広島県","prefecture_kana":"ヒロシマケン","city":"府中市","city_kana":"フチュウシ","town":"出口町","town_kana":"デグチチョウ","prefecture_code":34},"0012":{"zip_code":"7260012","prefecture":"広島県","prefecture_kana":"ヒロシマケン","city":"府中市","city_kana":"フチュウシ","town":"中須町","town_kana":"ナカズチョウ","prefecture_code":34},"0021":{"zip_code":"7260021","prefecture":"広島県","prefecture_kana":"ヒロシマケン","city":"府中市","city_kana":"フチュウシ","town":"土生町","town_kana":"ハブチョウ","prefecture_code":34},"0011":{"zip_code":"7260011","prefecture":"広島県","prefecture_kana":"ヒロシマケン","city":"府中市","city_kana":"フチュウシ","town":"広谷町","town_kana":"ヒロタニチョウ","prefecture_code":34},"0004":{"zip_code":"7260004","prefecture":"広島県","prefecture_kana":"ヒロシマケン","city":"府中市","city_kana":"フチュウシ","town":"府川町","town_kana":"フカワチョウ","prefecture_code":34},"0005":{"zip_code":"7260005","prefecture":"広島県","prefecture_kana":"ヒロシマケン","city":"府中市","city_kana":"フチュウシ","town":"府中町","town_kana":"フチュウチョウ","prefecture_code":34},"0033":{"zip_code":"7260033","prefecture":"広島県","prefecture_kana":"ヒロシマケン","city":"府中市","city_kana":"フチュウシ","town":"目崎町","town_kana":"メサキチョウ","prefecture_code":34},"0003":{"zip_code":"7260003","prefecture":"広島県","prefecture_kana":"ヒロシマケン","city":"府中市","city_kana":"フチュウシ","town":"元町","town_kana":"モトマチ","prefecture_code":34},"0001":{"zip_code":"7260001","prefecture":"広島県","prefecture_kana":"ヒロシマケン","city":"府中市","city_kana":"フチュウシ","town":"本山町","town_kana":"モトヤマチョウ","prefecture_code":34},"0022":{"zip_code":"7260022","prefecture":"広島県","prefecture_kana":"ヒロシマケン","city":"府中市","city_kana":"フチュウシ","town":"用土町","town_kana":"ヨウドチョウ","prefecture_code":34},"8610":{"zip_code":"7268610","prefecture":"広島県","city":"府中市","town":"元町","prefecture_code":34},"8505":{"zip_code":"7268505","prefecture":"広島県","city":"府中市","town":"中須町","prefecture_code":34},"8555":{"zip_code":"7268555","prefecture":"広島県","city":"府中市","town":"鵜飼町","prefecture_code":34},"8501":{"zip_code":"7268501","prefecture":"広島県","city":"府中市","town":"鵜飼町","prefecture_code":34},"8603":{"zip_code":"7268603","prefecture":"広島県","city":"府中市","town":"府中町","prefecture_code":34},"8614":{"zip_code":"7268614","prefecture":"広島県","city":"府中市","town":"本山町","prefecture_code":34},"8502":{"zip_code":"7268502","prefecture":"広島県","city":"府中市","town":"広谷町","prefecture_code":34},"8601":{"zip_code":"7268601","prefecture":"広島県","city":"府中市","town":"府川町","prefecture_code":34},"8515":{"zip_code":"7268515","prefecture":"広島県","city":"府中市","town":"鵜飼町","prefecture_code":34},"8632":{"zip_code":"7268632","prefecture":"広島県","city":"府中市","town":"高木町","prefecture_code":34},"8628":{"zip_code":"7268628","prefecture":"広島県","city":"府中市","town":"目崎町","prefecture_code":34},"8609":{"zip_code":"7268609","prefecture":"広島県","city":"府中市","town":"元町","prefecture_code":34}}