{"0000":{"zip_code":"7440000","prefecture":"山口県","prefecture_kana":"ヤマグチケン","city":"下松市","city_kana":"クダマツシ","town":"","town_kana":"","prefecture_code":35},"0004":{"zip_code":"7440004","prefecture":"山口県","prefecture_kana":"ヤマグチケン","city":"下松市","city_kana":"クダマツシ","town":"青柳","town_kana":"アオヤギ","prefecture_code":35},"0031":[{"zip_code":"7440031","prefecture":"山口県","prefecture_kana":"ヤマグチケン","city":"下松市","city_kana":"クダマツシ","town":"生野屋","town_kana":"イクノヤ","prefecture_code":35},{"zip_code":"7440031","prefecture":"山口県","prefecture_kana":"ヤマグチケン","city":"下松市","city_kana":"クダマツシ","town":"生野屋","town_kana":"イクノヤ","prefecture_code":35},{"zip_code":"7440031","prefecture":"山口県","prefecture_kana":"ヤマグチケン","city":"下松市","city_kana":"クダマツシ","town":"生野屋猪ノ尻","town_kana":"イクノヤイノシリ","prefecture_code":35},{"zip_code":"7440031","prefecture":"山口県","prefecture_kana":"ヤマグチケン","city":"下松市","city_kana":"クダマツシ","town":"生野屋上時宗","town_kana":"イクノヤカミトキムネ","prefecture_code":35},{"zip_code":"7440031","prefecture":"山口県","prefecture_kana":"ヤマグチケン","city":"下松市","city_kana":"クダマツシ","town":"生野屋高垣団地","town_kana":"イクノヤコウガキダンチ","prefecture_code":35},{"zip_code":"7440031","prefecture":"山口県","prefecture_kana":"ヤマグチケン","city":"下松市","city_kana":"クダマツシ","town":"生野屋下村","town_kana":"イクノヤシモムラ","prefecture_code":35},{"zip_code":"7440031","prefecture":"山口県","prefecture_kana":"ヤマグチケン","city":"下松市","city_kana":"クダマツシ","town":"生野屋為弘","town_kana":"イクノヤタメヒロ","prefecture_code":35},{"zip_code":"7440031","prefecture":"山口県","prefecture_kana":"ヤマグチケン","city":"下松市","city_kana":"クダマツシ","town":"生野屋大王団地","town_kana":"イクノヤダイオウダンチ","prefecture_code":35},{"zip_code":"7440031","prefecture":"山口県","prefecture_kana":"ヤマグチケン","city":"下松市","city_kana":"クダマツシ","town":"生野屋田園調布","town_kana":"イクノヤデンエンチョウフ","prefecture_code":35},{"zip_code":"7440031","prefecture":"山口県","prefecture_kana":"ヤマグチケン","city":"下松市","city_kana":"クダマツシ","town":"生野屋藤立","town_kana":"イクノヤトウリュウ","prefecture_code":35},{"zip_code":"7440031","prefecture":"山口県","prefecture_kana":"ヤマグチケン","city":"下松市","city_kana":"クダマツシ","town":"生野屋時政","town_kana":"イクノヤトキマサ","prefecture_code":35},{"zip_code":"7440031","prefecture":"山口県","prefecture_kana":"ヤマグチケン","city":"下松市","city_kana":"クダマツシ","town":"生野屋時宗","town_kana":"イクノヤトキムネ","prefecture_code":35},{"zip_code":"7440031","prefecture":"山口県","prefecture_kana":"ヤマグチケン","city":"下松市","city_kana":"クダマツシ","town":"生野屋中村","town_kana":"イクノヤナカムラ","prefecture_code":35},{"zip_code":"7440031","prefecture":"山口県","prefecture_kana":"ヤマグチケン","city":"下松市","city_kana":"クダマツシ","town":"生野屋西時宗","town_kana":"イクノヤニシトキムネ","prefecture_code":35},{"zip_code":"7440031","prefecture":"山口県","prefecture_kana":"ヤマグチケン","city":"下松市","city_kana":"クダマツシ","town":"生野屋西村","town_kana":"イクノヤニシムラ","prefecture_code":35},{"zip_code":"7440031","prefecture":"山口県","prefecture_kana":"ヤマグチケン","city":"下松市","city_kana":"クダマツシ","town":"生野屋西村団地","town_kana":"イクノヤニシムラダンチ","prefecture_code":35},{"zip_code":"7440031","prefecture":"山口県","prefecture_kana":"ヤマグチケン","city":"下松市","city_kana":"クダマツシ","town":"生野屋羽根田町","town_kana":"イクノヤハネダチョウ","prefecture_code":35},{"zip_code":"7440031","prefecture":"山口県","prefecture_kana":"ヤマグチケン","city":"下松市","city_kana":"クダマツシ","town":"生野屋東時宗","town_kana":"イクノヤヒガシトキムネ","prefecture_code":35},{"zip_code":"7440031","prefecture":"山口県","prefecture_kana":"ヤマグチケン","city":"下松市","city_kana":"クダマツシ","town":"生野屋東万ノ木団地","town_kana":"イクノヤヒガシマンノキダンチ","prefecture_code":35},{"zip_code":"7440031","prefecture":"山口県","prefecture_kana":"ヤマグチケン","city":"下松市","city_kana":"クダマツシ","town":"生野屋万ノ木町","town_kana":"イクノヤマンノキチョウ","prefecture_code":35},{"zip_code":"7440031","prefecture":"山口県","prefecture_kana":"ヤマグチケン","city":"下松市","city_kana":"クダマツシ","town":"生野屋宮本","town_kana":"イクノヤミヤモト","prefecture_code":35}],"0032":{"zip_code":"7440032","prefecture":"山口県","prefecture_kana":"ヤマグチケン","city":"下松市","city_kana":"クダマツシ","town":"生野屋西","town_kana":"イクノヤニシ","prefecture_code":35},"0033":{"zip_code":"7440033","prefecture":"山口県","prefecture_kana":"ヤマグチケン","city":"下松市","city_kana":"クダマツシ","town":"生野屋南","town_kana":"イクノヤミナミ","prefecture_code":35},"0007":{"zip_code":"7440007","prefecture":"山口県","prefecture_kana":"ヤマグチケン","city":"下松市","city_kana":"クダマツシ","town":"駅南","town_kana":"エキミナミ","prefecture_code":35},"0015":{"zip_code":"7440015","prefecture":"山口県","prefecture_kana":"ヤマグチケン","city":"下松市","city_kana":"クダマツシ","town":"大手町","town_kana":"オオテマチ","prefecture_code":35},"0272":{"zip_code":"7440272","prefecture":"山口県","prefecture_kana":"ヤマグチケン","city":"下松市","city_kana":"クダマツシ","town":"大藤谷","town_kana":"オオフジダニ","prefecture_code":35},"0001":[{"zip_code":"7440001","prefecture":"山口県","prefecture_kana":"ヤマグチケン","city":"下松市","city_kana":"クダマツシ","town":"笠戸島","town_kana":"カサドシマ","prefecture_code":35},{"zip_code":"7440001","prefecture":"山口県","prefecture_kana":"ヤマグチケン","city":"下松市","city_kana":"クダマツシ","town":"笠戸島","town_kana":"カサドシマ","prefecture_code":35},{"zip_code":"7440001","prefecture":"山口県","prefecture_kana":"ヤマグチケン","city":"下松市","city_kana":"クダマツシ","town":"笠戸島江ノ浦","town_kana":"カサドシマエノウラ","prefecture_code":35},{"zip_code":"7440001","prefecture":"山口県","prefecture_kana":"ヤマグチケン","city":"下松市","city_kana":"クダマツシ","town":"笠戸島大松ケ浦","town_kana":"カサドシマオオマツガウラ","prefecture_code":35},{"zip_code":"7440001","prefecture":"山口県","prefecture_kana":"ヤマグチケン","city":"下松市","city_kana":"クダマツシ","town":"笠戸島尾郷","town_kana":"カサドシマオゴウ","prefecture_code":35},{"zip_code":"7440001","prefecture":"山口県","prefecture_kana":"ヤマグチケン","city":"下松市","city_kana":"クダマツシ","town":"笠戸島尾泊","town_kana":"カサドシマオドマリ","prefecture_code":35},{"zip_code":"7440001","prefecture":"山口県","prefecture_kana":"ヤマグチケン","city":"下松市","city_kana":"クダマツシ","town":"笠戸島小深浦","town_kana":"カサドシマコブカウラ","prefecture_code":35},{"zip_code":"7440001","prefecture":"山口県","prefecture_kana":"ヤマグチケン","city":"下松市","city_kana":"クダマツシ","town":"笠戸島瀬戸","town_kana":"カサドシマセト","prefecture_code":35},{"zip_code":"7440001","prefecture":"山口県","prefecture_kana":"ヤマグチケン","city":"下松市","city_kana":"クダマツシ","town":"笠戸島深浦","town_kana":"カサドシマフカウラ","prefecture_code":35},{"zip_code":"7440001","prefecture":"山口県","prefecture_kana":"ヤマグチケン","city":"下松市","city_kana":"クダマツシ","town":"笠戸島本浦","town_kana":"カサドシマホンウラ","prefecture_code":35}],"0071":{"zip_code":"7440071","prefecture":"山口県","prefecture_kana":"ヤマグチケン","city":"下松市","city_kana":"クダマツシ","town":"清瀬町","town_kana":"キヨセチョウ","prefecture_code":35},"0042":[{"zip_code":"7440042","prefecture":"山口県","prefecture_kana":"ヤマグチケン","city":"下松市","city_kana":"クダマツシ","town":"切山","town_kana":"キリヤマ","prefecture_code":35},{"zip_code":"7440042","prefecture":"山口県","prefecture_kana":"ヤマグチケン","city":"下松市","city_kana":"クダマツシ","town":"切山","town_kana":"キリヤマ","prefecture_code":35},{"zip_code":"7440042","prefecture":"山口県","prefecture_kana":"ヤマグチケン","city":"下松市","city_kana":"クダマツシ","town":"切山中","town_kana":"キリヤマナカ","prefecture_code":35}],"0029":{"zip_code":"7440029","prefecture":"山口県","prefecture_kana":"ヤマグチケン","city":"下松市","city_kana":"クダマツシ","town":"楠木町","town_kana":"クスノキチョウ","prefecture_code":35},"0271":[{"zip_code":"7440271","prefecture":"山口県","prefecture_kana":"ヤマグチケン","city":"下松市","city_kana":"クダマツシ","town":"下谷","town_kana":"クダタニ","prefecture_code":35},{"zip_code":"7440271","prefecture":"山口県","prefecture_kana":"ヤマグチケン","city":"下松市","city_kana":"クダマツシ","town":"下谷","town_kana":"クダタニ","prefecture_code":35},{"zip_code":"7440271","prefecture":"山口県","prefecture_kana":"ヤマグチケン","city":"下松市","city_kana":"クダマツシ","town":"下谷赤谷","town_kana":"クダタニアカダニ","prefecture_code":35},{"zip_code":"7440271","prefecture":"山口県","prefecture_kana":"ヤマグチケン","city":"下松市","city_kana":"クダマツシ","town":"下谷清若","town_kana":"クダタニキヨワカ","prefecture_code":35},{"zip_code":"7440271","prefecture":"山口県","prefecture_kana":"ヤマグチケン","city":"下松市","city_kana":"クダマツシ","town":"下谷中瀬","town_kana":"クダタニナカセ","prefecture_code":35},{"zip_code":"7440271","prefecture":"山口県","prefecture_kana":"ヤマグチケン","city":"下松市","city_kana":"クダマツシ","town":"下谷中原","town_kana":"クダタニナカバラ","prefecture_code":35},{"zip_code":"7440271","prefecture":"山口県","prefecture_kana":"ヤマグチケン","city":"下松市","city_kana":"クダマツシ","town":"下谷西平谷","town_kana":"クダタニニシヒラダニ","prefecture_code":35},{"zip_code":"7440271","prefecture":"山口県","prefecture_kana":"ヤマグチケン","city":"下松市","city_kana":"クダマツシ","town":"下谷山高","town_kana":"クダタニヤマタカ","prefecture_code":35}],"0051":[{"zip_code":"7440051","prefecture":"山口県","prefecture_kana":"ヤマグチケン","city":"下松市","city_kana":"クダマツシ","town":"来巻","town_kana":"クルマキ","prefecture_code":35},{"zip_code":"7440051","prefecture":"山口県","prefecture_kana":"ヤマグチケン","city":"下松市","city_kana":"クダマツシ","town":"来巻","town_kana":"クルマキ","prefecture_code":35},{"zip_code":"7440051","prefecture":"山口県","prefecture_kana":"ヤマグチケン","city":"下松市","city_kana":"クダマツシ","town":"来巻東","town_kana":"クルマキヒガシ","prefecture_code":35},{"zip_code":"7440051","prefecture":"山口県","prefecture_kana":"ヤマグチケン","city":"下松市","city_kana":"クダマツシ","town":"来巻西","town_kana":"クルマキニシ","prefecture_code":35}],"0061":[{"zip_code":"7440061","prefecture":"山口県","prefecture_kana":"ヤマグチケン","city":"下松市","city_kana":"クダマツシ","town":"河内","town_kana":"コウチ","prefecture_code":35},{"zip_code":"7440061","prefecture":"山口県","prefecture_kana":"ヤマグチケン","city":"下松市","city_kana":"クダマツシ","town":"河内","town_kana":"コウチ","prefecture_code":35},{"zip_code":"7440061","prefecture":"山口県","prefecture_kana":"ヤマグチケン","city":"下松市","city_kana":"クダマツシ","town":"河内青葉台","town_kana":"コウチアオバダイ","prefecture_code":35},{"zip_code":"7440061","prefecture":"山口県","prefecture_kana":"ヤマグチケン","city":"下松市","city_kana":"クダマツシ","town":"河内大河内","town_kana":"コウチオオコウチ","prefecture_code":35},{"zip_code":"7440061","prefecture":"山口県","prefecture_kana":"ヤマグチケン","city":"下松市","city_kana":"クダマツシ","town":"河内岡市","town_kana":"コウチオカイチ","prefecture_code":35},{"zip_code":"7440061","prefecture":"山口県","prefecture_kana":"ヤマグチケン","city":"下松市","city_kana":"クダマツシ","town":"河内岡ノ原町","town_kana":"コウチオカノハラチョウ","prefecture_code":35},{"zip_code":"7440061","prefecture":"山口県","prefecture_kana":"ヤマグチケン","city":"下松市","city_kana":"クダマツシ","town":"河内川瀬","town_kana":"コウチカワセ","prefecture_code":35},{"zip_code":"7440061","prefecture":"山口県","prefecture_kana":"ヤマグチケン","city":"下松市","city_kana":"クダマツシ","town":"河内下松セントシティ","town_kana":"コウチクダマツセントシティ","prefecture_code":35},{"zip_code":"7440061","prefecture":"山口県","prefecture_kana":"ヤマグチケン","city":"下松市","city_kana":"クダマツシ","town":"河内久保","town_kana":"コウチクボ","prefecture_code":35},{"zip_code":"7440061","prefecture":"山口県","prefecture_kana":"ヤマグチケン","city":"下松市","city_kana":"クダマツシ","town":"河内久保市","town_kana":"コウチクボイチ","prefecture_code":35},{"zip_code":"7440061","prefecture":"山口県","prefecture_kana":"ヤマグチケン","city":"下松市","city_kana":"クダマツシ","town":"河内黒杭","town_kana":"コウチクロクイ","prefecture_code":35},{"zip_code":"7440061","prefecture":"山口県","prefecture_kana":"ヤマグチケン","city":"下松市","city_kana":"クダマツシ","town":"河内小野","town_kana":"コウチコノ","prefecture_code":35},{"zip_code":"7440061","prefecture":"山口県","prefecture_kana":"ヤマグチケン","city":"下松市","city_kana":"クダマツシ","town":"河内幸ケ丘","town_kana":"コウチサチガオカ","prefecture_code":35},{"zip_code":"7440061","prefecture":"山口県","prefecture_kana":"ヤマグチケン","city":"下松市","city_kana":"クダマツシ","town":"河内昭和通り","town_kana":"コウチショウワドオリ","prefecture_code":35},{"zip_code":"7440061","prefecture":"山口県","prefecture_kana":"ヤマグチケン","city":"下松市","city_kana":"クダマツシ","town":"河内城山台","town_kana":"コウチジョウヤマダイ","prefecture_code":35},{"zip_code":"7440061","prefecture":"山口県","prefecture_kana":"ヤマグチケン","city":"下松市","city_kana":"クダマツシ","town":"河内素通り","town_kana":"コウチスドオリ","prefecture_code":35},{"zip_code":"7440061","prefecture":"山口県","prefecture_kana":"ヤマグチケン","city":"下松市","city_kana":"クダマツシ","town":"河内谷","town_kana":"コウチタニ","prefecture_code":35},{"zip_code":"7440061","prefecture":"山口県","prefecture_kana":"ヤマグチケン","city":"下松市","city_kana":"クダマツシ","town":"河内つつじケ丘","town_kana":"コウチツツジガオカ","prefecture_code":35},{"zip_code":"7440061","prefecture":"山口県","prefecture_kana":"ヤマグチケン","city":"下松市","city_kana":"クダマツシ","town":"河内出合","town_kana":"コウチデアイ","prefecture_code":35},{"zip_code":"7440061","prefecture":"山口県","prefecture_kana":"ヤマグチケン","city":"下松市","city_kana":"クダマツシ","town":"河内殿ケ浴","town_kana":"コウチトノガエキ","prefecture_code":35},{"zip_code":"7440061","prefecture":"山口県","prefecture_kana":"ヤマグチケン","city":"下松市","city_kana":"クダマツシ","town":"河内中戸原","town_kana":"コウチナカトハラ","prefecture_code":35},{"zip_code":"7440061","prefecture":"山口県","prefecture_kana":"ヤマグチケン","city":"下松市","city_kana":"クダマツシ","town":"河内成川","town_kana":"コウチナルカワ","prefecture_code":35},{"zip_code":"7440061","prefecture":"山口県","prefecture_kana":"ヤマグチケン","city":"下松市","city_kana":"クダマツシ","town":"河内二ノ瀬","town_kana":"コウチニノセ","prefecture_code":35},{"zip_code":"7440061","prefecture":"山口県","prefecture_kana":"ヤマグチケン","city":"下松市","city_kana":"クダマツシ","town":"河内葉山","town_kana":"コウチハヤマ","prefecture_code":35},{"zip_code":"7440061","prefecture":"山口県","prefecture_kana":"ヤマグチケン","city":"下松市","city_kana":"クダマツシ","town":"河内日ノ出町","town_kana":"コウチヒノデチョウ","prefecture_code":35},{"zip_code":"7440061","prefecture":"山口県","prefecture_kana":"ヤマグチケン","city":"下松市","city_kana":"クダマツシ","town":"河内吉原","town_kana":"コウチヨシワラ","prefecture_code":35}],"0003":{"zip_code":"7440003","prefecture":"山口県","prefecture_kana":"ヤマグチケン","city":"下松市","city_kana":"クダマツシ","town":"琴平町","town_kana":"コトヒラチョウ","prefecture_code":35},"0013":{"zip_code":"7440013","prefecture":"山口県","prefecture_kana":"ヤマグチケン","city":"下松市","city_kana":"クダマツシ","town":"栄町","town_kana":"サカエマチ","prefecture_code":35},"0019":{"zip_code":"7440019","prefecture":"山口県","prefecture_kana":"ヤマグチケン","city":"下松市","city_kana":"クダマツシ","town":"桜町","town_kana":"サクラチョウ","prefecture_code":35},"0074":{"zip_code":"7440074","prefecture":"山口県","prefecture_kana":"ヤマグチケン","city":"下松市","city_kana":"クダマツシ","town":"潮音町","town_kana":"シオネチョウ","prefecture_code":35},"0062":{"zip_code":"7440062","prefecture":"山口県","prefecture_kana":"ヤマグチケン","city":"下松市","city_kana":"クダマツシ","town":"昭和町","town_kana":"ショウワマチ","prefecture_code":35},"0008":{"zip_code":"7440008","prefecture":"山口県","prefecture_kana":"ヤマグチケン","city":"下松市","city_kana":"クダマツシ","town":"新川","town_kana":"シンカワ","prefecture_code":35},"0024":[{"zip_code":"7440024","prefecture":"山口県","prefecture_kana":"ヤマグチケン","city":"下松市","city_kana":"クダマツシ","town":"末武上","town_kana":"スエタケカミ","prefecture_code":35},{"zip_code":"7440024","prefecture":"山口県","prefecture_kana":"ヤマグチケン","city":"下松市","city_kana":"クダマツシ","town":"末武上","town_kana":"スエタケカミ","prefecture_code":35},{"zip_code":"7440024","prefecture":"山口県","prefecture_kana":"ヤマグチケン","city":"下松市","city_kana":"クダマツシ","town":"末武上上地","town_kana":"スエタケカミアゲヂ","prefecture_code":35},{"zip_code":"7440024","prefecture":"山口県","prefecture_kana":"ヤマグチケン","city":"下松市","city_kana":"クダマツシ","town":"末武上浴","town_kana":"スエタケカミエキ","prefecture_code":35},{"zip_code":"7440024","prefecture":"山口県","prefecture_kana":"ヤマグチケン","city":"下松市","city_kana":"クダマツシ","town":"末武上戎町","town_kana":"スエタケカミエビスマチ","prefecture_code":35},{"zip_code":"7440024","prefecture":"山口県","prefecture_kana":"ヤマグチケン","city":"下松市","city_kana":"クダマツシ","town":"末武上華陵","town_kana":"スエタケカミカリョウ","prefecture_code":35},{"zip_code":"7440024","prefecture":"山口県","prefecture_kana":"ヤマグチケン","city":"下松市","city_kana":"クダマツシ","town":"末武上下高塚","town_kana":"スエタケカミシモタカツカ","prefecture_code":35},{"zip_code":"7440024","prefecture":"山口県","prefecture_kana":"ヤマグチケン","city":"下松市","city_kana":"クダマツシ","town":"末武上昭和","town_kana":"スエタケカミショウワ","prefecture_code":35},{"zip_code":"7440024","prefecture":"山口県","prefecture_kana":"ヤマグチケン","city":"下松市","city_kana":"クダマツシ","town":"末武上高橋","town_kana":"スエタケカミタカハシ","prefecture_code":35},{"zip_code":"7440024","prefecture":"山口県","prefecture_kana":"ヤマグチケン","city":"下松市","city_kana":"クダマツシ","town":"末武上大黒町","town_kana":"スエタケカミダイコクチョウ","prefecture_code":35},{"zip_code":"7440024","prefecture":"山口県","prefecture_kana":"ヤマグチケン","city":"下松市","city_kana":"クダマツシ","town":"末武上常森","town_kana":"スエタケカミツネモリ","prefecture_code":35},{"zip_code":"7440024","prefecture":"山口県","prefecture_kana":"ヤマグチケン","city":"下松市","city_kana":"クダマツシ","town":"末武上中市","town_kana":"スエタケカミナカイチ","prefecture_code":35},{"zip_code":"7440024","prefecture":"山口県","prefecture_kana":"ヤマグチケン","city":"下松市","city_kana":"クダマツシ","town":"末武上西町","town_kana":"スエタケカミニシマチ","prefecture_code":35},{"zip_code":"7440024","prefecture":"山口県","prefecture_kana":"ヤマグチケン","city":"下松市","city_kana":"クダマツシ","town":"末武上東町","town_kana":"スエタケカミヒガシマチ","prefecture_code":35},{"zip_code":"7440024","prefecture":"山口県","prefecture_kana":"ヤマグチケン","city":"下松市","city_kana":"クダマツシ","town":"末武上緑ケ丘","town_kana":"スエタケカミミドリガオカ","prefecture_code":35},{"zip_code":"7440024","prefecture":"山口県","prefecture_kana":"ヤマグチケン","city":"下松市","city_kana":"クダマツシ","town":"末武上南花岡","town_kana":"スエタケカミミナミハナオカ","prefecture_code":35}],"0022":[{"zip_code":"7440022","prefecture":"山口県","prefecture_kana":"ヤマグチケン","city":"下松市","city_kana":"クダマツシ","town":"末武下","town_kana":"スエタケシモ","prefecture_code":35},{"zip_code":"7440022","prefecture":"山口県","prefecture_kana":"ヤマグチケン","city":"下松市","city_kana":"クダマツシ","town":"末武下","town_kana":"スエタケシモ","prefecture_code":35},{"zip_code":"7440022","prefecture":"山口県","prefecture_kana":"ヤマグチケン","city":"下松市","city_kana":"クダマツシ","town":"末武下あけぼの町","town_kana":"スエタケシモアケボノチョウ","prefecture_code":35},{"zip_code":"7440022","prefecture":"山口県","prefecture_kana":"ヤマグチケン","city":"下松市","city_kana":"クダマツシ","town":"末武下西市沖","town_kana":"スエタケシモニシイチオキ","prefecture_code":35},{"zip_code":"7440022","prefecture":"山口県","prefecture_kana":"ヤマグチケン","city":"下松市","city_kana":"クダマツシ","town":"末武下西市東","town_kana":"スエタケシモニシイチヒガシ","prefecture_code":35},{"zip_code":"7440022","prefecture":"山口県","prefecture_kana":"ヤマグチケン","city":"下松市","city_kana":"クダマツシ","town":"末武下西市西","town_kana":"スエタケシモニシイチニシ","prefecture_code":35},{"zip_code":"7440022","prefecture":"山口県","prefecture_kana":"ヤマグチケン","city":"下松市","city_kana":"クダマツシ","town":"末武下松中町","town_kana":"スエタケシモマツナカチョウ","prefecture_code":35},{"zip_code":"7440022","prefecture":"山口県","prefecture_kana":"ヤマグチケン","city":"下松市","city_kana":"クダマツシ","town":"末武下弥生町","town_kana":"スエタケシモヤヨイチョウ","prefecture_code":35}],"0023":[{"zip_code":"7440023","prefecture":"山口県","prefecture_kana":"ヤマグチケン","city":"下松市","city_kana":"クダマツシ","town":"末武中","town_kana":"スエタケナカ","prefecture_code":35},{"zip_code":"7440023","prefecture":"山口県","prefecture_kana":"ヤマグチケン","city":"下松市","city_kana":"クダマツシ","town":"末武中","town_kana":"スエタケナカ","prefecture_code":35},{"zip_code":"7440023","prefecture":"山口県","prefecture_kana":"ヤマグチケン","city":"下松市","city_kana":"クダマツシ","town":"末武中朝日台","town_kana":"スエタケナカアサヒダイ","prefecture_code":35},{"zip_code":"7440023","prefecture":"山口県","prefecture_kana":"ヤマグチケン","city":"下松市","city_kana":"クダマツシ","town":"末武中荒神","town_kana":"スエタケナカコウジン","prefecture_code":35},{"zip_code":"7440023","prefecture":"山口県","prefecture_kana":"ヤマグチケン","city":"下松市","city_kana":"クダマツシ","town":"末武中西河原","town_kana":"スエタケナカニシガハラ","prefecture_code":35},{"zip_code":"7440023","prefecture":"山口県","prefecture_kana":"ヤマグチケン","city":"下松市","city_kana":"クダマツシ","town":"末武中東中村","town_kana":"スエタケナカヒガシナカムラ","prefecture_code":35},{"zip_code":"7440023","prefecture":"山口県","prefecture_kana":"ヤマグチケン","city":"下松市","city_kana":"クダマツシ","town":"末武中広石","town_kana":"スエタケナカヒロイシ","prefecture_code":35},{"zip_code":"7440023","prefecture":"山口県","prefecture_kana":"ヤマグチケン","city":"下松市","city_kana":"クダマツシ","town":"末武中向香力","town_kana":"スエタケナカムカイコウリキ","prefecture_code":35},{"zip_code":"7440023","prefecture":"山口県","prefecture_kana":"ヤマグチケン","city":"下松市","city_kana":"クダマツシ","town":"末武中山根","town_kana":"スエタケナカヤマネ","prefecture_code":35},{"zip_code":"7440023","prefecture":"山口県","prefecture_kana":"ヤマグチケン","city":"下松市","city_kana":"クダマツシ","town":"末武中和田","town_kana":"スエタケナカワダ","prefecture_code":35}],"0273":[{"zip_code":"7440273","prefecture":"山口県","prefecture_kana":"ヤマグチケン","city":"下松市","city_kana":"クダマツシ","town":"瀬戸","town_kana":"セト","prefecture_code":35},{"zip_code":"7440273","prefecture":"山口県","prefecture_kana":"ヤマグチケン","city":"下松市","city_kana":"クダマツシ","town":"瀬戸","town_kana":"セト","prefecture_code":35},{"zip_code":"7440273","prefecture":"山口県","prefecture_kana":"ヤマグチケン","city":"下松市","city_kana":"クダマツシ","town":"瀬戸後山","town_kana":"セトウシロヤマ","prefecture_code":35},{"zip_code":"7440273","prefecture":"山口県","prefecture_kana":"ヤマグチケン","city":"下松市","city_kana":"クダマツシ","town":"瀬戸高橋","town_kana":"セトタカハシ","prefecture_code":35},{"zip_code":"7440273","prefecture":"山口県","prefecture_kana":"ヤマグチケン","city":"下松市","city_kana":"クダマツシ","town":"瀬戸中瀬","town_kana":"セトナカセ","prefecture_code":35},{"zip_code":"7440273","prefecture":"山口県","prefecture_kana":"ヤマグチケン","city":"下松市","city_kana":"クダマツシ","town":"瀬戸中原","town_kana":"セトナカバラ","prefecture_code":35}],"0025":{"zip_code":"7440025","prefecture":"山口県","prefecture_kana":"ヤマグチケン","city":"下松市","city_kana":"クダマツシ","town":"中央町","town_kana":"チュウオウチョウ","prefecture_code":35},"0028":{"zip_code":"7440028","prefecture":"山口県","prefecture_kana":"ヤマグチケン","city":"下松市","city_kana":"クダマツシ","town":"藤光町","town_kana":"トウミツチョウ","prefecture_code":35},"0043":{"zip_code":"7440043","prefecture":"山口県","prefecture_kana":"ヤマグチケン","city":"下松市","city_kana":"クダマツシ","town":"東陽","town_kana":"トウヨウ","prefecture_code":35},"0053":{"zip_code":"7440053","prefecture":"山口県","prefecture_kana":"ヤマグチケン","city":"下松市","city_kana":"クダマツシ","town":"東和","town_kana":"トウワ","prefecture_code":35},"0014":{"zip_code":"7440014","prefecture":"山口県","prefecture_kana":"ヤマグチケン","city":"下松市","city_kana":"クダマツシ","town":"中市","town_kana":"ナカイチ","prefecture_code":35},"0275":{"zip_code":"7440275","prefecture":"山口県","prefecture_kana":"ヤマグチケン","city":"下松市","city_kana":"クダマツシ","town":"中須南","town_kana":"ナカスミナミ","prefecture_code":35},"0011":[{"zip_code":"7440011","prefecture":"山口県","prefecture_kana":"ヤマグチケン","city":"下松市","city_kana":"クダマツシ","town":"西豊井","town_kana":"ニシトヨイ","prefecture_code":35},{"zip_code":"7440011","prefecture":"山口県","prefecture_kana":"ヤマグチケン","city":"下松市","city_kana":"クダマツシ","town":"西豊井","town_kana":"ニシトヨイ","prefecture_code":35},{"zip_code":"7440011","prefecture":"山口県","prefecture_kana":"ヤマグチケン","city":"下松市","city_kana":"クダマツシ","town":"西豊井相生町","town_kana":"ニシトヨイアイオイチョウ","prefecture_code":35},{"zip_code":"7440011","prefecture":"山口県","prefecture_kana":"ヤマグチケン","city":"下松市","city_kana":"クダマツシ","town":"西豊井旭町","town_kana":"ニシトヨイアサヒマチ","prefecture_code":35},{"zip_code":"7440011","prefecture":"山口県","prefecture_kana":"ヤマグチケン","city":"下松市","city_kana":"クダマツシ","town":"西豊井幸町","town_kana":"ニシトヨイサイワイチョウ","prefecture_code":35},{"zip_code":"7440011","prefecture":"山口県","prefecture_kana":"ヤマグチケン","city":"下松市","city_kana":"クダマツシ","town":"西豊井汐見町","town_kana":"ニシトヨイシオミチョウ","prefecture_code":35},{"zip_code":"7440011","prefecture":"山口県","prefecture_kana":"ヤマグチケン","city":"下松市","city_kana":"クダマツシ","town":"西豊井高砂町","town_kana":"ニシトヨイタカサゴチョウ","prefecture_code":35},{"zip_code":"7440011","prefecture":"山口県","prefecture_kana":"ヤマグチケン","city":"下松市","city_kana":"クダマツシ","town":"西豊井所田","town_kana":"ニシトヨイトコロダ","prefecture_code":35},{"zip_code":"7440011","prefecture":"山口県","prefecture_kana":"ヤマグチケン","city":"下松市","city_kana":"クダマツシ","town":"西豊井中島町","town_kana":"ニシトヨイナカシマチョウ","prefecture_code":35},{"zip_code":"7440011","prefecture":"山口県","prefecture_kana":"ヤマグチケン","city":"下松市","city_kana":"クダマツシ","town":"西豊井本町","town_kana":"ニシトヨイホンマチ","prefecture_code":35},{"zip_code":"7440011","prefecture":"山口県","prefecture_kana":"ヤマグチケン","city":"下松市","city_kana":"クダマツシ","town":"西豊井都町","town_kana":"ニシトヨイミヤコマチ","prefecture_code":35},{"zip_code":"7440011","prefecture":"山口県","prefecture_kana":"ヤマグチケン","city":"下松市","city_kana":"クダマツシ","town":"西豊井元町東","town_kana":"ニシトヨイモトマチヒガシ","prefecture_code":35},{"zip_code":"7440011","prefecture":"山口県","prefecture_kana":"ヤマグチケン","city":"下松市","city_kana":"クダマツシ","town":"西豊井元町西","town_kana":"ニシトヨイモトマチニシ","prefecture_code":35}],"0018":{"zip_code":"7440018","prefecture":"山口県","prefecture_kana":"ヤマグチケン","city":"下松市","city_kana":"クダマツシ","town":"西柳","town_kana":"ニシヤナギ","prefecture_code":35},"0274":[{"zip_code":"7440274","prefecture":"山口県","prefecture_kana":"ヤマグチケン","city":"下松市","city_kana":"クダマツシ","town":"温見","town_kana":"ヌクミ","prefecture_code":35},{"zip_code":"7440274","prefecture":"山口県","prefecture_kana":"ヤマグチケン","city":"下松市","city_kana":"クダマツシ","town":"温見","town_kana":"ヌクミ","prefecture_code":35},{"zip_code":"7440274","prefecture":"山口県","prefecture_kana":"ヤマグチケン","city":"下松市","city_kana":"クダマツシ","town":"温見後山","town_kana":"ヌクミウシロヤマ","prefecture_code":35},{"zip_code":"7440274","prefecture":"山口県","prefecture_kana":"ヤマグチケン","city":"下松市","city_kana":"クダマツシ","town":"温見道谷","town_kana":"ヌクミミチダニ","prefecture_code":35}],"0072":{"zip_code":"7440072","prefecture":"山口県","prefecture_kana":"ヤマグチケン","city":"下松市","city_kana":"クダマツシ","town":"望町","town_kana":"ノゾミチョウ","prefecture_code":35},"0006":{"zip_code":"7440006","prefecture":"山口県","prefecture_kana":"ヤマグチケン","city":"下松市","city_kana":"クダマツシ","town":"旗岡","town_kana":"ハタオカ","prefecture_code":35},"0002":[{"zip_code":"7440002","prefecture":"山口県","prefecture_kana":"ヤマグチケン","city":"下松市","city_kana":"クダマツシ","town":"東豊井","town_kana":"ヒガシトヨイ","prefecture_code":35},{"zip_code":"7440002","prefecture":"山口県","prefecture_kana":"ヤマグチケン","city":"下松市","city_kana":"クダマツシ","town":"東豊井","town_kana":"ヒガシトヨイ","prefecture_code":35},{"zip_code":"7440002","prefecture":"山口県","prefecture_kana":"ヤマグチケン","city":"下松市","city_kana":"クダマツシ","town":"東豊井江口","town_kana":"ヒガシトヨイエグチ","prefecture_code":35},{"zip_code":"7440002","prefecture":"山口県","prefecture_kana":"ヤマグチケン","city":"下松市","city_kana":"クダマツシ","town":"東豊井上豊井","town_kana":"ヒガシトヨイカミトヨイ","prefecture_code":35},{"zip_code":"7440002","prefecture":"山口県","prefecture_kana":"ヤマグチケン","city":"下松市","city_kana":"クダマツシ","town":"東豊井下豊井","town_kana":"ヒガシトヨイシモトヨイ","prefecture_code":35},{"zip_code":"7440002","prefecture":"山口県","prefecture_kana":"ヤマグチケン","city":"下松市","city_kana":"クダマツシ","town":"東豊井神田町","town_kana":"ヒガシトヨイカンダマチ","prefecture_code":35},{"zip_code":"7440002","prefecture":"山口県","prefecture_kana":"ヤマグチケン","city":"下松市","city_kana":"クダマツシ","town":"東豊井恋ケ浜","town_kana":"ヒガシトヨイコイガハマ","prefecture_code":35},{"zip_code":"7440002","prefecture":"山口県","prefecture_kana":"ヤマグチケン","city":"下松市","city_kana":"クダマツシ","town":"東豊井新町","town_kana":"ヒガシトヨイシンマチ","prefecture_code":35},{"zip_code":"7440002","prefecture":"山口県","prefecture_kana":"ヤマグチケン","city":"下松市","city_kana":"クダマツシ","town":"東豊井洲鼻","town_kana":"ヒガシトヨイスバナ","prefecture_code":35},{"zip_code":"7440002","prefecture":"山口県","prefecture_kana":"ヤマグチケン","city":"下松市","city_kana":"クダマツシ","town":"東豊井住吉町","town_kana":"ヒガシトヨイスミヨシチョウ","prefecture_code":35},{"zip_code":"7440002","prefecture":"山口県","prefecture_kana":"ヤマグチケン","city":"下松市","city_kana":"クダマツシ","town":"東豊井寺迫","town_kana":"ヒガシトヨイテラサコ","prefecture_code":35},{"zip_code":"7440002","prefecture":"山口県","prefecture_kana":"ヤマグチケン","city":"下松市","city_kana":"クダマツシ","town":"東豊井寺迫半上","town_kana":"ヒガシトヨイテラサコハンジョウ","prefecture_code":35},{"zip_code":"7440002","prefecture":"山口県","prefecture_kana":"ヤマグチケン","city":"下松市","city_kana":"クダマツシ","town":"東豊井二宮町","town_kana":"ヒガシトヨイニノミヤチョウ","prefecture_code":35},{"zip_code":"7440002","prefecture":"山口県","prefecture_kana":"ヤマグチケン","city":"下松市","city_kana":"クダマツシ","town":"東豊井花垣","town_kana":"ヒガシトヨイハナガキ","prefecture_code":35},{"zip_code":"7440002","prefecture":"山口県","prefecture_kana":"ヤマグチケン","city":"下松市","city_kana":"クダマツシ","town":"東豊井東海岸通り","town_kana":"ヒガシトヨイヒガシカイガンドオリ","prefecture_code":35},{"zip_code":"7440002","prefecture":"山口県","prefecture_kana":"ヤマグチケン","city":"下松市","city_kana":"クダマツシ","town":"東豊井松神町","town_kana":"ヒガシトヨイマツガミチョウ","prefecture_code":35}],"0017":{"zip_code":"7440017","prefecture":"山口県","prefecture_kana":"ヤマグチケン","city":"下松市","city_kana":"クダマツシ","town":"東柳","town_kana":"ヒガシヤナギ","prefecture_code":35},"0021":[{"zip_code":"7440021","prefecture":"山口県","prefecture_kana":"ヤマグチケン","city":"下松市","city_kana":"クダマツシ","town":"平田","town_kana":"ヒラタ","prefecture_code":35},{"zip_code":"7440021","prefecture":"山口県","prefecture_kana":"ヤマグチケン","city":"下松市","city_kana":"クダマツシ","town":"平田","town_kana":"ヒラタ","prefecture_code":35},{"zip_code":"7440021","prefecture":"山口県","prefecture_kana":"ヤマグチケン","city":"下松市","city_kana":"クダマツシ","town":"平田東開作","town_kana":"ヒラタヒガシガイサク","prefecture_code":35},{"zip_code":"7440021","prefecture":"山口県","prefecture_kana":"ヤマグチケン","city":"下松市","city_kana":"クダマツシ","town":"平田西開作","town_kana":"ヒラタニシガイサク","prefecture_code":35}],"0005":{"zip_code":"7440005","prefecture":"山口県","prefecture_kana":"ヤマグチケン","city":"下松市","city_kana":"クダマツシ","town":"古川町","town_kana":"フルカワチョウ","prefecture_code":35},"0012":{"zip_code":"7440012","prefecture":"山口県","prefecture_kana":"ヤマグチケン","city":"下松市","city_kana":"クダマツシ","town":"北斗町","town_kana":"ホクトチョウ","prefecture_code":35},"0065":{"zip_code":"7440065","prefecture":"山口県","prefecture_kana":"ヤマグチケン","city":"下松市","city_kana":"クダマツシ","town":"星が丘","town_kana":"ホシガオカ","prefecture_code":35},"0073":{"zip_code":"7440073","prefecture":"山口県","prefecture_kana":"ヤマグチケン","city":"下松市","city_kana":"クダマツシ","town":"美里町","town_kana":"ミサトチョウ","prefecture_code":35},"0075":{"zip_code":"7440075","prefecture":"山口県","prefecture_kana":"ヤマグチケン","city":"下松市","city_kana":"クダマツシ","town":"瑞穂町","town_kana":"ミズホチョウ","prefecture_code":35},"0027":{"zip_code":"7440027","prefecture":"山口県","prefecture_kana":"ヤマグチケン","city":"下松市","city_kana":"クダマツシ","town":"南花岡","town_kana":"ミナミハナオカ","prefecture_code":35},"0052":{"zip_code":"7440052","prefecture":"山口県","prefecture_kana":"ヤマグチケン","city":"下松市","city_kana":"クダマツシ","town":"桃山町","town_kana":"モモヤマチョウ","prefecture_code":35},"0041":[{"zip_code":"7440041","prefecture":"山口県","prefecture_kana":"ヤマグチケン","city":"下松市","city_kana":"クダマツシ","town":"山田","town_kana":"ヤマダ","prefecture_code":35},{"zip_code":"7440041","prefecture":"山口県","prefecture_kana":"ヤマグチケン","city":"下松市","city_kana":"クダマツシ","town":"山田","town_kana":"ヤマダ","prefecture_code":35},{"zip_code":"7440041","prefecture":"山口県","prefecture_kana":"ヤマグチケン","city":"下松市","city_kana":"クダマツシ","town":"山田梅ノ木原","town_kana":"ヤマダウメノキハラ","prefecture_code":35},{"zip_code":"7440041","prefecture":"山口県","prefecture_kana":"ヤマグチケン","city":"下松市","city_kana":"クダマツシ","town":"山田浴条","town_kana":"ヤマダエキジョウ","prefecture_code":35}],"0276":{"zip_code":"7440276","prefecture":"山口県","prefecture_kana":"ヤマグチケン","city":"下松市","city_kana":"クダマツシ","town":"米川","town_kana":"ヨネガワ","prefecture_code":35},"0063":{"zip_code":"7440063","prefecture":"山口県","prefecture_kana":"ヤマグチケン","city":"下松市","city_kana":"クダマツシ","town":"若宮町","town_kana":"ワカミヤチョウ","prefecture_code":35},"8601":{"zip_code":"7448601","prefecture":"山口県","city":"下松市","town":"大字東豊井","prefecture_code":35},"8585":{"zip_code":"7448585","prefecture":"山口県","city":"下松市","town":"大手町","prefecture_code":35},"8521":{"zip_code":"7448521","prefecture":"山口県","city":"下松市","town":"中央町","prefecture_code":35},"8611":{"zip_code":"7448611","prefecture":"山口県","city":"下松市","town":"大字東豊井","prefecture_code":35}}