{"0005":{"zip_code":"7770005","prefecture":"徳島県","prefecture_kana":"トクシマケン","city":"美馬市","city_kana":"ミマシ","town":"穴吹町穴吹","town_kana":"アナブキチョウアナブキ","prefecture_code":36},"0006":{"zip_code":"7770006","prefecture":"徳島県","prefecture_kana":"トクシマケン","city":"美馬市","city_kana":"ミマシ","town":"穴吹町口山","town_kana":"アナブキチョウクチヤマ","prefecture_code":36},"0007":{"zip_code":"7770007","prefecture":"徳島県","prefecture_kana":"トクシマケン","city":"美馬市","city_kana":"ミマシ","town":"穴吹町古宮","town_kana":"アナブキチョウフルミヤ","prefecture_code":36},"0004":[{"zip_code":"7770004","prefecture":"徳島県","prefecture_kana":"トクシマケン","city":"美馬市","city_kana":"ミマシ","town":"穴吹町三島","town_kana":"アナブキチョウミシマ","prefecture_code":36},{"zip_code":"7770004","prefecture":"徳島県","prefecture_kana":"トクシマケン","city":"美馬市","city_kana":"ミマシ","town":"穴吹町三島大重","town_kana":"アナブキチョウミシマオオシゲ","prefecture_code":36}],"0001":[{"zip_code":"7770001","prefecture":"徳島県","prefecture_kana":"トクシマケン","city":"美馬市","city_kana":"ミマシ","town":"穴吹町三島","town_kana":"アナブキチョウミシマ","prefecture_code":36},{"zip_code":"7770001","prefecture":"徳島県","prefecture_kana":"トクシマケン","city":"美馬市","city_kana":"ミマシ","town":"穴吹町三島小島","town_kana":"アナブキチョウミシマオシマ","prefecture_code":36}],"0002":[{"zip_code":"7770002","prefecture":"徳島県","prefecture_kana":"トクシマケン","city":"美馬市","city_kana":"ミマシ","town":"穴吹町三島","town_kana":"アナブキチョウミシマ","prefecture_code":36},{"zip_code":"7770002","prefecture":"徳島県","prefecture_kana":"トクシマケン","city":"美馬市","city_kana":"ミマシ","town":"穴吹町三島舞中島","town_kana":"アナブキチョウミシママイナカシマ","prefecture_code":36}],"0003":[{"zip_code":"7770003","prefecture":"徳島県","prefecture_kana":"トクシマケン","city":"美馬市","city_kana":"ミマシ","town":"穴吹町三島","town_kana":"アナブキチョウミシマ","prefecture_code":36},{"zip_code":"7770003","prefecture":"徳島県","prefecture_kana":"トクシマケン","city":"美馬市","city_kana":"ミマシ","town":"穴吹町三島三谷","town_kana":"アナブキチョウミシマミタニ","prefecture_code":36}],"0302":[{"zip_code":"7770302","prefecture":"徳島県","prefecture_kana":"トクシマケン","city":"美馬市","city_kana":"ミマシ","town":"木屋平","town_kana":"コヤダイラ","prefecture_code":36},{"zip_code":"7770302","prefecture":"徳島県","prefecture_kana":"トクシマケン","city":"美馬市","city_kana":"ミマシ","town":"木屋平麻衣","town_kana":"コヤダイラアサギヌ","prefecture_code":36},{"zip_code":"7770302","prefecture":"徳島県","prefecture_kana":"トクシマケン","city":"美馬市","city_kana":"ミマシ","town":"木屋平大北","town_kana":"コヤダイラオオキタ","prefecture_code":36},{"zip_code":"7770302","prefecture":"徳島県","prefecture_kana":"トクシマケン","city":"美馬市","city_kana":"ミマシ","town":"木屋平川井","town_kana":"コヤダイラカワイ","prefecture_code":36},{"zip_code":"7770302","prefecture":"徳島県","prefecture_kana":"トクシマケン","city":"美馬市","city_kana":"ミマシ","town":"木屋平下名","town_kana":"コヤダイラシモミョウ","prefecture_code":36},{"zip_code":"7770302","prefecture":"徳島県","prefecture_kana":"トクシマケン","city":"美馬市","city_kana":"ミマシ","town":"木屋平竹尾","town_kana":"コヤダイラタケオ","prefecture_code":36},{"zip_code":"7770302","prefecture":"徳島県","prefecture_kana":"トクシマケン","city":"美馬市","city_kana":"ミマシ","town":"木屋平櫟木","town_kana":"コヤダイラチチノギ","prefecture_code":36}],"0301":[{"zip_code":"7770301","prefecture":"徳島県","prefecture_kana":"トクシマケン","city":"美馬市","city_kana":"ミマシ","town":"木屋平","town_kana":"コヤダイラ","prefecture_code":36},{"zip_code":"7770301","prefecture":"徳島県","prefecture_kana":"トクシマケン","city":"美馬市","city_kana":"ミマシ","town":"木屋平市初","town_kana":"コヤダイライチハナ","prefecture_code":36},{"zip_code":"7770301","prefecture":"徳島県","prefecture_kana":"トクシマケン","city":"美馬市","city_kana":"ミマシ","town":"木屋平今丸","town_kana":"コヤダイライママル","prefecture_code":36},{"zip_code":"7770301","prefecture":"徳島県","prefecture_kana":"トクシマケン","city":"美馬市","city_kana":"ミマシ","town":"木屋平尾山","town_kana":"コヤダイラオヤマ","prefecture_code":36},{"zip_code":"7770301","prefecture":"徳島県","prefecture_kana":"トクシマケン","city":"美馬市","city_kana":"ミマシ","town":"木屋平カゴミ","town_kana":"コヤダイラカゴミ","prefecture_code":36},{"zip_code":"7770301","prefecture":"徳島県","prefecture_kana":"トクシマケン","city":"美馬市","city_kana":"ミマシ","town":"木屋平樫原","town_kana":"コヤダイラカシワラ","prefecture_code":36},{"zip_code":"7770301","prefecture":"徳島県","prefecture_kana":"トクシマケン","city":"美馬市","city_kana":"ミマシ","town":"木屋平木中","town_kana":"コヤダイラキナカ","prefecture_code":36},{"zip_code":"7770301","prefecture":"徳島県","prefecture_kana":"トクシマケン","city":"美馬市","city_kana":"ミマシ","town":"木屋平桑柄","town_kana":"コヤダイラクワガラ","prefecture_code":36},{"zip_code":"7770301","prefecture":"徳島県","prefecture_kana":"トクシマケン","city":"美馬市","city_kana":"ミマシ","town":"木屋平ケヤキヒラ","town_kana":"コヤダイラケヤキヒラ","prefecture_code":36},{"zip_code":"7770301","prefecture":"徳島県","prefecture_kana":"トクシマケン","city":"美馬市","city_kana":"ミマシ","town":"木屋平小日浦","town_kana":"コヤダイラコビウラ","prefecture_code":36},{"zip_code":"7770301","prefecture":"徳島県","prefecture_kana":"トクシマケン","city":"美馬市","city_kana":"ミマシ","town":"木屋平地神滝","town_kana":"コヤダイラジジンダキ","prefecture_code":36},{"zip_code":"7770301","prefecture":"徳島県","prefecture_kana":"トクシマケン","city":"美馬市","city_kana":"ミマシ","town":"木屋平菅蔵","town_kana":"コヤダイラスゲゾウ","prefecture_code":36},{"zip_code":"7770301","prefecture":"徳島県","prefecture_kana":"トクシマケン","city":"美馬市","city_kana":"ミマシ","town":"木屋平杖谷","town_kana":"コヤダイラツエダニ","prefecture_code":36},{"zip_code":"7770301","prefecture":"徳島県","prefecture_kana":"トクシマケン","city":"美馬市","city_kana":"ミマシ","town":"木屋平葛尾","town_kana":"コヤダイラツヅロウ","prefecture_code":36},{"zip_code":"7770301","prefecture":"徳島県","prefecture_kana":"トクシマケン","city":"美馬市","city_kana":"ミマシ","town":"木屋平ハジコノ","town_kana":"コヤダイラハジコノ","prefecture_code":36},{"zip_code":"7770301","prefecture":"徳島県","prefecture_kana":"トクシマケン","city":"美馬市","city_kana":"ミマシ","town":"木屋平ビヤガイチ","town_kana":"コヤダイラビヤガイチ","prefecture_code":36},{"zip_code":"7770301","prefecture":"徳島県","prefecture_kana":"トクシマケン","city":"美馬市","city_kana":"ミマシ","town":"木屋平二戸","town_kana":"コヤダイラフタド","prefecture_code":36},{"zip_code":"7770301","prefecture":"徳島県","prefecture_kana":"トクシマケン","city":"美馬市","city_kana":"ミマシ","town":"木屋平三ツ木","town_kana":"コヤダイラミツギ","prefecture_code":36},{"zip_code":"7770301","prefecture":"徳島県","prefecture_kana":"トクシマケン","city":"美馬市","city_kana":"ミマシ","town":"木屋平貢","town_kana":"コヤダイラミツグ","prefecture_code":36},{"zip_code":"7770301","prefecture":"徳島県","prefecture_kana":"トクシマケン","city":"美馬市","city_kana":"ミマシ","town":"木屋平南張","town_kana":"コヤダイラミナミバリ","prefecture_code":36},{"zip_code":"7770301","prefecture":"徳島県","prefecture_kana":"トクシマケン","city":"美馬市","city_kana":"ミマシ","town":"木屋平向樫原","town_kana":"コヤダイラムコウカシワラ","prefecture_code":36}],"0303":[{"zip_code":"7770303","prefecture":"徳島県","prefecture_kana":"トクシマケン","city":"美馬市","city_kana":"ミマシ","town":"木屋平","town_kana":"コヤダイラ","prefecture_code":36},{"zip_code":"7770303","prefecture":"徳島県","prefecture_kana":"トクシマケン","city":"美馬市","city_kana":"ミマシ","town":"木屋平川上","town_kana":"コヤダイラカワカミ","prefecture_code":36},{"zip_code":"7770303","prefecture":"徳島県","prefecture_kana":"トクシマケン","city":"美馬市","city_kana":"ミマシ","town":"木屋平川上カケ","town_kana":"コヤダイラカワカミカケ","prefecture_code":36},{"zip_code":"7770303","prefecture":"徳島県","prefecture_kana":"トクシマケン","city":"美馬市","city_kana":"ミマシ","town":"木屋平太合","town_kana":"コヤダイラタイゴウ","prefecture_code":36},{"zip_code":"7770303","prefecture":"徳島県","prefecture_kana":"トクシマケン","city":"美馬市","city_kana":"ミマシ","town":"木屋平太合カケ","town_kana":"コヤダイラタイゴウカケ","prefecture_code":36},{"zip_code":"7770303","prefecture":"徳島県","prefecture_kana":"トクシマケン","city":"美馬市","city_kana":"ミマシ","town":"木屋平谷口","town_kana":"コヤダイラタニグチ","prefecture_code":36},{"zip_code":"7770303","prefecture":"徳島県","prefecture_kana":"トクシマケン","city":"美馬市","city_kana":"ミマシ","town":"木屋平谷口カケ","town_kana":"コヤダイラタニグチカケ","prefecture_code":36},{"zip_code":"7770303","prefecture":"徳島県","prefecture_kana":"トクシマケン","city":"美馬市","city_kana":"ミマシ","town":"木屋平森遠","town_kana":"コヤダイラモリトオ","prefecture_code":36},{"zip_code":"7770303","prefecture":"徳島県","prefecture_kana":"トクシマケン","city":"美馬市","city_kana":"ミマシ","town":"木屋平八幡","town_kana":"コヤダイラヤワタ","prefecture_code":36},{"zip_code":"7770303","prefecture":"徳島県","prefecture_kana":"トクシマケン","city":"美馬市","city_kana":"ミマシ","town":"木屋平弓道","town_kana":"コヤダイラユドウ","prefecture_code":36}],"0395":{"zip_code":"7770395","prefecture":"徳島県","city":"美馬市","town":"木屋平","prefecture_code":36}}