{"0000":{"zip_code":"8050000","prefecture":"福岡県","prefecture_kana":"フクオカケン","city":"北九州市八幡東区","city_kana":"キタキュウシュウシヤハタヒガシク","town":"","town_kana":"","prefecture_code":40},"0001":{"zip_code":"8050001","prefecture":"福岡県","prefecture_kana":"フクオカケン","city":"北九州市八幡東区","city_kana":"キタキュウシュウシヤハタヒガシク","town":"荒手","town_kana":"アラテ","prefecture_code":40},"0015":{"zip_code":"8050015","prefecture":"福岡県","prefecture_kana":"フクオカケン","city":"北九州市八幡東区","city_kana":"キタキュウシュウシヤハタヒガシク","town":"荒生田","town_kana":"アロウダ","prefecture_code":40},"0021":{"zip_code":"8050021","prefecture":"福岡県","prefecture_kana":"フクオカケン","city":"北九州市八幡東区","city_kana":"キタキュウシュウシヤハタヒガシク","town":"石坪町","town_kana":"イシツボマチ","prefecture_code":40},"0037":{"zip_code":"8050037","prefecture":"福岡県","prefecture_kana":"フクオカケン","city":"北九州市八幡東区","city_kana":"キタキュウシュウシヤハタヒガシク","town":"猪倉町","town_kana":"イノクラマチ","prefecture_code":40},"0041":{"zip_code":"8050041","prefecture":"福岡県","prefecture_kana":"フクオカケン","city":"北九州市八幡東区","city_kana":"キタキュウシュウシヤハタヒガシク","town":"祝町","town_kana":"イワイマチ","prefecture_code":40},"0002":{"zip_code":"8050002","prefecture":"福岡県","prefecture_kana":"フクオカケン","city":"北九州市八幡東区","city_kana":"キタキュウシュウシヤハタヒガシク","town":"枝光","town_kana":"エダミツ","prefecture_code":40},"0008":{"zip_code":"8050008","prefecture":"福岡県","prefecture_kana":"フクオカケン","city":"北九州市八幡東区","city_kana":"キタキュウシュウシヤハタヒガシク","town":"枝光本町","town_kana":"エダミツホンマチ","prefecture_code":40},"0048":{"zip_code":"8050048","prefecture":"福岡県","prefecture_kana":"フクオカケン","city":"北九州市八幡東区","city_kana":"キタキュウシュウシヤハタヒガシク","town":"大蔵","town_kana":"オオクラ","prefecture_code":40},"0053":{"zip_code":"8050053","prefecture":"福岡県","prefecture_kana":"フクオカケン","city":"北九州市八幡東区","city_kana":"キタキュウシュウシヤハタヒガシク","town":"大谷","town_kana":"オオタニ","prefecture_code":40},"0038":{"zip_code":"8050038","prefecture":"福岡県","prefecture_kana":"フクオカケン","city":"北九州市八幡東区","city_kana":"キタキュウシュウシヤハタヒガシク","town":"大平町","town_kana":"オオヒラマチ","prefecture_code":40},"0003":{"zip_code":"8050003","prefecture":"福岡県","prefecture_kana":"フクオカケン","city":"北九州市八幡東区","city_kana":"キタキュウシュウシヤハタヒガシク","town":"大宮町","town_kana":"オオミヤマチ","prefecture_code":40},"0057":[{"zip_code":"8050057","prefecture":"福岡県","prefecture_kana":"フクオカケン","city":"北九州市八幡東区","city_kana":"キタキュウシュウシヤハタヒガシク","town":"尾倉","town_kana":"オグラ","prefecture_code":40},{"zip_code":"8050057","prefecture":"福岡県","prefecture_kana":"フクオカケン","city":"北九州市八幡東区","city_kana":"キタキュウシュウシヤハタヒガシク","town":"尾倉大字","town_kana":"オグラオオアザ","prefecture_code":40}],"0059":{"zip_code":"8050059","prefecture":"福岡県","prefecture_kana":"フクオカケン","city":"北九州市八幡東区","city_kana":"キタキュウシュウシヤハタヒガシク","town":"尾倉","town_kana":"オグラ","prefecture_code":40},"0043":{"zip_code":"8050043","prefecture":"福岡県","prefecture_kana":"フクオカケン","city":"北九州市八幡東区","city_kana":"キタキュウシュウシヤハタヒガシク","town":"勝山","town_kana":"カツヤマ","prefecture_code":40},"0018":{"zip_code":"8050018","prefecture":"福岡県","prefecture_kana":"フクオカケン","city":"北九州市八幡東区","city_kana":"キタキュウシュウシヤハタヒガシク","town":"上本町","town_kana":"カミホンマチ","prefecture_code":40},"0055":{"zip_code":"8050055","prefecture":"福岡県","prefecture_kana":"フクオカケン","city":"北九州市八幡東区","city_kana":"キタキュウシュウシヤハタヒガシク","town":"神山町","town_kana":"カミヤママチ","prefecture_code":40},"0045":{"zip_code":"8050045","prefecture":"福岡県","prefecture_kana":"フクオカケン","city":"北九州市八幡東区","city_kana":"キタキュウシュウシヤハタヒガシク","town":"河内","town_kana":"カワチ","prefecture_code":40},"0012":{"zip_code":"8050012","prefecture":"福岡県","prefecture_kana":"フクオカケン","city":"北九州市八幡東区","city_kana":"キタキュウシュウシヤハタヒガシク","town":"川淵町","town_kana":"カワブチマチ","prefecture_code":40},"0067":{"zip_code":"8050067","prefecture":"福岡県","prefecture_kana":"フクオカケン","city":"北九州市八幡東区","city_kana":"キタキュウシュウシヤハタヒガシク","town":"祇園","town_kana":"ギオン","prefecture_code":40},"0066":{"zip_code":"8050066","prefecture":"福岡県","prefecture_kana":"フクオカケン","city":"北九州市八幡東区","city_kana":"キタキュウシュウシヤハタヒガシク","town":"祇園原町","town_kana":"ギオンバラマチ","prefecture_code":40},"0034":{"zip_code":"8050034","prefecture":"福岡県","prefecture_kana":"フクオカケン","city":"北九州市八幡東区","city_kana":"キタキュウシュウシヤハタヒガシク","town":"清田","town_kana":"キヨタ","prefecture_code":40},"0047":{"zip_code":"8050047","prefecture":"福岡県","prefecture_kana":"フクオカケン","city":"北九州市八幡東区","city_kana":"キタキュウシュウシヤハタヒガシク","town":"景勝町","town_kana":"ケイショウマチ","prefecture_code":40},"0036":{"zip_code":"8050036","prefecture":"福岡県","prefecture_kana":"フクオカケン","city":"北九州市八幡東区","city_kana":"キタキュウシュウシヤハタヒガシク","town":"小熊野","town_kana":"コグマノ","prefecture_code":40},"0035":{"zip_code":"8050035","prefecture":"福岡県","prefecture_kana":"フクオカケン","city":"北九州市八幡東区","city_kana":"キタキュウシュウシヤハタヒガシク","town":"山路","town_kana":"サンジ","prefecture_code":40},"0033":{"zip_code":"8050033","prefecture":"福岡県","prefecture_kana":"フクオカケン","city":"北九州市八幡東区","city_kana":"キタキュウシュウシヤハタヒガシク","town":"山路松尾町","town_kana":"サンジマツオマチ","prefecture_code":40},"0017":{"zip_code":"8050017","prefecture":"福岡県","prefecture_kana":"フクオカケン","city":"北九州市八幡東区","city_kana":"キタキュウシュウシヤハタヒガシク","town":"山王","town_kana":"サンノウ","prefecture_code":40},"0013":{"zip_code":"8050013","prefecture":"福岡県","prefecture_kana":"フクオカケン","city":"北九州市八幡東区","city_kana":"キタキュウシュウシヤハタヒガシク","town":"昭和","town_kana":"ショウワ","prefecture_code":40},"0007":{"zip_code":"8050007","prefecture":"福岡県","prefecture_kana":"フクオカケン","city":"北九州市八幡東区","city_kana":"キタキュウシュウシヤハタヒガシク","town":"白川町","town_kana":"シラカワマチ","prefecture_code":40},"0049":{"zip_code":"8050049","prefecture":"福岡県","prefecture_kana":"フクオカケン","city":"北九州市八幡東区","city_kana":"キタキュウシュウシヤハタヒガシク","town":"末広町","town_kana":"スエヒロマチ","prefecture_code":40},"0006":{"zip_code":"8050006","prefecture":"福岡県","prefecture_kana":"フクオカケン","city":"北九州市八幡東区","city_kana":"キタキュウシュウシヤハタヒガシク","town":"諏訪","town_kana":"スワ","prefecture_code":40},"0016":{"zip_code":"8050016","prefecture":"福岡県","prefecture_kana":"フクオカケン","city":"北九州市八幡東区","city_kana":"キタキュウシュウシヤハタヒガシク","town":"高見","town_kana":"タカミ","prefecture_code":40},"0022":{"zip_code":"8050022","prefecture":"福岡県","prefecture_kana":"フクオカケン","city":"北九州市八幡東区","city_kana":"キタキュウシュウシヤハタヒガシク","town":"竹下町","town_kana":"タケシタマチ","prefecture_code":40},"0046":{"zip_code":"8050046","prefecture":"福岡県","prefecture_kana":"フクオカケン","city":"北九州市八幡東区","city_kana":"キタキュウシュウシヤハタヒガシク","town":"田代","town_kana":"タシロ","prefecture_code":40},"0014":{"zip_code":"8050014","prefecture":"福岡県","prefecture_kana":"フクオカケン","city":"北九州市八幡東区","city_kana":"キタキュウシュウシヤハタヒガシク","town":"茶屋町","town_kana":"チャヤマチ","prefecture_code":40},"0019":{"zip_code":"8050019","prefecture":"福岡県","prefecture_kana":"フクオカケン","city":"北九州市八幡東区","city_kana":"キタキュウシュウシヤハタヒガシク","town":"中央","town_kana":"チュウオウ","prefecture_code":40},"0031":{"zip_code":"8050031","prefecture":"福岡県","prefecture_kana":"フクオカケン","city":"北九州市八幡東区","city_kana":"キタキュウシュウシヤハタヒガシク","town":"槻田","town_kana":"ツキダ","prefecture_code":40},"0054":{"zip_code":"8050054","prefecture":"福岡県","prefecture_kana":"フクオカケン","city":"北九州市八幡東区","city_kana":"キタキュウシュウシヤハタヒガシク","town":"天神町","town_kana":"テンジンマチ","prefecture_code":40},"0025":{"zip_code":"8050025","prefecture":"福岡県","prefecture_kana":"フクオカケン","city":"北九州市八幡東区","city_kana":"キタキュウシュウシヤハタヒガシク","town":"中尾","town_kana":"ナカオ","prefecture_code":40},"0024":{"zip_code":"8050024","prefecture":"福岡県","prefecture_kana":"フクオカケン","city":"北九州市八幡東区","city_kana":"キタキュウシュウシヤハタヒガシク","town":"中畑","town_kana":"ナカハタ","prefecture_code":40},"0064":{"zip_code":"8050064","prefecture":"福岡県","prefecture_kana":"フクオカケン","city":"北九州市八幡東区","city_kana":"キタキュウシュウシヤハタヒガシク","town":"西台良町","town_kana":"ニシダイラマチ","prefecture_code":40},"0061":{"zip_code":"8050061","prefecture":"福岡県","prefecture_kana":"フクオカケン","city":"北九州市八幡東区","city_kana":"キタキュウシュウシヤハタヒガシク","town":"西本町","town_kana":"ニシホンマチ","prefecture_code":40},"0052":{"zip_code":"8050052","prefecture":"福岡県","prefecture_kana":"フクオカケン","city":"北九州市八幡東区","city_kana":"キタキュウシュウシヤハタヒガシク","town":"西丸山町","town_kana":"ニシマルヤママチ","prefecture_code":40},"0042":{"zip_code":"8050042","prefecture":"福岡県","prefecture_kana":"フクオカケン","city":"北九州市八幡東区","city_kana":"キタキュウシュウシヤハタヒガシク","town":"羽衣町","town_kana":"ハゴロモマチ","prefecture_code":40},"0011":{"zip_code":"8050011","prefecture":"福岡県","prefecture_kana":"フクオカケン","city":"北九州市八幡東区","city_kana":"キタキュウシュウシヤハタヒガシク","town":"八王寺町","town_kana":"ハチオウジマチ","prefecture_code":40},"0065":{"zip_code":"8050065","prefecture":"福岡県","prefecture_kana":"フクオカケン","city":"北九州市八幡東区","city_kana":"キタキュウシュウシヤハタヒガシク","town":"花尾町","town_kana":"ハナオマチ","prefecture_code":40},"0050":{"zip_code":"8050050","prefecture":"福岡県","prefecture_kana":"フクオカケン","city":"北九州市八幡東区","city_kana":"キタキュウシュウシヤハタヒガシク","town":"春の町","town_kana":"ハルノマチ","prefecture_code":40},"0071":{"zip_code":"8050071","prefecture":"福岡県","prefecture_kana":"フクオカケン","city":"北九州市八幡東区","city_kana":"キタキュウシュウシヤハタヒガシク","town":"東田","town_kana":"ヒガシダ","prefecture_code":40},"0063":{"zip_code":"8050063","prefecture":"福岡県","prefecture_kana":"フクオカケン","city":"北九州市八幡東区","city_kana":"キタキュウシュウシヤハタヒガシク","town":"東台良町","town_kana":"ヒガシダイラマチ","prefecture_code":40},"0027":{"zip_code":"8050027","prefecture":"福岡県","prefecture_kana":"フクオカケン","city":"北九州市八幡東区","city_kana":"キタキュウシュウシヤハタヒガシク","town":"東鉄町","town_kana":"ヒガシテツマチ","prefecture_code":40},"0051":{"zip_code":"8050051","prefecture":"福岡県","prefecture_kana":"フクオカケン","city":"北九州市八幡東区","city_kana":"キタキュウシュウシヤハタヒガシク","town":"東丸山町","town_kana":"ヒガシマルヤママチ","prefecture_code":40},"0026":{"zip_code":"8050026","prefecture":"福岡県","prefecture_kana":"フクオカケン","city":"北九州市八幡東区","city_kana":"キタキュウシュウシヤハタヒガシク","town":"東山","town_kana":"ヒガシヤマ","prefecture_code":40},"0004":{"zip_code":"8050004","prefecture":"福岡県","prefecture_kana":"フクオカケン","city":"北九州市八幡東区","city_kana":"キタキュウシュウシヤハタヒガシク","town":"日の出","town_kana":"ヒノデ","prefecture_code":40},"0062":{"zip_code":"8050062","prefecture":"福岡県","prefecture_kana":"フクオカケン","city":"北九州市八幡東区","city_kana":"キタキュウシュウシヤハタヒガシク","town":"平野","town_kana":"ヒラノ","prefecture_code":40},"0005":{"zip_code":"8050005","prefecture":"福岡県","prefecture_kana":"フクオカケン","city":"北九州市八幡東区","city_kana":"キタキュウシュウシヤハタヒガシク","town":"藤見町","town_kana":"フジミマチ","prefecture_code":40},"0056":{"zip_code":"8050056","prefecture":"福岡県","prefecture_kana":"フクオカケン","city":"北九州市八幡東区","city_kana":"キタキュウシュウシヤハタヒガシク","town":"帆柱","town_kana":"ホバシラ","prefecture_code":40},"0058":[{"zip_code":"8050058","prefecture":"福岡県","prefecture_kana":"フクオカケン","city":"北九州市八幡東区","city_kana":"キタキュウシュウシヤハタヒガシク","town":"前田","town_kana":"マエダ","prefecture_code":40},{"zip_code":"8050058","prefecture":"福岡県","prefecture_kana":"フクオカケン","city":"北九州市八幡東区","city_kana":"キタキュウシュウシヤハタヒガシク","town":"前田大字","town_kana":"マエダオオアザ","prefecture_code":40}],"0069":{"zip_code":"8050069","prefecture":"福岡県","prefecture_kana":"フクオカケン","city":"北九州市八幡東区","city_kana":"キタキュウシュウシヤハタヒガシク","town":"前田","town_kana":"マエダ","prefecture_code":40},"0032":{"zip_code":"8050032","prefecture":"福岡県","prefecture_kana":"フクオカケン","city":"北九州市八幡東区","city_kana":"キタキュウシュウシヤハタヒガシク","town":"松尾町","town_kana":"マツオマチ","prefecture_code":40},"0009":{"zip_code":"8050009","prefecture":"福岡県","prefecture_kana":"フクオカケン","city":"北九州市八幡東区","city_kana":"キタキュウシュウシヤハタヒガシク","town":"宮田町","town_kana":"ミヤタマチ","prefecture_code":40},"0023":{"zip_code":"8050023","prefecture":"福岡県","prefecture_kana":"フクオカケン","city":"北九州市八幡東区","city_kana":"キタキュウシュウシヤハタヒガシク","town":"宮の町","town_kana":"ミヤノマチ","prefecture_code":40},"0068":{"zip_code":"8050068","prefecture":"福岡県","prefecture_kana":"フクオカケン","city":"北九州市八幡東区","city_kana":"キタキュウシュウシヤハタヒガシク","town":"桃園","town_kana":"モモゾノ","prefecture_code":40},"0044":{"zip_code":"8050044","prefecture":"福岡県","prefecture_kana":"フクオカケン","city":"北九州市八幡東区","city_kana":"キタキュウシュウシヤハタヒガシク","town":"豊町","town_kana":"ユタカマチ","prefecture_code":40},"8508":{"zip_code":"8058508","prefecture":"福岡県","city":"北九州市八幡東区","town":"春の町","prefecture_code":40},"8507":{"zip_code":"8058507","prefecture":"福岡県","city":"北九州市八幡東区","town":"西本町","prefecture_code":40},"8538":{"zip_code":"8058538","prefecture":"福岡県","city":"北九州市八幡東区","town":"東田","prefecture_code":40},"8531":{"zip_code":"8058531","prefecture":"福岡県","city":"北九州市八幡東区","town":"山王","prefecture_code":40},"8535":{"zip_code":"8058535","prefecture":"福岡県","city":"北九州市八幡東区","town":"西本町","prefecture_code":40},"8528":{"zip_code":"8058528","prefecture":"福岡県","city":"北九州市八幡東区","town":"平野","prefecture_code":40},"8585":{"zip_code":"8058585","prefecture":"福岡県","city":"北九州市八幡東区","town":"東田","prefecture_code":40},"8539":{"zip_code":"8058539","prefecture":"福岡県","city":"北九州市八幡東区","town":"","prefecture_code":40},"8514":{"zip_code":"8058514","prefecture":"福岡県","city":"北九州市八幡東区","town":"大字枝光","prefecture_code":40},"8536":{"zip_code":"8058536","prefecture":"福岡県","city":"北九州市八幡東区","town":"大字前田","prefecture_code":40},"8513":{"zip_code":"8058513","prefecture":"福岡県","city":"北九州市八幡東区","town":"平野","prefecture_code":40},"8510":{"zip_code":"8058510","prefecture":"福岡県","city":"北九州市八幡東区","town":"中央","prefecture_code":40},"8534":{"zip_code":"8058534","prefecture":"福岡県","city":"北九州市八幡東区","town":"西本町","prefecture_code":40},"8512":{"zip_code":"8058512","prefecture":"福岡県","city":"北九州市八幡東区","town":"平野","prefecture_code":40},"8533":{"zip_code":"8058533","prefecture":"福岡県","city":"北九州市八幡東区","town":"山王","prefecture_code":40},"8527":{"zip_code":"8058527","prefecture":"福岡県","city":"北九州市八幡東区","town":"春の町","prefecture_code":40},"8530":{"zip_code":"8058530","prefecture":"福岡県","city":"北九州市八幡東区","town":"川淵町","prefecture_code":40},"8521":{"zip_code":"8058521","prefecture":"福岡県","city":"北九州市八幡東区","town":"尾倉","prefecture_code":40},"8518":{"zip_code":"8058518","prefecture":"福岡県","city":"北九州市八幡東区","town":"山王","prefecture_code":40},"8505":{"zip_code":"8058505","prefecture":"福岡県","city":"北九州市八幡東区","town":"平野","prefecture_code":40},"8555":{"zip_code":"8058555","prefecture":"福岡県","city":"北九州市八幡東区","town":"大字前田","prefecture_code":40},"8516":{"zip_code":"8058516","prefecture":"福岡県","city":"北九州市八幡東区","town":"枝光本町","prefecture_code":40},"8520":{"zip_code":"8058520","prefecture":"福岡県","city":"北九州市八幡東区","town":"尾倉","prefecture_code":40},"8503":{"zip_code":"8058503","prefecture":"福岡県","city":"北九州市八幡東区","town":"枝光","prefecture_code":40},"8625":{"zip_code":"8058625","prefecture":"福岡県","city":"北九州市八幡東区","town":"中央","prefecture_code":40},"8509":{"zip_code":"8058509","prefecture":"福岡県","city":"北九州市八幡東区","town":"東田","prefecture_code":40},"8606":{"zip_code":"8058606","prefecture":"福岡県","city":"北九州市八幡東区","town":"平野","prefecture_code":40},"8501":{"zip_code":"8058501","prefecture":"福岡県","city":"北九州市八幡東区","town":"尾倉","prefecture_code":40}}