{"0014":{"zip_code":"8210014","prefecture":"福岡県","prefecture_kana":"フクオカケン","city":"嘉麻市","city_kana":"カマシ","town":"猪国","town_kana":"イノクニ","prefecture_code":40},"0004":{"zip_code":"8210004","prefecture":"福岡県","prefecture_kana":"フクオカケン","city":"嘉麻市","city_kana":"カマシ","town":"大隈","town_kana":"オオクマ","prefecture_code":40},"0002":[{"zip_code":"8210002","prefecture":"福岡県","prefecture_kana":"フクオカケン","city":"嘉麻市","city_kana":"カマシ","town":"大隈町","town_kana":"オオクママチ","prefecture_code":40},{"zip_code":"8210002","prefecture":"福岡県","prefecture_kana":"フクオカケン","city":"嘉麻市","city_kana":"カマシ","town":"大隈町猪之鼻","town_kana":"オオクママチイノハナ","prefecture_code":40}],"0012":{"zip_code":"8210012","prefecture":"福岡県","prefecture_kana":"フクオカケン","city":"嘉麻市","city_kana":"カマシ","town":"上山田","town_kana":"カミヤマダ","prefecture_code":40},"0013":{"zip_code":"8210013","prefecture":"福岡県","prefecture_kana":"フクオカケン","city":"嘉麻市","city_kana":"カマシ","town":"熊ケ畑","town_kana":"クマガハタ","prefecture_code":40},"0011":{"zip_code":"8210011","prefecture":"福岡県","prefecture_kana":"フクオカケン","city":"嘉麻市","city_kana":"カマシ","town":"下山田","town_kana":"シモヤマダ","prefecture_code":40},"8501":{"zip_code":"8218501","prefecture":"福岡県","city":"嘉麻市","town":"上山田","prefecture_code":40}}