{"0812":{"zip_code":"8400812","prefecture":"佐賀県","prefecture_kana":"サガケン","city":"佐賀市","city_kana":"サガシ","town":"愛敬町","town_kana":"アイケイチョウ","prefecture_code":41},"0042":{"zip_code":"8400042","prefecture":"佐賀県","prefecture_kana":"サガケン","city":"佐賀市","city_kana":"サガシ","town":"赤松町","town_kana":"アカマツマチ","prefecture_code":41},"0053":{"zip_code":"8400053","prefecture":"佐賀県","prefecture_kana":"サガケン","city":"佐賀市","city_kana":"サガシ","town":"朝日町","town_kana":"アサヒマチ","prefecture_code":41},"0844":{"zip_code":"8400844","prefecture":"佐賀県","prefecture_kana":"サガケン","city":"佐賀市","city_kana":"サガシ","town":"伊勢町","town_kana":"イセマチ","prefecture_code":41},"0052":{"zip_code":"8400052","prefecture":"佐賀県","prefecture_kana":"サガケン","city":"佐賀市","city_kana":"サガシ","town":"今宿町","town_kana":"イマシュクマチ","prefecture_code":41},"0801":{"zip_code":"8400801","prefecture":"佐賀県","prefecture_kana":"サガケン","city":"佐賀市","city_kana":"サガシ","town":"駅前中央","town_kana":"エキマエチュウオウ","prefecture_code":41},"0816":{"zip_code":"8400816","prefecture":"佐賀県","prefecture_kana":"サガケン","city":"佐賀市","city_kana":"サガシ","town":"駅南本町","town_kana":"エキミナミホンマチ","prefecture_code":41},"0811":{"zip_code":"8400811","prefecture":"佐賀県","prefecture_kana":"サガケン","city":"佐賀市","city_kana":"サガシ","town":"大財","town_kana":"オオタカラ","prefecture_code":41},"0802":{"zip_code":"8400802","prefecture":"佐賀県","prefecture_kana":"サガケン","city":"佐賀市","city_kana":"サガシ","town":"大財北町","town_kana":"オオタカラキタマチ","prefecture_code":41},"0021":{"zip_code":"8400021","prefecture":"佐賀県","prefecture_kana":"サガケン","city":"佐賀市","city_kana":"サガシ","town":"鬼丸町","town_kana":"オニマルチョウ","prefecture_code":41},"0862":{"zip_code":"8400862","prefecture":"佐賀県","prefecture_kana":"サガケン","city":"佐賀市","city_kana":"サガシ","town":"嘉瀬町扇町","town_kana":"カセマチオウギマチ","prefecture_code":41},"0864":{"zip_code":"8400864","prefecture":"佐賀県","prefecture_kana":"サガケン","city":"佐賀市","city_kana":"サガシ","town":"嘉瀬町荻野","town_kana":"カセマチオギノ","prefecture_code":41},"0863":{"zip_code":"8400863","prefecture":"佐賀県","prefecture_kana":"サガケン","city":"佐賀市","city_kana":"サガシ","town":"嘉瀬町十五","town_kana":"カセマチジュウゴ","prefecture_code":41},"0861":{"zip_code":"8400861","prefecture":"佐賀県","prefecture_kana":"サガケン","city":"佐賀市","city_kana":"サガシ","town":"嘉瀬町中原","town_kana":"カセマチナカバル","prefecture_code":41},"0806":{"zip_code":"8400806","prefecture":"佐賀県","prefecture_kana":"サガケン","city":"佐賀市","city_kana":"サガシ","town":"神園","town_kana":"カミゾノ","prefecture_code":41},"2212":{"zip_code":"8402212","prefecture":"佐賀県","prefecture_kana":"サガケン","city":"佐賀市","city_kana":"サガシ","town":"川副町犬井道","town_kana":"カワソエマチイヌイドウ","prefecture_code":41},"2211":{"zip_code":"8402211","prefecture":"佐賀県","prefecture_kana":"サガケン","city":"佐賀市","city_kana":"サガシ","town":"川副町大詫間","town_kana":"カワソエマチオオダクマ","prefecture_code":41},"2213":{"zip_code":"8402213","prefecture":"佐賀県","prefecture_kana":"サガケン","city":"佐賀市","city_kana":"サガシ","town":"川副町鹿江","town_kana":"カワソエマチカノエ","prefecture_code":41},"2214":{"zip_code":"8402214","prefecture":"佐賀県","prefecture_kana":"サガケン","city":"佐賀市","city_kana":"サガシ","town":"川副町小々森","town_kana":"カワソエマチコゴモリ","prefecture_code":41},"2205":{"zip_code":"8402205","prefecture":"佐賀県","prefecture_kana":"サガケン","city":"佐賀市","city_kana":"サガシ","town":"川副町南里","town_kana":"カワソエマチナンリ","prefecture_code":41},"2204":{"zip_code":"8402204","prefecture":"佐賀県","prefecture_kana":"サガケン","city":"佐賀市","city_kana":"サガシ","town":"川副町西古賀","town_kana":"カワソエマチニシコガ","prefecture_code":41},"2203":{"zip_code":"8402203","prefecture":"佐賀県","prefecture_kana":"サガケン","city":"佐賀市","city_kana":"サガシ","town":"川副町早津江","town_kana":"カワソエマチハヤツエ","prefecture_code":41},"2202":{"zip_code":"8402202","prefecture":"佐賀県","prefecture_kana":"サガケン","city":"佐賀市","city_kana":"サガシ","town":"川副町早津江津","town_kana":"カワソエマチハヤツエツ","prefecture_code":41},"2201":{"zip_code":"8402201","prefecture":"佐賀県","prefecture_kana":"サガケン","city":"佐賀市","city_kana":"サガシ","town":"川副町福富","town_kana":"カワソエマチフクドミ","prefecture_code":41},"0843":{"zip_code":"8400843","prefecture":"佐賀県","prefecture_kana":"サガケン","city":"佐賀市","city_kana":"サガシ","town":"川原町","town_kana":"カワハラマチ","prefecture_code":41},"0011":{"zip_code":"8400011","prefecture":"佐賀県","prefecture_kana":"サガケン","city":"佐賀市","city_kana":"サガシ","town":"北川副町江上","town_kana":"キタカワソエマチエガミ","prefecture_code":41},"0013":{"zip_code":"8400013","prefecture":"佐賀県","prefecture_kana":"サガケン","city":"佐賀市","city_kana":"サガシ","town":"北川副町新郷","town_kana":"キタカワソエマチシンゴウ","prefecture_code":41},"0012":{"zip_code":"8400012","prefecture":"佐賀県","prefecture_kana":"サガケン","city":"佐賀市","city_kana":"サガシ","town":"北川副町光法","town_kana":"キタカワソエマチミツノリ","prefecture_code":41},"0015":{"zip_code":"8400015","prefecture":"佐賀県","prefecture_kana":"サガケン","city":"佐賀市","city_kana":"サガシ","town":"木原","town_kana":"キハラ","prefecture_code":41},"0804":{"zip_code":"8400804","prefecture":"佐賀県","prefecture_kana":"サガケン","city":"佐賀市","city_kana":"サガシ","town":"神野東","town_kana":"コウノヒガシ","prefecture_code":41},"0805":{"zip_code":"8400805","prefecture":"佐賀県","prefecture_kana":"サガケン","city":"佐賀市","city_kana":"サガシ","town":"神野西","town_kana":"コウノニシ","prefecture_code":41},"0008":{"zip_code":"8400008","prefecture":"佐賀県","prefecture_kana":"サガケン","city":"佐賀市","city_kana":"サガシ","town":"巨勢町牛島","town_kana":"コセマチウシジマ","prefecture_code":41},"0007":{"zip_code":"8400007","prefecture":"佐賀県","prefecture_kana":"サガケン","city":"佐賀市","city_kana":"サガシ","town":"巨勢町高尾","town_kana":"コセマチタカオ","prefecture_code":41},"0001":{"zip_code":"8400001","prefecture":"佐賀県","prefecture_kana":"サガケン","city":"佐賀市","city_kana":"サガシ","town":"巨勢町修理田","town_kana":"コセマチシュリタ","prefecture_code":41},"0006":{"zip_code":"8400006","prefecture":"佐賀県","prefecture_kana":"サガケン","city":"佐賀市","city_kana":"サガシ","town":"巨勢町東西","town_kana":"コセマチトウザイ","prefecture_code":41},"0824":{"zip_code":"8400824","prefecture":"佐賀県","prefecture_kana":"サガケン","city":"佐賀市","city_kana":"サガシ","town":"呉服元町","town_kana":"ゴフクモトマチ","prefecture_code":41},"0056":{"zip_code":"8400056","prefecture":"佐賀県","prefecture_kana":"サガケン","city":"佐賀市","city_kana":"サガシ","town":"紺屋町","town_kana":"コンヤマチ","prefecture_code":41},"0055":{"zip_code":"8400055","prefecture":"佐賀県","prefecture_kana":"サガケン","city":"佐賀市","city_kana":"サガシ","town":"材木","town_kana":"ザイモク","prefecture_code":41},"0803":{"zip_code":"8400803","prefecture":"佐賀県","prefecture_kana":"サガケン","city":"佐賀市","city_kana":"サガシ","town":"栄町","town_kana":"サカエマチ","prefecture_code":41},"0044":{"zip_code":"8400044","prefecture":"佐賀県","prefecture_kana":"サガケン","city":"佐賀市","city_kana":"サガシ","town":"道祖元町","town_kana":"サヤノモトマチ","prefecture_code":41},"0031":{"zip_code":"8400031","prefecture":"佐賀県","prefecture_kana":"サガケン","city":"佐賀市","city_kana":"サガシ","town":"下田町","town_kana":"シモダマチ","prefecture_code":41},"0855":{"zip_code":"8400855","prefecture":"佐賀県","prefecture_kana":"サガケン","city":"佐賀市","city_kana":"サガシ","town":"昭栄町","town_kana":"ショウエイマチ","prefecture_code":41},"0041":{"zip_code":"8400041","prefecture":"佐賀県","prefecture_kana":"サガケン","city":"佐賀市","city_kana":"サガシ","town":"城内","town_kana":"ジョウナイ","prefecture_code":41},"0043":{"zip_code":"8400043","prefecture":"佐賀県","prefecture_kana":"サガケン","city":"佐賀市","city_kana":"サガシ","town":"精町","town_kana":"シラゲマチ","prefecture_code":41},"0826":{"zip_code":"8400826","prefecture":"佐賀県","prefecture_kana":"サガケン","city":"佐賀市","city_kana":"サガシ","town":"白山","town_kana":"シラヤマ","prefecture_code":41},"0859":{"zip_code":"8400859","prefecture":"佐賀県","prefecture_kana":"サガケン","city":"佐賀市","city_kana":"サガシ","town":"新栄西","town_kana":"シンエイニシ","prefecture_code":41},"0850":{"zip_code":"8400850","prefecture":"佐賀県","prefecture_kana":"サガケン","city":"佐賀市","city_kana":"サガシ","town":"新栄東","town_kana":"シンエイヒガシ","prefecture_code":41},"0017":{"zip_code":"8400017","prefecture":"佐賀県","prefecture_kana":"サガケン","city":"佐賀市","city_kana":"サガシ","town":"新郷本町","town_kana":"シンゴウホンマチ","prefecture_code":41},"0856":{"zip_code":"8400856","prefecture":"佐賀県","prefecture_kana":"サガケン","city":"佐賀市","city_kana":"サガシ","town":"新生町","town_kana":"シンセイマチ","prefecture_code":41},"0032":{"zip_code":"8400032","prefecture":"佐賀県","prefecture_kana":"サガケン","city":"佐賀市","city_kana":"サガシ","town":"末広","town_kana":"スエヒロ","prefecture_code":41},"0814":{"zip_code":"8400814","prefecture":"佐賀県","prefecture_kana":"サガケン","city":"佐賀市","city_kana":"サガシ","town":"成章町","town_kana":"セイショウマチ","prefecture_code":41},"0822":{"zip_code":"8400822","prefecture":"佐賀県","prefecture_kana":"サガケン","city":"佐賀市","city_kana":"サガシ","town":"高木町","town_kana":"タカギマチ","prefecture_code":41},"0051":{"zip_code":"8400051","prefecture":"佐賀県","prefecture_kana":"サガケン","city":"佐賀市","city_kana":"サガシ","town":"田代","town_kana":"タシロ","prefecture_code":41},"0842":{"zip_code":"8400842","prefecture":"佐賀県","prefecture_kana":"サガケン","city":"佐賀市","city_kana":"サガシ","town":"多布施","town_kana":"タフセ","prefecture_code":41},"0825":{"zip_code":"8400825","prefecture":"佐賀県","prefecture_kana":"サガケン","city":"佐賀市","city_kana":"サガシ","town":"中央本町","town_kana":"チュウオウホンマチ","prefecture_code":41},"0815":{"zip_code":"8400815","prefecture":"佐賀県","prefecture_kana":"サガケン","city":"佐賀市","city_kana":"サガシ","town":"天神","town_kana":"テンジン","prefecture_code":41},"0851":{"zip_code":"8400851","prefecture":"佐賀県","prefecture_kana":"サガケン","city":"佐賀市","city_kana":"サガシ","town":"天祐","town_kana":"テンユウ","prefecture_code":41},"0858":{"zip_code":"8400858","prefecture":"佐賀県","prefecture_kana":"サガケン","city":"佐賀市","city_kana":"サガシ","town":"天祐団地","town_kana":"テンユウダンチ","prefecture_code":41},"0813":{"zip_code":"8400813","prefecture":"佐賀県","prefecture_kana":"サガケン","city":"佐賀市","city_kana":"サガシ","town":"唐人","town_kana":"トウジン","prefecture_code":41},"0852":{"zip_code":"8400852","prefecture":"佐賀県","prefecture_kana":"サガケン","city":"佐賀市","city_kana":"サガシ","town":"中折町","town_kana":"ナカオレマチ","prefecture_code":41},"0833":{"zip_code":"8400833","prefecture":"佐賀県","prefecture_kana":"サガケン","city":"佐賀市","city_kana":"サガシ","town":"中の小路","town_kana":"ナカノコウジ","prefecture_code":41},"0022":{"zip_code":"8400022","prefecture":"佐賀県","prefecture_kana":"サガケン","city":"佐賀市","city_kana":"サガシ","town":"中の館町","town_kana":"ナカノタテマチ","prefecture_code":41},"0853":{"zip_code":"8400853","prefecture":"佐賀県","prefecture_kana":"サガケン","city":"佐賀市","city_kana":"サガシ","town":"長瀬町","town_kana":"ナガセマチ","prefecture_code":41},"0857":{"zip_code":"8400857","prefecture":"佐賀県","prefecture_kana":"サガケン","city":"佐賀市","city_kana":"サガシ","town":"鍋島町八戸","town_kana":"ナベシママチヤエ","prefecture_code":41},"0046":{"zip_code":"8400046","prefecture":"佐賀県","prefecture_kana":"サガケン","city":"佐賀市","city_kana":"サガシ","town":"西魚町","town_kana":"ニシウオマチ","prefecture_code":41},"0045":{"zip_code":"8400045","prefecture":"佐賀県","prefecture_kana":"サガケン","city":"佐賀市","city_kana":"サガシ","town":"西田代","town_kana":"ニシタシロ","prefecture_code":41},"0035":{"zip_code":"8400035","prefecture":"佐賀県","prefecture_kana":"サガケン","city":"佐賀市","city_kana":"サガシ","town":"西与賀町今津","town_kana":"ニシヨカマチイマヅ","prefecture_code":41},"0037":{"zip_code":"8400037","prefecture":"佐賀県","prefecture_kana":"サガケン","city":"佐賀市","city_kana":"サガシ","town":"西与賀町相応津","town_kana":"ニシヨカマチソウオウツ","prefecture_code":41},"0034":{"zip_code":"8400034","prefecture":"佐賀県","prefecture_kana":"サガケン","city":"佐賀市","city_kana":"サガシ","town":"西与賀町厘外","town_kana":"ニシヨカマチリンゲ","prefecture_code":41},"0036":{"zip_code":"8400036","prefecture":"佐賀県","prefecture_kana":"サガケン","city":"佐賀市","city_kana":"サガシ","town":"西与賀町高太郎","town_kana":"ニシヨカマチタカタロウ","prefecture_code":41},"0005":{"zip_code":"8400005","prefecture":"佐賀県","prefecture_kana":"サガケン","city":"佐賀市","city_kana":"サガシ","town":"蓮池町蓮池","town_kana":"ハスイケマチハスイケ","prefecture_code":41},"0003":{"zip_code":"8400003","prefecture":"佐賀県","prefecture_kana":"サガケン","city":"佐賀市","city_kana":"サガシ","town":"蓮池町古賀","town_kana":"ハスイケマチコガ","prefecture_code":41},"0004":{"zip_code":"8400004","prefecture":"佐賀県","prefecture_kana":"サガケン","city":"佐賀市","city_kana":"サガシ","town":"蓮池町小松","town_kana":"ハスイケマチコマツ","prefecture_code":41},"0002":{"zip_code":"8400002","prefecture":"佐賀県","prefecture_kana":"サガケン","city":"佐賀市","city_kana":"サガシ","town":"蓮池町見島","town_kana":"ハスイケマチミシマ","prefecture_code":41},"0834":{"zip_code":"8400834","prefecture":"佐賀県","prefecture_kana":"サガケン","city":"佐賀市","city_kana":"サガシ","town":"八幡小路","town_kana":"ハチマンコウジ","prefecture_code":41},"0033":{"zip_code":"8400033","prefecture":"佐賀県","prefecture_kana":"サガケン","city":"佐賀市","city_kana":"サガシ","town":"光","town_kana":"ヒカリ","prefecture_code":41},"0821":{"zip_code":"8400821","prefecture":"佐賀県","prefecture_kana":"サガケン","city":"佐賀市","city_kana":"サガシ","town":"東佐賀町","town_kana":"ヒガシサガマチ","prefecture_code":41},"2223":{"zip_code":"8402223","prefecture":"佐賀県","prefecture_kana":"サガケン","city":"佐賀市","city_kana":"サガシ","town":"東与賀町飯盛","town_kana":"ヒガシヨカチョウイサガイ","prefecture_code":41},"2221":{"zip_code":"8402221","prefecture":"佐賀県","prefecture_kana":"サガケン","city":"佐賀市","city_kana":"サガシ","town":"東与賀町下古賀","town_kana":"ヒガシヨカチョウシモコガ","prefecture_code":41},"2222":{"zip_code":"8402222","prefecture":"佐賀県","prefecture_kana":"サガケン","city":"佐賀市","city_kana":"サガシ","town":"東与賀町田中","town_kana":"ヒガシヨカチョウタナカ","prefecture_code":41},"0503":{"zip_code":"8400503","prefecture":"佐賀県","prefecture_kana":"サガケン","city":"佐賀市","city_kana":"サガシ","town":"富士町市川","town_kana":"フジチョウイチカワ","prefecture_code":41},"0514":{"zip_code":"8400514","prefecture":"佐賀県","prefecture_kana":"サガケン","city":"佐賀市","city_kana":"サガシ","town":"富士町内野","town_kana":"フジチョウウチノ","prefecture_code":41},"0516":{"zip_code":"8400516","prefecture":"佐賀県","prefecture_kana":"サガケン","city":"佐賀市","city_kana":"サガシ","town":"富士町梅野","town_kana":"フジチョウウメノ","prefecture_code":41},"0533":{"zip_code":"8400533","prefecture":"佐賀県","prefecture_kana":"サガケン","city":"佐賀市","city_kana":"サガシ","town":"富士町大串","town_kana":"フジチョウオオクシ","prefecture_code":41},"0532":{"zip_code":"8400532","prefecture":"佐賀県","prefecture_kana":"サガケン","city":"佐賀市","city_kana":"サガシ","town":"富士町大野","town_kana":"フジチョウオオノ","prefecture_code":41},"0521":{"zip_code":"8400521","prefecture":"佐賀県","prefecture_kana":"サガケン","city":"佐賀市","city_kana":"サガシ","town":"富士町小副川","town_kana":"フジチョウオソエガワ","prefecture_code":41},"0511":{"zip_code":"8400511","prefecture":"佐賀県","prefecture_kana":"サガケン","city":"佐賀市","city_kana":"サガシ","town":"富士町鎌原","town_kana":"フジチョウカマバル","prefecture_code":41},"0545":{"zip_code":"8400545","prefecture":"佐賀県","prefecture_kana":"サガケン","city":"佐賀市","city_kana":"サガシ","town":"富士町上合瀬","town_kana":"フジチョウカミオオセ","prefecture_code":41},"0512":{"zip_code":"8400512","prefecture":"佐賀県","prefecture_kana":"サガケン","city":"佐賀市","city_kana":"サガシ","town":"富士町上熊川","town_kana":"フジチョウカミクマカワ","prefecture_code":41},"0536":{"zip_code":"8400536","prefecture":"佐賀県","prefecture_kana":"サガケン","city":"佐賀市","city_kana":"サガシ","town":"富士町上無津呂","town_kana":"フジチョウカミムツロ","prefecture_code":41},"0531":{"zip_code":"8400531","prefecture":"佐賀県","prefecture_kana":"サガケン","city":"佐賀市","city_kana":"サガシ","town":"富士町栗並","town_kana":"フジチョウクリナミ","prefecture_code":41},"0543":{"zip_code":"8400543","prefecture":"佐賀県","prefecture_kana":"サガケン","city":"佐賀市","city_kana":"サガシ","town":"富士町古場","town_kana":"フジチョウコバ","prefecture_code":41},"0544":{"zip_code":"8400544","prefecture":"佐賀県","prefecture_kana":"サガケン","city":"佐賀市","city_kana":"サガシ","town":"富士町下合瀬","town_kana":"フジチョウシモオオセ","prefecture_code":41},"0513":{"zip_code":"8400513","prefecture":"佐賀県","prefecture_kana":"サガケン","city":"佐賀市","city_kana":"サガシ","town":"富士町下熊川","town_kana":"フジチョウシモクマカワ","prefecture_code":41},"0535":{"zip_code":"8400535","prefecture":"佐賀県","prefecture_kana":"サガケン","city":"佐賀市","city_kana":"サガシ","town":"富士町下無津呂","town_kana":"フジチョウシモムツロ","prefecture_code":41},"0502":{"zip_code":"8400502","prefecture":"佐賀県","prefecture_kana":"サガケン","city":"佐賀市","city_kana":"サガシ","town":"富士町杉山","town_kana":"フジチョウスギヤマ","prefecture_code":41},"0541":{"zip_code":"8400541","prefecture":"佐賀県","prefecture_kana":"サガケン","city":"佐賀市","city_kana":"サガシ","town":"富士町関屋","town_kana":"フジチョウセキヤ","prefecture_code":41},"0504":{"zip_code":"8400504","prefecture":"佐賀県","prefecture_kana":"サガケン","city":"佐賀市","city_kana":"サガシ","town":"富士町苣木","town_kana":"フジチョウチャノキ","prefecture_code":41},"0534":{"zip_code":"8400534","prefecture":"佐賀県","prefecture_kana":"サガケン","city":"佐賀市","city_kana":"サガシ","town":"富士町中原","town_kana":"フジチョウナカバル","prefecture_code":41},"0522":{"zip_code":"8400522","prefecture":"佐賀県","prefecture_kana":"サガケン","city":"佐賀市","city_kana":"サガシ","town":"富士町畑瀬","town_kana":"フジチョウハタセ","prefecture_code":41},"0542":{"zip_code":"8400542","prefecture":"佐賀県","prefecture_kana":"サガケン","city":"佐賀市","city_kana":"サガシ","town":"富士町藤瀬","town_kana":"フジチョウフジセ","prefecture_code":41},"0501":{"zip_code":"8400501","prefecture":"佐賀県","prefecture_kana":"サガケン","city":"佐賀市","city_kana":"サガシ","town":"富士町古湯","town_kana":"フジチョウフルユ","prefecture_code":41},"0515":{"zip_code":"8400515","prefecture":"佐賀県","prefecture_kana":"サガケン","city":"佐賀市","city_kana":"サガシ","town":"富士町松瀬","town_kana":"フジチョウマツセ","prefecture_code":41},"0537":{"zip_code":"8400537","prefecture":"佐賀県","prefecture_kana":"サガケン","city":"佐賀市","city_kana":"サガシ","town":"富士町麻那古","town_kana":"フジチョウマナゴ","prefecture_code":41},"0832":{"zip_code":"8400832","prefecture":"佐賀県","prefecture_kana":"サガケン","city":"佐賀市","city_kana":"サガシ","town":"堀川町","town_kana":"ホリカワチョウ","prefecture_code":41},"0025":{"zip_code":"8400025","prefecture":"佐賀県","prefecture_kana":"サガケン","city":"佐賀市","city_kana":"サガシ","town":"本庄町鹿子","town_kana":"ホンジョウマチカノコ","prefecture_code":41},"0027":{"zip_code":"8400027","prefecture":"佐賀県","prefecture_kana":"サガケン","city":"佐賀市","city_kana":"サガシ","town":"本庄町本庄","town_kana":"ホンジョウマチホンジョウ","prefecture_code":41},"0026":{"zip_code":"8400026","prefecture":"佐賀県","prefecture_kana":"サガケン","city":"佐賀市","city_kana":"サガシ","town":"本庄町正里","town_kana":"ホンジョウマチショウリ","prefecture_code":41},"0024":{"zip_code":"8400024","prefecture":"佐賀県","prefecture_kana":"サガケン","city":"佐賀市","city_kana":"サガシ","town":"本庄町末次","town_kana":"ホンジョウマチスエツグ","prefecture_code":41},"0023":{"zip_code":"8400023","prefecture":"佐賀県","prefecture_kana":"サガケン","city":"佐賀市","city_kana":"サガシ","town":"本庄町袋","town_kana":"ホンジョウマチフクロ","prefecture_code":41},"0831":{"zip_code":"8400831","prefecture":"佐賀県","prefecture_kana":"サガケン","city":"佐賀市","city_kana":"サガシ","town":"松原","town_kana":"マツバラ","prefecture_code":41},"0054":{"zip_code":"8400054","prefecture":"佐賀県","prefecture_kana":"サガケン","city":"佐賀市","city_kana":"サガシ","town":"水ケ江","town_kana":"ミズガエ","prefecture_code":41},"0841":{"zip_code":"8400841","prefecture":"佐賀県","prefecture_kana":"サガケン","city":"佐賀市","city_kana":"サガシ","town":"緑小路","town_kana":"ミドリコウジ","prefecture_code":41},"0016":{"zip_code":"8400016","prefecture":"佐賀県","prefecture_kana":"サガケン","city":"佐賀市","city_kana":"サガシ","town":"南佐賀","town_kana":"ミナミサガ","prefecture_code":41},"2101":{"zip_code":"8402101","prefecture":"佐賀県","prefecture_kana":"サガケン","city":"佐賀市","city_kana":"サガシ","town":"諸富町大堂","town_kana":"モロドミチョウオオドウ","prefecture_code":41},"2102":{"zip_code":"8402102","prefecture":"佐賀県","prefecture_kana":"サガケン","city":"佐賀市","city_kana":"サガシ","town":"諸富町為重","town_kana":"モロドミチョウタメシゲ","prefecture_code":41},"2103":{"zip_code":"8402103","prefecture":"佐賀県","prefecture_kana":"サガケン","city":"佐賀市","city_kana":"サガシ","town":"諸富町寺井津","town_kana":"モロドミチョウテライツ","prefecture_code":41},"2104":{"zip_code":"8402104","prefecture":"佐賀県","prefecture_kana":"サガケン","city":"佐賀市","city_kana":"サガシ","town":"諸富町徳富","town_kana":"モロドミチョウトクドミ","prefecture_code":41},"2105":{"zip_code":"8402105","prefecture":"佐賀県","prefecture_kana":"サガケン","city":"佐賀市","city_kana":"サガシ","town":"諸富町諸富津","town_kana":"モロドミチョウモロドミツ","prefecture_code":41},"2106":{"zip_code":"8402106","prefecture":"佐賀県","prefecture_kana":"サガケン","city":"佐賀市","city_kana":"サガシ","town":"諸富町山領","town_kana":"モロドミチョウヤマリョウ","prefecture_code":41},"0854":{"zip_code":"8400854","prefecture":"佐賀県","prefecture_kana":"サガケン","city":"佐賀市","city_kana":"サガシ","town":"八戸","town_kana":"ヤエ","prefecture_code":41},"0823":{"zip_code":"8400823","prefecture":"佐賀県","prefecture_kana":"サガケン","city":"佐賀市","city_kana":"サガシ","town":"柳町","town_kana":"ヤナギマチ","prefecture_code":41},"0212":{"zip_code":"8400212","prefecture":"佐賀県","prefecture_kana":"サガケン","city":"佐賀市","city_kana":"サガシ","town":"大和町池上","town_kana":"ヤマトチョウイケノウエ","prefecture_code":41},"0203":{"zip_code":"8400203","prefecture":"佐賀県","prefecture_kana":"サガケン","city":"佐賀市","city_kana":"サガシ","town":"大和町梅野","town_kana":"ヤマトチョウウメノ","prefecture_code":41},"0214":{"zip_code":"8400214","prefecture":"佐賀県","prefecture_kana":"サガケン","city":"佐賀市","city_kana":"サガシ","town":"大和町川上","town_kana":"ヤマトチョウカワカミ","prefecture_code":41},"0202":{"zip_code":"8400202","prefecture":"佐賀県","prefecture_kana":"サガケン","city":"佐賀市","city_kana":"サガシ","town":"大和町久池井","town_kana":"ヤマトチョウクチイ","prefecture_code":41},"0213":{"zip_code":"8400213","prefecture":"佐賀県","prefecture_kana":"サガケン","city":"佐賀市","city_kana":"サガシ","town":"大和町久留間","town_kana":"ヤマトチョウクルマ","prefecture_code":41},"0205":{"zip_code":"8400205","prefecture":"佐賀県","prefecture_kana":"サガケン","city":"佐賀市","city_kana":"サガシ","town":"大和町名尾","town_kana":"ヤマトチョウナオ","prefecture_code":41},"0201":{"zip_code":"8400201","prefecture":"佐賀県","prefecture_kana":"サガケン","city":"佐賀市","city_kana":"サガシ","town":"大和町尼寺","town_kana":"ヤマトチョウニイジ","prefecture_code":41},"0215":{"zip_code":"8400215","prefecture":"佐賀県","prefecture_kana":"サガケン","city":"佐賀市","city_kana":"サガシ","town":"大和町八反原","town_kana":"ヤマトチョウハッタバル","prefecture_code":41},"0211":{"zip_code":"8400211","prefecture":"佐賀県","prefecture_kana":"サガケン","city":"佐賀市","city_kana":"サガシ","town":"大和町東山田","town_kana":"ヤマトチョウヒガシヤマダ","prefecture_code":41},"0204":{"zip_code":"8400204","prefecture":"佐賀県","prefecture_kana":"サガケン","city":"佐賀市","city_kana":"サガシ","town":"大和町松瀬","town_kana":"ヤマトチョウマツセ","prefecture_code":41},"0047":{"zip_code":"8400047","prefecture":"佐賀県","prefecture_kana":"サガケン","city":"佐賀市","city_kana":"サガシ","town":"与賀町","town_kana":"ヨカマチ","prefecture_code":41},"0845":{"zip_code":"8400845","prefecture":"佐賀県","prefecture_kana":"サガケン","city":"佐賀市","city_kana":"サガシ","town":"六座町","town_kana":"ロクザマチ","prefecture_code":41},"1106":{"zip_code":"8401106","prefecture":"佐賀県","prefecture_kana":"サガケン","city":"三養基郡みやき町","city_kana":"ミヤキグンミヤキチョウ","town":"市武","town_kana":"イチタケ","prefecture_code":41},"1103":{"zip_code":"8401103","prefecture":"佐賀県","prefecture_kana":"サガケン","city":"三養基郡みやき町","city_kana":"ミヤキグンミヤキチョウ","town":"坂口","town_kana":"サカグチ","prefecture_code":41},"1102":{"zip_code":"8401102","prefecture":"佐賀県","prefecture_kana":"サガケン","city":"三養基郡みやき町","city_kana":"ミヤキグンミヤキチョウ","town":"天建寺","town_kana":"テンケンジ","prefecture_code":41},"1101":{"zip_code":"8401101","prefecture":"佐賀県","prefecture_kana":"サガケン","city":"三養基郡みやき町","city_kana":"ミヤキグンミヤキチョウ","town":"西島","town_kana":"ニシジマ","prefecture_code":41},"1104":{"zip_code":"8401104","prefecture":"佐賀県","prefecture_kana":"サガケン","city":"三養基郡みやき町","city_kana":"ミヤキグンミヤキチョウ","town":"東津","town_kana":"ヒガシツ","prefecture_code":41},"1105":{"zip_code":"8401105","prefecture":"佐賀県","prefecture_kana":"サガケン","city":"三養基郡みやき町","city_kana":"ミヤキグンミヤキチョウ","town":"寄人","town_kana":"ヨリウト","prefecture_code":41},"8558":{"zip_code":"8408558","prefecture":"佐賀県","city":"佐賀市","town":"城内","prefecture_code":41},"8520":{"zip_code":"8408520","prefecture":"佐賀県","city":"佐賀市","town":"天神","prefecture_code":41},"8511":{"zip_code":"8408511","prefecture":"佐賀県","city":"佐賀市","town":"白山","prefecture_code":41},"8552":{"zip_code":"8408552","prefecture":"佐賀県","city":"佐賀市","town":"巨勢町大字牛島","prefecture_code":41},"8602":{"zip_code":"8408602","prefecture":"佐賀県","city":"佐賀市","town":"松原","prefecture_code":41},"8580":{"zip_code":"8408580","prefecture":"佐賀県","city":"佐賀市","town":"中の小路","prefecture_code":41},"8588":{"zip_code":"8408588","prefecture":"佐賀県","city":"佐賀市","town":"水ヶ江","prefecture_code":41},"8550":{"zip_code":"8408550","prefecture":"佐賀県","city":"佐賀市","town":"本庄町大字本庄","prefecture_code":41},"8540":{"zip_code":"8408540","prefecture":"佐賀県","city":"佐賀市","town":"松原","prefecture_code":41},"8501":{"zip_code":"8408501","prefecture":"佐賀県","city":"佐賀市","town":"栄町","prefecture_code":41},"8585":{"zip_code":"8408585","prefecture":"佐賀県","city":"佐賀市","town":"天神","prefecture_code":41},"8502":{"zip_code":"8408502","prefecture":"佐賀県","city":"佐賀市","town":"","prefecture_code":41},"8555":{"zip_code":"8408555","prefecture":"佐賀県","city":"佐賀市","town":"嘉瀬町扇町","prefecture_code":41},"8560":{"zip_code":"8408560","prefecture":"佐賀県","city":"佐賀市","town":"駅南本町","prefecture_code":41},"8571":{"zip_code":"8408571","prefecture":"佐賀県","city":"佐賀市","town":"嘉瀬町中原","prefecture_code":41},"8666":{"zip_code":"8408666","prefecture":"佐賀県","city":"佐賀市","town":"八幡小路","prefecture_code":41},"8551":{"zip_code":"8408551","prefecture":"佐賀県","city":"佐賀市","town":"巨勢町大字牛島","prefecture_code":41},"0292":{"zip_code":"8400292","prefecture":"佐賀県","city":"佐賀市","town":"大和町大字尼寺","prefecture_code":41},"0598":{"zip_code":"8400598","prefecture":"佐賀県","city":"佐賀市","town":"富士町大字古湯","prefecture_code":41},"2193":{"zip_code":"8402193","prefecture":"佐賀県","city":"佐賀市","town":"諸富町大字諸富津","prefecture_code":41},"2195":{"zip_code":"8402195","prefecture":"佐賀県","city":"佐賀市","town":"諸富町大字諸富津","prefecture_code":41},"2192":{"zip_code":"8402192","prefecture":"佐賀県","city":"佐賀市","town":"諸富町大字諸富津","prefecture_code":41},"2197":{"zip_code":"8402197","prefecture":"佐賀県","city":"佐賀市","town":"諸富町大字徳富","prefecture_code":41},"2295":{"zip_code":"8402295","prefecture":"佐賀県","city":"佐賀市","town":"川副町大字鹿江","prefecture_code":41},"8570":{"zip_code":"8408570","prefecture":"佐賀県","city":"佐賀市","town":"城内","prefecture_code":41},"8627":{"zip_code":"8408627","prefecture":"佐賀県","city":"佐賀市","town":"唐人","prefecture_code":41},"8686":{"zip_code":"8408686","prefecture":"佐賀県","city":"佐賀市","town":"伊勢町","prefecture_code":41},"8689":{"zip_code":"8408689","prefecture":"佐賀県","city":"佐賀市","town":"松原","prefecture_code":41},"8688":{"zip_code":"8408688","prefecture":"佐賀県","city":"佐賀市","town":"松原","prefecture_code":41},"8611":{"zip_code":"8408611","prefecture":"佐賀県","city":"佐賀市","town":"駅前中央","prefecture_code":41},"8601":{"zip_code":"8408601","prefecture":"佐賀県","city":"佐賀市","town":"城内","prefecture_code":41},"1192":{"zip_code":"8401192","prefecture":"佐賀県","city":"三養基郡みやき町","town":"大字市武","prefecture_code":41}}