{"0801":{"zip_code":"8600801","prefecture":"熊本県","prefecture_kana":"クマモトケン","city":"熊本市中央区","city_kana":"クマモトシチュウオウク","town":"安政町","town_kana":"アンセイマチ","prefecture_code":43},"0841":{"zip_code":"8600841","prefecture":"熊本県","prefecture_kana":"クマモトケン","city":"熊本市中央区","city_kana":"クマモトシチュウオウク","town":"井川淵町","town_kana":"イガワブチマチ","prefecture_code":43},"0043":{"zip_code":"8600043","prefecture":"熊本県","prefecture_kana":"クマモトケン","city":"熊本市中央区","city_kana":"クマモトシチュウオウク","town":"板屋町","town_kana":"イタヤマチ","prefecture_code":43},"0031":{"zip_code":"8600031","prefecture":"熊本県","prefecture_kana":"クマモトケン","city":"熊本市中央区","city_kana":"クマモトシチュウオウク","town":"魚屋町","town_kana":"ウオヤマチ","prefecture_code":43},"0077":{"zip_code":"8600077","prefecture":"熊本県","prefecture_kana":"クマモトケン","city":"熊本市中央区","city_kana":"クマモトシチュウオウク","town":"内坪井町","town_kana":"ウチツボイマチ","prefecture_code":43},"0026":{"zip_code":"8600026","prefecture":"熊本県","prefecture_kana":"クマモトケン","city":"熊本市中央区","city_kana":"クマモトシチュウオウク","town":"鍛冶屋町","town_kana":"カジヤマチ","prefecture_code":43},"0021":{"zip_code":"8600021","prefecture":"熊本県","prefecture_kana":"クマモトケン","city":"熊本市中央区","city_kana":"クマモトシチュウオウク","town":"上鍛冶屋町","town_kana":"カミカジヤマチ","prefecture_code":43},"0845":{"zip_code":"8600845","prefecture":"熊本県","prefecture_kana":"クマモトケン","city":"熊本市中央区","city_kana":"クマモトシチュウオウク","town":"上通町","town_kana":"カミトオリチョウ","prefecture_code":43},"0847":{"zip_code":"8600847","prefecture":"熊本県","prefecture_kana":"クマモトケン","city":"熊本市中央区","city_kana":"クマモトシチュウオウク","town":"上林町","town_kana":"カミバヤシマチ","prefecture_code":43},"0804":{"zip_code":"8600804","prefecture":"熊本県","prefecture_kana":"クマモトケン","city":"熊本市中央区","city_kana":"クマモトシチュウオウク","town":"辛島町","town_kana":"カラシマチョウ","prefecture_code":43},"0039":{"zip_code":"8600039","prefecture":"熊本県","prefecture_kana":"クマモトケン","city":"熊本市中央区","city_kana":"クマモトシチュウオウク","town":"川端町","town_kana":"カワバタマチ","prefecture_code":43},"0023":{"zip_code":"8600023","prefecture":"熊本県","prefecture_kana":"クマモトケン","city":"熊本市中央区","city_kana":"クマモトシチュウオウク","town":"河原町","town_kana":"カワラマチ","prefecture_code":43},"0855":{"zip_code":"8600855","prefecture":"熊本県","prefecture_kana":"クマモトケン","city":"熊本市中央区","city_kana":"クマモトシチュウオウク","town":"北千反畑町","town_kana":"キタセンダンバタマチ","prefecture_code":43},"0078":{"zip_code":"8600078","prefecture":"熊本県","prefecture_kana":"クマモトケン","city":"熊本市中央区","city_kana":"クマモトシチュウオウク","town":"京町","town_kana":"キョウマチ","prefecture_code":43},"0081":[{"zip_code":"8600081","prefecture":"熊本県","prefecture_kana":"クマモトケン","city":"熊本市中央区","city_kana":"クマモトシチュウオウク","town":"京町本丁","town_kana":"キョウマチホンチョウ","prefecture_code":43},{"zip_code":"8600081","prefecture":"熊本県","prefecture_kana":"クマモトケン","city":"熊本市西区","city_kana":"クマモトシニシク","town":"京町本丁","town_kana":"キョウマチホンチョウ","prefecture_code":43}],"0843":{"zip_code":"8600843","prefecture":"熊本県","prefecture_kana":"クマモトケン","city":"熊本市中央区","city_kana":"クマモトシチュウオウク","town":"草葉町","town_kana":"クサバチョウ","prefecture_code":43},"0862":[{"zip_code":"8600862","prefecture":"熊本県","prefecture_kana":"クマモトケン","city":"熊本市中央区","city_kana":"クマモトシチュウオウク","town":"黒髪","town_kana":"クロカミ","prefecture_code":43},{"zip_code":"8600862","prefecture":"熊本県","prefecture_kana":"クマモトケン","city":"熊本市北区","city_kana":"クマモトシキタク","town":"黒髪","town_kana":"クロカミ","prefecture_code":43}],"0014":{"zip_code":"8600014","prefecture":"熊本県","prefecture_kana":"クマモトケン","city":"熊本市中央区","city_kana":"クマモトシチュウオウク","town":"慶徳堀町","town_kana":"ケイトクボリマチ","prefecture_code":43},"0033":{"zip_code":"8600033","prefecture":"熊本県","prefecture_kana":"クマモトケン","city":"熊本市中央区","city_kana":"クマモトシチュウオウク","town":"紺屋阿弥陀寺町","town_kana":"コウヤアミダジマチ","prefecture_code":43},"0012":{"zip_code":"8600012","prefecture":"熊本県","prefecture_kana":"クマモトケン","city":"熊本市中央区","city_kana":"クマモトシチュウオウク","town":"紺屋今町","town_kana":"コウヤイママチ","prefecture_code":43},"0025":{"zip_code":"8600025","prefecture":"熊本県","prefecture_kana":"クマモトケン","city":"熊本市中央区","city_kana":"クマモトシチュウオウク","town":"紺屋町","town_kana":"コウヤマチ","prefecture_code":43},"0851":{"zip_code":"8600851","prefecture":"熊本県","prefecture_kana":"クマモトケン","city":"熊本市中央区","city_kana":"クマモトシチュウオウク","town":"子飼本町","town_kana":"コカイホンマチ","prefecture_code":43},"0042":{"zip_code":"8600042","prefecture":"熊本県","prefecture_kana":"クマモトケン","city":"熊本市中央区","city_kana":"クマモトシチュウオウク","town":"小沢町","town_kana":"コザワマチ","prefecture_code":43},"0003":{"zip_code":"8600003","prefecture":"熊本県","prefecture_kana":"クマモトケン","city":"熊本市中央区","city_kana":"クマモトシチュウオウク","town":"古城町","town_kana":"コジョウマチ","prefecture_code":43},"0076":{"zip_code":"8600076","prefecture":"熊本県","prefecture_kana":"クマモトケン","city":"熊本市中央区","city_kana":"クマモトシチュウオウク","town":"壺川","town_kana":"コセン","prefecture_code":43},"0813":{"zip_code":"8600813","prefecture":"熊本県","prefecture_kana":"クマモトケン","city":"熊本市中央区","city_kana":"クマモトシチュウオウク","town":"琴平","town_kana":"コトヒラ","prefecture_code":43},"0814":{"zip_code":"8600814","prefecture":"熊本県","prefecture_kana":"クマモトケン","city":"熊本市中央区","city_kana":"クマモトシチュウオウク","town":"琴平本町","town_kana":"コトヒラホンマチ","prefecture_code":43},"0035":{"zip_code":"8600035","prefecture":"熊本県","prefecture_kana":"クマモトケン","city":"熊本市中央区","city_kana":"クマモトシチュウオウク","town":"呉服町","town_kana":"ゴフクマチ","prefecture_code":43},"0029":{"zip_code":"8600029","prefecture":"熊本県","prefecture_kana":"クマモトケン","city":"熊本市中央区","city_kana":"クマモトシチュウオウク","town":"米屋町","town_kana":"コメヤマチ","prefecture_code":43},"0041":{"zip_code":"8600041","prefecture":"熊本県","prefecture_kana":"クマモトケン","city":"熊本市中央区","city_kana":"クマモトシチュウオウク","town":"細工町","town_kana":"サイクマチ","prefecture_code":43},"0805":{"zip_code":"8600805","prefecture":"熊本県","prefecture_kana":"クマモトケン","city":"熊本市中央区","city_kana":"クマモトシチュウオウク","town":"桜町","town_kana":"サクラマチ","prefecture_code":43},"0073":[{"zip_code":"8600073","prefecture":"熊本県","prefecture_kana":"クマモトケン","city":"熊本市中央区","city_kana":"クマモトシチュウオウク","town":"島崎","town_kana":"シマサキ","prefecture_code":43},{"zip_code":"8600073","prefecture":"熊本県","prefecture_kana":"クマモトケン","city":"熊本市西区","city_kana":"クマモトシニシク","town":"島崎","town_kana":"シマサキ","prefecture_code":43}],"0807":{"zip_code":"8600807","prefecture":"熊本県","prefecture_kana":"クマモトケン","city":"熊本市中央区","city_kana":"クマモトシチュウオウク","town":"下通","town_kana":"シモトオリ","prefecture_code":43},"0824":[{"zip_code":"8600824","prefecture":"熊本県","prefecture_kana":"クマモトケン","city":"熊本市中央区","city_kana":"クマモトシチュウオウク","town":"十禅寺","town_kana":"ジュウゼンジ","prefecture_code":43},{"zip_code":"8600824","prefecture":"熊本県","prefecture_kana":"クマモトケン","city":"熊本市南区","city_kana":"クマモトシミナミク","town":"十禅寺","town_kana":"ジュウゼンジ","prefecture_code":43}],"0825":{"zip_code":"8600825","prefecture":"熊本県","prefecture_kana":"クマモトケン","city":"熊本市中央区","city_kana":"クマモトシチュウオウク","town":"十禅寺町","town_kana":"ジュウゼンジマチ","prefecture_code":43},"0846":{"zip_code":"8600846","prefecture":"熊本県","prefecture_kana":"クマモトケン","city":"熊本市中央区","city_kana":"クマモトシチュウオウク","town":"城東町","town_kana":"ジョウトウマチ","prefecture_code":43},"0011":{"zip_code":"8600011","prefecture":"熊本県","prefecture_kana":"クマモトケン","city":"熊本市中央区","city_kana":"クマモトシチュウオウク","town":"新鍛冶屋町","town_kana":"シンカジヤマチ","prefecture_code":43},"0803":{"zip_code":"8600803","prefecture":"熊本県","prefecture_kana":"クマモトケン","city":"熊本市中央区","city_kana":"クマモトシチュウオウク","town":"新市街","town_kana":"シンシガイ","prefecture_code":43},"0004":{"zip_code":"8600004","prefecture":"熊本県","prefecture_kana":"クマモトケン","city":"熊本市中央区","city_kana":"クマモトシチュウオウク","town":"新町","town_kana":"シンマチ","prefecture_code":43},"0844":{"zip_code":"8600844","prefecture":"熊本県","prefecture_kana":"クマモトケン","city":"熊本市中央区","city_kana":"クマモトシチュウオウク","town":"水道町","town_kana":"スイドウチョウ","prefecture_code":43},"0019":{"zip_code":"8600019","prefecture":"熊本県","prefecture_kana":"クマモトケン","city":"熊本市中央区","city_kana":"クマモトシチュウオウク","town":"船場町","town_kana":"センバマチ","prefecture_code":43},"0018":{"zip_code":"8600018","prefecture":"熊本県","prefecture_kana":"クマモトケン","city":"熊本市中央区","city_kana":"クマモトシチュウオウク","town":"船場町下","town_kana":"センバマチシモ","prefecture_code":43},"0006":{"zip_code":"8600006","prefecture":"熊本県","prefecture_kana":"クマモトケン","city":"熊本市中央区","city_kana":"クマモトシチュウオウク","town":"段山本町","town_kana":"ダニヤマホンマチ","prefecture_code":43},"0001":{"zip_code":"8600001","prefecture":"熊本県","prefecture_kana":"クマモトケン","city":"熊本市中央区","city_kana":"クマモトシチュウオウク","town":"千葉城町","town_kana":"チバジョウマチ","prefecture_code":43},"0802":{"zip_code":"8600802","prefecture":"熊本県","prefecture_kana":"クマモトケン","city":"熊本市中央区","city_kana":"クマモトシチュウオウク","town":"中央街","town_kana":"チュウオウガイ","prefecture_code":43},"0863":{"zip_code":"8600863","prefecture":"熊本県","prefecture_kana":"クマモトケン","city":"熊本市中央区","city_kana":"クマモトシチュウオウク","town":"坪井","town_kana":"ツボイ","prefecture_code":43},"0808":{"zip_code":"8600808","prefecture":"熊本県","prefecture_kana":"クマモトケン","city":"熊本市中央区","city_kana":"クマモトシチュウオウク","town":"手取本町","town_kana":"テトリホンチョウ","prefecture_code":43},"0013":{"zip_code":"8600013","prefecture":"熊本県","prefecture_kana":"クマモトケン","city":"熊本市中央区","city_kana":"クマモトシチュウオウク","town":"通町","town_kana":"トオリチョウ","prefecture_code":43},"0028":{"zip_code":"8600028","prefecture":"熊本県","prefecture_kana":"クマモトケン","city":"熊本市中央区","city_kana":"クマモトシチュウオウク","town":"中唐人町","town_kana":"ナカトウジンマチ","prefecture_code":43},"0037":{"zip_code":"8600037","prefecture":"熊本県","prefecture_kana":"クマモトケン","city":"熊本市中央区","city_kana":"クマモトシチュウオウク","town":"西阿弥陀寺町","town_kana":"ニシアミダジマチ","prefecture_code":43},"0853":{"zip_code":"8600853","prefecture":"熊本県","prefecture_kana":"クマモトケン","city":"熊本市中央区","city_kana":"クマモトシチュウオウク","town":"西子飼町","town_kana":"ニシコカイマチ","prefecture_code":43},"0027":{"zip_code":"8600027","prefecture":"熊本県","prefecture_kana":"クマモトケン","city":"熊本市中央区","city_kana":"クマモトシチュウオウク","town":"西唐人町","town_kana":"ニシトウジンマチ","prefecture_code":43},"0008":{"zip_code":"8600008","prefecture":"熊本県","prefecture_kana":"クマモトケン","city":"熊本市中央区","city_kana":"クマモトシチュウオウク","town":"二の丸","town_kana":"ニノマル","prefecture_code":43},"0832":{"zip_code":"8600832","prefecture":"熊本県","prefecture_kana":"クマモトケン","city":"熊本市中央区","city_kana":"クマモトシチュウオウク","town":"萩原町","town_kana":"ハギワラマチ","prefecture_code":43},"0831":[{"zip_code":"8600831","prefecture":"熊本県","prefecture_kana":"クマモトケン","city":"熊本市中央区","city_kana":"クマモトシチュウオウク","town":"八王寺町","town_kana":"ハチオウジマチ","prefecture_code":43},{"zip_code":"8600831","prefecture":"熊本県","prefecture_kana":"クマモトケン","city":"熊本市南区","city_kana":"クマモトシミナミク","town":"八王寺町","town_kana":"ハチオウジマチ","prefecture_code":43}],"0806":{"zip_code":"8600806","prefecture":"熊本県","prefecture_kana":"クマモトケン","city":"熊本市中央区","city_kana":"クマモトシチュウオウク","town":"花畑町","town_kana":"ハナバタチョウ","prefecture_code":43},"0815":{"zip_code":"8600815","prefecture":"熊本県","prefecture_kana":"クマモトケン","city":"熊本市中央区","city_kana":"クマモトシチュウオウク","town":"春竹町","town_kana":"ハルタケマチ","prefecture_code":43},"0034":{"zip_code":"8600034","prefecture":"熊本県","prefecture_kana":"クマモトケン","city":"熊本市中央区","city_kana":"クマモトシチュウオウク","town":"東阿弥陀寺町","town_kana":"ヒガシアミダジマチ","prefecture_code":43},"0854":{"zip_code":"8600854","prefecture":"熊本県","prefecture_kana":"クマモトケン","city":"熊本市中央区","city_kana":"クマモトシチュウオウク","town":"東子飼町","town_kana":"ヒガシコカイマチ","prefecture_code":43},"0038":{"zip_code":"8600038","prefecture":"熊本県","prefecture_kana":"クマモトケン","city":"熊本市中央区","city_kana":"クマモトシチュウオウク","town":"古桶屋町","town_kana":"フルオケヤマチ","prefecture_code":43},"0015":{"zip_code":"8600015","prefecture":"熊本県","prefecture_kana":"クマモトケン","city":"熊本市中央区","city_kana":"クマモトシチュウオウク","town":"古川町","town_kana":"フルカワマチ","prefecture_code":43},"0007":{"zip_code":"8600007","prefecture":"熊本県","prefecture_kana":"クマモトケン","city":"熊本市中央区","city_kana":"クマモトシチュウオウク","town":"古京町","town_kana":"フルキョウマチ","prefecture_code":43},"0036":{"zip_code":"8600036","prefecture":"熊本県","prefecture_kana":"クマモトケン","city":"熊本市中央区","city_kana":"クマモトシチュウオウク","town":"古大工町","town_kana":"フルダイクマチ","prefecture_code":43},"0833":[{"zip_code":"8600833","prefecture":"熊本県","prefecture_kana":"クマモトケン","city":"熊本市中央区","city_kana":"クマモトシチュウオウク","town":"平成","town_kana":"ヘイセイ","prefecture_code":43},{"zip_code":"8600833","prefecture":"熊本県","prefecture_kana":"クマモトケン","city":"熊本市南区","city_kana":"クマモトシミナミク","town":"平成","town_kana":"ヘイセイ","prefecture_code":43}],"0811":{"zip_code":"8600811","prefecture":"熊本県","prefecture_kana":"クマモトケン","city":"熊本市中央区","city_kana":"クマモトシチュウオウク","town":"本荘","town_kana":"ホンジョウ","prefecture_code":43},"0816":{"zip_code":"8600816","prefecture":"熊本県","prefecture_kana":"クマモトケン","city":"熊本市中央区","city_kana":"クマモトシチュウオウク","town":"本荘町","town_kana":"ホンジョウマチ","prefecture_code":43},"0002":{"zip_code":"8600002","prefecture":"熊本県","prefecture_kana":"クマモトケン","city":"熊本市中央区","city_kana":"クマモトシチュウオウク","town":"本丸","town_kana":"ホンマル","prefecture_code":43},"0024":{"zip_code":"8600024","prefecture":"熊本県","prefecture_kana":"クマモトケン","city":"熊本市中央区","city_kana":"クマモトシチュウオウク","town":"松原町","town_kana":"マツバラマチ","prefecture_code":43},"0812":{"zip_code":"8600812","prefecture":"熊本県","prefecture_kana":"クマモトケン","city":"熊本市中央区","city_kana":"クマモトシチュウオウク","town":"南熊本","town_kana":"ミナミクマモト","prefecture_code":43},"0842":{"zip_code":"8600842","prefecture":"熊本県","prefecture_kana":"クマモトケン","city":"熊本市中央区","city_kana":"クマモトシチュウオウク","town":"南千反畑町","town_kana":"ミナミセンダンバタマチ","prefecture_code":43},"0848":{"zip_code":"8600848","prefecture":"熊本県","prefecture_kana":"クマモトケン","city":"熊本市中央区","city_kana":"クマモトシチュウオウク","town":"南坪井町","town_kana":"ミナミツボイマチ","prefecture_code":43},"0005":{"zip_code":"8600005","prefecture":"熊本県","prefecture_kana":"クマモトケン","city":"熊本市中央区","city_kana":"クマモトシチュウオウク","town":"宮内","town_kana":"ミヤウチ","prefecture_code":43},"0856":{"zip_code":"8600856","prefecture":"熊本県","prefecture_kana":"クマモトケン","city":"熊本市中央区","city_kana":"クマモトシチュウオウク","town":"妙体寺町","town_kana":"ミョウタイジマチ","prefecture_code":43},"0817":{"zip_code":"8600817","prefecture":"熊本県","prefecture_kana":"クマモトケン","city":"熊本市中央区","city_kana":"クマモトシチュウオウク","town":"迎町","town_kana":"ムカエマチ","prefecture_code":43},"0821":{"zip_code":"8600821","prefecture":"熊本県","prefecture_kana":"クマモトケン","city":"熊本市中央区","city_kana":"クマモトシチュウオウク","town":"本山","town_kana":"モトヤマ","prefecture_code":43},"0822":{"zip_code":"8600822","prefecture":"熊本県","prefecture_kana":"クマモトケン","city":"熊本市中央区","city_kana":"クマモトシチュウオウク","town":"本山町","town_kana":"モトヤママチ","prefecture_code":43},"0852":{"zip_code":"8600852","prefecture":"熊本県","prefecture_kana":"クマモトケン","city":"熊本市中央区","city_kana":"クマモトシチュウオウク","town":"薬園町","town_kana":"ヤクエンチョウ","prefecture_code":43},"0016":{"zip_code":"8600016","prefecture":"熊本県","prefecture_kana":"クマモトケン","city":"熊本市中央区","city_kana":"クマモトシチュウオウク","town":"山崎町","town_kana":"ヤマサキマチ","prefecture_code":43},"0818":{"zip_code":"8600818","prefecture":"熊本県","prefecture_kana":"クマモトケン","city":"熊本市中央区","city_kana":"クマモトシチュウオウク","town":"弥生町","town_kana":"ヤヨイチョウ","prefecture_code":43},"0022":{"zip_code":"8600022","prefecture":"熊本県","prefecture_kana":"クマモトケン","city":"熊本市中央区","city_kana":"クマモトシチュウオウク","town":"横紺屋町","town_kana":"ヨココウヤマチ","prefecture_code":43},"0046":[{"zip_code":"8600046","prefecture":"熊本県","prefecture_kana":"クマモトケン","city":"熊本市中央区","city_kana":"クマモトシチュウオウク","town":"横手","town_kana":"ヨコテ","prefecture_code":43},{"zip_code":"8600046","prefecture":"熊本県","prefecture_kana":"クマモトケン","city":"熊本市西区","city_kana":"クマモトシニシク","town":"横手","town_kana":"ヨコテ","prefecture_code":43}],"0823":{"zip_code":"8600823","prefecture":"熊本県","prefecture_kana":"クマモトケン","city":"熊本市中央区","city_kana":"クマモトシチュウオウク","town":"世安町","town_kana":"ヨヤスマチ","prefecture_code":43},"0032":{"zip_code":"8600032","prefecture":"熊本県","prefecture_kana":"クマモトケン","city":"熊本市中央区","city_kana":"クマモトシチュウオウク","town":"万町","town_kana":"ヨロズマチ","prefecture_code":43},"0017":{"zip_code":"8600017","prefecture":"熊本県","prefecture_kana":"クマモトケン","city":"熊本市中央区","city_kana":"クマモトシチュウオウク","town":"練兵町","town_kana":"レンペイチョウ","prefecture_code":43},"0071":{"zip_code":"8600071","prefecture":"熊本県","prefecture_kana":"クマモトケン","city":"熊本市西区","city_kana":"クマモトシニシク","town":"池亀町","town_kana":"イケガメマチ","prefecture_code":43},"0082":[{"zip_code":"8600082","prefecture":"熊本県","prefecture_kana":"クマモトケン","city":"熊本市西区","city_kana":"クマモトシニシク","town":"池田","town_kana":"イケダ","prefecture_code":43},{"zip_code":"8600082","prefecture":"熊本県","prefecture_kana":"クマモトケン","city":"熊本市北区","city_kana":"クマモトシキタク","town":"池田","town_kana":"イケダ","prefecture_code":43}],"0048":{"zip_code":"8600048","prefecture":"熊本県","prefecture_kana":"クマモトケン","city":"熊本市西区","city_kana":"クマモトシニシク","town":"池上町","town_kana":"イケノウエマチ","prefecture_code":43},"0047":{"zip_code":"8600047","prefecture":"熊本県","prefecture_kana":"クマモトケン","city":"熊本市西区","city_kana":"クマモトシニシク","town":"春日","town_kana":"カスガ","prefecture_code":43},"0079":{"zip_code":"8600079","prefecture":"熊本県","prefecture_kana":"クマモトケン","city":"熊本市西区","city_kana":"クマモトシニシク","town":"上熊本","town_kana":"カミクマモト","prefecture_code":43},"0068":{"zip_code":"8600068","prefecture":"熊本県","prefecture_kana":"クマモトケン","city":"熊本市西区","city_kana":"クマモトシニシク","town":"上代","town_kana":"カミダイ","prefecture_code":43},"0061":{"zip_code":"8600061","prefecture":"熊本県","prefecture_kana":"クマモトケン","city":"熊本市西区","city_kana":"クマモトシニシク","town":"上高橋","town_kana":"カミタカハシ","prefecture_code":43},"0067":{"zip_code":"8600067","prefecture":"熊本県","prefecture_kana":"クマモトケン","city":"熊本市西区","city_kana":"クマモトシニシク","town":"城山大塘","town_kana":"ジョウザンオオドモ","prefecture_code":43},"0063":{"zip_code":"8600063","prefecture":"熊本県","prefecture_kana":"クマモトケン","city":"熊本市西区","city_kana":"クマモトシニシク","town":"城山上代町","town_kana":"ジョウザンカミダイマチ","prefecture_code":43},"0066":{"zip_code":"8600066","prefecture":"熊本県","prefecture_kana":"クマモトケン","city":"熊本市西区","city_kana":"クマモトシニシク","town":"城山下代","town_kana":"ジョウザンシモダイ","prefecture_code":43},"0064":{"zip_code":"8600064","prefecture":"熊本県","prefecture_kana":"クマモトケン","city":"熊本市西区","city_kana":"クマモトシニシク","town":"城山半田","town_kana":"ジョウザンハンダ","prefecture_code":43},"0065":{"zip_code":"8600065","prefecture":"熊本県","prefecture_kana":"クマモトケン","city":"熊本市西区","city_kana":"クマモトシニシク","town":"城山薬師","town_kana":"ジョウザンヤクシ","prefecture_code":43},"0056":{"zip_code":"8600056","prefecture":"熊本県","prefecture_kana":"クマモトケン","city":"熊本市西区","city_kana":"クマモトシニシク","town":"新土河原","town_kana":"シントガワラ","prefecture_code":43},"0062":{"zip_code":"8600062","prefecture":"熊本県","prefecture_kana":"クマモトケン","city":"熊本市西区","city_kana":"クマモトシニシク","town":"高橋町","town_kana":"タカハシマチ","prefecture_code":43},"0053":{"zip_code":"8600053","prefecture":"熊本県","prefecture_kana":"クマモトケン","city":"熊本市西区","city_kana":"クマモトシニシク","town":"田崎","town_kana":"タサキ","prefecture_code":43},"0052":{"zip_code":"8600052","prefecture":"熊本県","prefecture_kana":"クマモトケン","city":"熊本市西区","city_kana":"クマモトシニシク","town":"田崎本町","town_kana":"タサキホンマチ","prefecture_code":43},"0058":{"zip_code":"8600058","prefecture":"熊本県","prefecture_kana":"クマモトケン","city":"熊本市西区","city_kana":"クマモトシニシク","town":"田崎町","town_kana":"タサキマチ","prefecture_code":43},"0044":{"zip_code":"8600044","prefecture":"熊本県","prefecture_kana":"クマモトケン","city":"熊本市西区","city_kana":"クマモトシニシク","town":"谷尾崎町","town_kana":"タニオザキマチ","prefecture_code":43},"0088":[{"zip_code":"8600088","prefecture":"熊本県","prefecture_kana":"クマモトケン","city":"熊本市西区","city_kana":"クマモトシニシク","town":"津浦町","town_kana":"ツノウラマチ","prefecture_code":43},{"zip_code":"8600088","prefecture":"熊本県","prefecture_kana":"クマモトケン","city":"熊本市北区","city_kana":"クマモトシキタク","town":"津浦町","town_kana":"ツノウラマチ","prefecture_code":43}],"0074":{"zip_code":"8600074","prefecture":"熊本県","prefecture_kana":"クマモトケン","city":"熊本市西区","city_kana":"クマモトシニシク","town":"出町","town_kana":"デマチ","prefecture_code":43},"0045":{"zip_code":"8600045","prefecture":"熊本県","prefecture_kana":"クマモトケン","city":"熊本市西区","city_kana":"クマモトシニシク","town":"戸坂町","town_kana":"トサカマチ","prefecture_code":43},"0051":{"zip_code":"8600051","prefecture":"熊本県","prefecture_kana":"クマモトケン","city":"熊本市西区","city_kana":"クマモトシニシク","town":"二本木","town_kana":"ニホンギ","prefecture_code":43},"0059":{"zip_code":"8600059","prefecture":"熊本県","prefecture_kana":"クマモトケン","city":"熊本市西区","city_kana":"クマモトシニシク","town":"野中","town_kana":"ノナカ","prefecture_code":43},"0072":{"zip_code":"8600072","prefecture":"熊本県","prefecture_kana":"クマモトケン","city":"熊本市西区","city_kana":"クマモトシニシク","town":"花園","town_kana":"ハナゾノ","prefecture_code":43},"0075":{"zip_code":"8600075","prefecture":"熊本県","prefecture_kana":"クマモトケン","city":"熊本市西区","city_kana":"クマモトシニシク","town":"稗田町","town_kana":"ヒエダマチ","prefecture_code":43},"0054":{"zip_code":"8600054","prefecture":"熊本県","prefecture_kana":"クマモトケン","city":"熊本市西区","city_kana":"クマモトシニシク","town":"八島","town_kana":"ヤシマ","prefecture_code":43},"0057":{"zip_code":"8600057","prefecture":"熊本県","prefecture_kana":"クマモトケン","city":"熊本市西区","city_kana":"クマモトシニシク","town":"八島町","town_kana":"ヤシママチ","prefecture_code":43},"0055":{"zip_code":"8600055","prefecture":"熊本県","prefecture_kana":"クマモトケン","city":"熊本市西区","city_kana":"クマモトシニシク","town":"蓮台寺","town_kana":"レンダイジ","prefecture_code":43},"0834":{"zip_code":"8600834","prefecture":"熊本県","prefecture_kana":"クマモトケン","city":"熊本市南区","city_kana":"クマモトシミナミク","town":"江越","town_kana":"エゴエ","prefecture_code":43},"0826":{"zip_code":"8600826","prefecture":"熊本県","prefecture_kana":"クマモトケン","city":"熊本市南区","city_kana":"クマモトシミナミク","town":"平田","town_kana":"ヒラタ","prefecture_code":43},"0086":{"zip_code":"8600086","prefecture":"熊本県","prefecture_kana":"クマモトケン","city":"熊本市北区","city_kana":"クマモトシキタク","town":"打越町","town_kana":"ウチゴシマチ","prefecture_code":43},"0083":{"zip_code":"8600083","prefecture":"熊本県","prefecture_kana":"クマモトケン","city":"熊本市北区","city_kana":"クマモトシキタク","town":"大窪","town_kana":"オオクボ","prefecture_code":43},"0861":{"zip_code":"8600861","prefecture":"熊本県","prefecture_kana":"クマモトケン","city":"熊本市北区","city_kana":"クマモトシキタク","town":"黒髪町坪井","town_kana":"クロカミマチツボイ","prefecture_code":43},"0087":{"zip_code":"8600087","prefecture":"熊本県","prefecture_kana":"クマモトケン","city":"熊本市北区","city_kana":"クマモトシキタク","town":"清水町打越","town_kana":"シミズマチウチゴシ","prefecture_code":43},"0085":{"zip_code":"8600085","prefecture":"熊本県","prefecture_kana":"クマモトケン","city":"熊本市北区","city_kana":"クマモトシキタク","town":"高平","town_kana":"タカヒラ","prefecture_code":43},"0084":{"zip_code":"8600084","prefecture":"熊本県","prefecture_kana":"クマモトケン","city":"熊本市北区","city_kana":"クマモトシキタク","town":"山室","town_kana":"ヤマムロ","prefecture_code":43},"8543":{"zip_code":"8608543","prefecture":"熊本県","city":"熊本市中央区","town":"花畑町","prefecture_code":43},"8519":{"zip_code":"8608519","prefecture":"熊本県","city":"熊本市中央区","town":"桜町","prefecture_code":43},"8536":{"zip_code":"8608536","prefecture":"熊本県","city":"熊本市中央区","town":"上通町","prefecture_code":43},"8506":{"zip_code":"8608506","prefecture":"熊本県","city":"熊本市中央区","town":"世安町","prefecture_code":43},"8539":{"zip_code":"8608539","prefecture":"熊本県","city":"熊本市中央区","town":"妙体寺町","prefecture_code":43},"8797":[{"zip_code":"8608797","prefecture":"熊本県","city":"熊本市中央区","town":"城東町","prefecture_code":43},{"zip_code":"8608797","prefecture":"熊本県","city":"熊本市中央区","town":"城東町","prefecture_code":43},{"zip_code":"8608797","prefecture":"熊本県","city":"熊本市中央区","town":"城東町","prefecture_code":43}],"8525":{"zip_code":"8608525","prefecture":"熊本県","city":"熊本市中央区","town":"八王寺町","prefecture_code":43},"8509":{"zip_code":"8608509","prefecture":"熊本県","city":"熊本市中央区","town":"世安町","prefecture_code":43},"8588":{"zip_code":"8608588","prefecture":"熊本県","city":"熊本市中央区","town":"安政町","prefecture_code":43},"8619":{"zip_code":"8608619","prefecture":"熊本県","city":"熊本市中央区","town":"草葉町","prefecture_code":43},"8501":{"zip_code":"8608501","prefecture":"熊本県","city":"熊本市中央区","town":"山崎町","prefecture_code":43},"8522":{"zip_code":"8608522","prefecture":"熊本県","city":"熊本市中央区","town":"世安町","prefecture_code":43},"8565":{"zip_code":"8608565","prefecture":"熊本県","city":"熊本市中央区","town":"城東町","prefecture_code":43},"8511":{"zip_code":"8608511","prefecture":"熊本県","city":"熊本市中央区","town":"水道町","prefecture_code":43},"8668":{"zip_code":"8608668","prefecture":"熊本県","city":"熊本市中央区","town":"桜町","prefecture_code":43},"8567":{"zip_code":"8608567","prefecture":"熊本県","city":"熊本市中央区","town":"世安町","prefecture_code":43},"8586":{"zip_code":"8608586","prefecture":"熊本県","city":"熊本市中央区","town":"手取本町","prefecture_code":43},"8541":{"zip_code":"8608541","prefecture":"熊本県","city":"熊本市中央区","town":"練兵町","prefecture_code":43},"8575":{"zip_code":"8608575","prefecture":"熊本県","city":"熊本市中央区","town":"東阿弥陀寺町","prefecture_code":43},"8584":{"zip_code":"8608584","prefecture":"熊本県","city":"熊本市中央区","town":"手取本町","prefecture_code":43},"8608":{"zip_code":"8608608","prefecture":"熊本県","city":"熊本市中央区","town":"古川町","prefecture_code":43},"8580":{"zip_code":"8608580","prefecture":"熊本県","city":"熊本市中央区","town":"本荘","prefecture_code":43},"8545":{"zip_code":"8608545","prefecture":"熊本県","city":"熊本市中央区","town":"水道町","prefecture_code":43},"8558":{"zip_code":"8608558","prefecture":"熊本県","city":"熊本市中央区","town":"内坪井町","prefecture_code":43},"8520":{"zip_code":"8608520","prefecture":"熊本県","city":"熊本市中央区","town":"黒髪","prefecture_code":43},"8557":{"zip_code":"8608557","prefecture":"熊本県","city":"熊本市中央区","town":"上林町","prefecture_code":43},"8531":{"zip_code":"8608531","prefecture":"熊本県","city":"熊本市中央区","town":"京町","prefecture_code":43},"8796":{"zip_code":"8608796","prefecture":"熊本県","city":"熊本市中央区","town":"城東町","prefecture_code":43},"8552":{"zip_code":"8608552","prefecture":"熊本県","city":"熊本市中央区","town":"紺屋町","prefecture_code":43},"8528":{"zip_code":"8608528","prefecture":"熊本県","city":"熊本市中央区","town":"南千反畑町","prefecture_code":43},"8570":{"zip_code":"8608570","prefecture":"熊本県","city":"熊本市中央区","town":"南千反畑町","prefecture_code":43},"8533":{"zip_code":"8608533","prefecture":"熊本県","city":"熊本市中央区","town":"本荘町","prefecture_code":43},"8551":{"zip_code":"8608551","prefecture":"熊本県","city":"熊本市中央区","town":"南熊本","prefecture_code":43},"8554":{"zip_code":"8608554","prefecture":"熊本県","city":"熊本市中央区","town":"手取本町","prefecture_code":43},"8577":{"zip_code":"8608577","prefecture":"熊本県","city":"熊本市中央区","town":"桜町","prefecture_code":43},"8507":{"zip_code":"8608507","prefecture":"熊本県","city":"熊本市中央区","town":"世安町","prefecture_code":43},"8503":{"zip_code":"8608503","prefecture":"熊本県","city":"熊本市中央区","town":"南熊本","prefecture_code":43},"8547":{"zip_code":"8608547","prefecture":"熊本県","city":"熊本市中央区","town":"横紺屋町","prefecture_code":43},"8555":{"zip_code":"8608555","prefecture":"熊本県","city":"熊本市中央区","town":"黒髪","prefecture_code":43},"8556":{"zip_code":"8608556","prefecture":"熊本県","city":"熊本市中央区","town":"本荘","prefecture_code":43},"8513":{"zip_code":"8608513","prefecture":"熊本県","city":"熊本市中央区","town":"京町","prefecture_code":43},"8534":{"zip_code":"8608534","prefecture":"熊本県","city":"熊本市中央区","town":"千葉城町","prefecture_code":43},"8739":{"zip_code":"8608739","prefecture":"熊本県","city":"熊本市中央区","town":"新町","prefecture_code":43},"8530":{"zip_code":"8608530","prefecture":"熊本県","city":"熊本市中央区","town":"平成","prefecture_code":43},"8650":{"zip_code":"8608650","prefecture":"熊本県","city":"熊本市中央区","town":"水道町","prefecture_code":43},"8524":{"zip_code":"8608524","prefecture":"熊本県","city":"熊本市中央区","town":"辛島町","prefecture_code":43},"8587":{"zip_code":"8608587","prefecture":"熊本県","city":"熊本市中央区","town":"花畑町","prefecture_code":43},"8526":{"zip_code":"8608526","prefecture":"熊本県","city":"熊本市中央区","town":"花畑町","prefecture_code":43},"8618":{"zip_code":"8608618","prefecture":"熊本県","city":"熊本市中央区","town":"手取本町","prefecture_code":43},"8521":{"zip_code":"8608521","prefecture":"熊本県","city":"熊本市中央区","town":"世安町","prefecture_code":43},"8504":{"zip_code":"8608504","prefecture":"熊本県","city":"熊本市中央区","town":"南熊本","prefecture_code":43},"8581":{"zip_code":"8608581","prefecture":"熊本県","city":"熊本市中央区","town":"辛島町","prefecture_code":43},"8559":{"zip_code":"8608559","prefecture":"熊本県","city":"熊本市中央区","town":"本荘","prefecture_code":43},"8602":{"zip_code":"8608602","prefecture":"熊本県","city":"熊本市中央区","town":"千葉城町","prefecture_code":43},"8510":{"zip_code":"8608510","prefecture":"熊本県","city":"熊本市中央区","town":"紺屋今町","prefecture_code":43},"8517":{"zip_code":"8608517","prefecture":"熊本県","city":"熊本市中央区","town":"水道町","prefecture_code":43},"8512":{"zip_code":"8608512","prefecture":"熊本県","city":"熊本市中央区","town":"花畑町","prefecture_code":43},"8622":{"zip_code":"8608622","prefecture":"熊本県","city":"熊本市中央区","town":"坪井","prefecture_code":43},"8611":{"zip_code":"8608611","prefecture":"熊本県","city":"熊本市中央区","town":"山崎町","prefecture_code":43},"8686":{"zip_code":"8608686","prefecture":"熊本県","city":"熊本市中央区","town":"安政町","prefecture_code":43},"8615":{"zip_code":"8608615","prefecture":"熊本県","city":"熊本市中央区","town":"紺屋町","prefecture_code":43},"8606":{"zip_code":"8608606","prefecture":"熊本県","city":"熊本市中央区","town":"花畑町","prefecture_code":43},"8601":{"zip_code":"8608601","prefecture":"熊本県","city":"熊本市中央区","town":"手取本町","prefecture_code":43},"8655":{"zip_code":"8608655","prefecture":"熊本県","city":"熊本市中央区","town":"手取本町","prefecture_code":43},"8681":{"zip_code":"8608681","prefecture":"熊本県","city":"熊本市中央区","town":"花畑町","prefecture_code":43},"8624":{"zip_code":"8608624","prefecture":"熊本県","city":"熊本市中央区","town":"二の丸","prefecture_code":43},"8660":{"zip_code":"8608660","prefecture":"熊本県","city":"熊本市中央区","town":"城東町","prefecture_code":43},"8688":{"zip_code":"8608688","prefecture":"熊本県","city":"熊本市中央区","town":"花畑町","prefecture_code":43},"8605":{"zip_code":"8608605","prefecture":"熊本県","city":"熊本市中央区","town":"中央街","prefecture_code":43},"8604":{"zip_code":"8608604","prefecture":"熊本県","city":"熊本市中央区","town":"花畑町","prefecture_code":43},"8515":{"zip_code":"8608515","prefecture":"熊本県","city":"熊本市西区","town":"島崎","prefecture_code":43},"8523":{"zip_code":"8608523","prefecture":"熊本県","city":"熊本市西区","town":"上熊本","prefecture_code":43},"8585":{"zip_code":"8608585","prefecture":"熊本県","city":"熊本市西区","town":"春日","prefecture_code":43},"8566":{"zip_code":"8608566","prefecture":"熊本県","city":"熊本市西区","town":"上熊本","prefecture_code":43},"8527":{"zip_code":"8608527","prefecture":"熊本県","city":"熊本市西区","town":"春日","prefecture_code":43},"8792":{"zip_code":"8608792","prefecture":"熊本県","city":"熊本市西区","town":"春日","prefecture_code":43},"8516":{"zip_code":"8608516","prefecture":"熊本県","city":"熊本市西区","town":"二本木","prefecture_code":43},"8603":{"zip_code":"8608603","prefecture":"熊本県","city":"熊本市西区","town":"春日","prefecture_code":43},"8514":{"zip_code":"8608514","prefecture":"熊本県","city":"熊本市西区","town":"春日","prefecture_code":43},"8508":{"zip_code":"8608508","prefecture":"熊本県","city":"熊本市西区","town":"上熊本","prefecture_code":43},"8795":{"zip_code":"8608795","prefecture":"熊本県","city":"熊本市西区","town":"春日","prefecture_code":43},"8505":{"zip_code":"8608505","prefecture":"熊本県","city":"熊本市西区","town":"春日","prefecture_code":43},"8625":{"zip_code":"8608625","prefecture":"熊本県","city":"熊本市西区","town":"花園","prefecture_code":43},"8550":{"zip_code":"8608550","prefecture":"熊本県","city":"熊本市南区","town":"江越","prefecture_code":43},"8568":{"zip_code":"8608568","prefecture":"熊本県","city":"熊本市北区","town":"大窪","prefecture_code":43},"8518":{"zip_code":"8608518","prefecture":"熊本県","city":"熊本市北区","town":"山室","prefecture_code":43},"8540":{"zip_code":"8608540","prefecture":"熊本県","city":"熊本市北区","town":"高平","prefecture_code":43}}