{"0000":{"zip_code":"9000000","prefecture":"沖縄県","prefecture_kana":"オキナワケン","city":"那覇市","city_kana":"ナハシ","town":"","town_kana":"","prefecture_code":47},"0002":{"zip_code":"9000002","prefecture":"沖縄県","prefecture_kana":"オキナワケン","city":"那覇市","city_kana":"ナハシ","town":"曙","town_kana":"アケボノ","prefecture_code":47},"0029":{"zip_code":"9000029","prefecture":"沖縄県","prefecture_kana":"オキナワケン","city":"那覇市","city_kana":"ナハシ","town":"旭町","town_kana":"アサヒマチ","prefecture_code":47},"0003":{"zip_code":"9000003","prefecture":"沖縄県","prefecture_kana":"オキナワケン","city":"那覇市","city_kana":"ナハシ","town":"安謝","town_kana":"アジャ","prefecture_code":47},"0005":{"zip_code":"9000005","prefecture":"沖縄県","prefecture_kana":"オキナワケン","city":"那覇市","city_kana":"ナハシ","town":"天久","town_kana":"アメク","prefecture_code":47},"0021":{"zip_code":"9000021","prefecture":"沖縄県","prefecture_kana":"オキナワケン","city":"那覇市","city_kana":"ナハシ","town":"泉崎","town_kana":"イズミザキ","prefecture_code":47},"0011":{"zip_code":"9000011","prefecture":"沖縄県","prefecture_kana":"オキナワケン","city":"那覇市","city_kana":"ナハシ","town":"上之屋","town_kana":"ウエノヤ","prefecture_code":47},"0026":{"zip_code":"9000026","prefecture":"沖縄県","prefecture_kana":"オキナワケン","city":"那覇市","city_kana":"ナハシ","town":"奥武山町","town_kana":"オオノヤマチョウ","prefecture_code":47},"0006":{"zip_code":"9000006","prefecture":"沖縄県","prefecture_kana":"オキナワケン","city":"那覇市","city_kana":"ナハシ","town":"おもろまち","town_kana":"オモロマチ","prefecture_code":47},"0028":{"zip_code":"9000028","prefecture":"沖縄県","prefecture_kana":"オキナワケン","city":"那覇市","city_kana":"ナハシ","town":"垣花町","town_kana":"カキノハナチョウ","prefecture_code":47},"0033":{"zip_code":"9000033","prefecture":"沖縄県","prefecture_kana":"オキナワケン","city":"那覇市","city_kana":"ナハシ","town":"久米","town_kana":"クメ","prefecture_code":47},"0015":{"zip_code":"9000015","prefecture":"沖縄県","prefecture_kana":"オキナワケン","city":"那覇市","city_kana":"ナハシ","town":"久茂地","town_kana":"クモジ","prefecture_code":47},"0024":{"zip_code":"9000024","prefecture":"沖縄県","prefecture_kana":"オキナワケン","city":"那覇市","city_kana":"ナハシ","town":"古波蔵","town_kana":"コハグラ","prefecture_code":47},"0023":{"zip_code":"9000023","prefecture":"沖縄県","prefecture_kana":"オキナワケン","city":"那覇市","city_kana":"ナハシ","town":"楚辺","town_kana":"ソベ","prefecture_code":47},"0037":{"zip_code":"9000037","prefecture":"沖縄県","prefecture_kana":"オキナワケン","city":"那覇市","city_kana":"ナハシ","town":"辻","town_kana":"ツジ","prefecture_code":47},"0025":{"zip_code":"9000025","prefecture":"沖縄県","prefecture_kana":"オキナワケン","city":"那覇市","city_kana":"ナハシ","town":"壺川","town_kana":"ツボガワ","prefecture_code":47},"0012":{"zip_code":"9000012","prefecture":"沖縄県","prefecture_kana":"オキナワケン","city":"那覇市","city_kana":"ナハシ","town":"泊","town_kana":"トマリ","prefecture_code":47},"0035":{"zip_code":"9000035","prefecture":"沖縄県","prefecture_kana":"オキナワケン","city":"那覇市","city_kana":"ナハシ","town":"通堂町","town_kana":"トンドウチョウ","prefecture_code":47},"0036":{"zip_code":"9000036","prefecture":"沖縄県","prefecture_kana":"オキナワケン","city":"那覇市","city_kana":"ナハシ","town":"西","town_kana":"ニシ","prefecture_code":47},"0034":{"zip_code":"9000034","prefecture":"沖縄県","prefecture_kana":"オキナワケン","city":"那覇市","city_kana":"ナハシ","town":"東町","town_kana":"ヒガシマチ","prefecture_code":47},"0022":{"zip_code":"9000022","prefecture":"沖縄県","prefecture_kana":"オキナワケン","city":"那覇市","city_kana":"ナハシ","town":"樋川","town_kana":"ヒガワ","prefecture_code":47},"0016":{"zip_code":"9000016","prefecture":"沖縄県","prefecture_kana":"オキナワケン","city":"那覇市","city_kana":"ナハシ","town":"前島","town_kana":"マエジマ","prefecture_code":47},"0013":{"zip_code":"9000013","prefecture":"沖縄県","prefecture_kana":"オキナワケン","city":"那覇市","city_kana":"ナハシ","town":"牧志","town_kana":"マキシ","prefecture_code":47},"0014":{"zip_code":"9000014","prefecture":"沖縄県","prefecture_kana":"オキナワケン","city":"那覇市","city_kana":"ナハシ","town":"松尾","town_kana":"マツオ","prefecture_code":47},"0032":{"zip_code":"9000032","prefecture":"沖縄県","prefecture_kana":"オキナワケン","city":"那覇市","city_kana":"ナハシ","town":"松山","town_kana":"マツヤマ","prefecture_code":47},"0001":{"zip_code":"9000001","prefecture":"沖縄県","prefecture_kana":"オキナワケン","city":"那覇市","city_kana":"ナハシ","town":"港町","town_kana":"ミナトマチ","prefecture_code":47},"0004":{"zip_code":"9000004","prefecture":"沖縄県","prefecture_kana":"オキナワケン","city":"那覇市","city_kana":"ナハシ","town":"銘苅","town_kana":"メカル","prefecture_code":47},"0027":{"zip_code":"9000027","prefecture":"沖縄県","prefecture_kana":"オキナワケン","city":"那覇市","city_kana":"ナハシ","town":"山下町","town_kana":"ヤマシタチョウ","prefecture_code":47},"0031":{"zip_code":"9000031","prefecture":"沖縄県","prefecture_kana":"オキナワケン","city":"那覇市","city_kana":"ナハシ","town":"若狭","town_kana":"ワカサ","prefecture_code":47},"8556":{"zip_code":"9008556","prefecture":"沖縄県","city":"那覇市","town":"上之屋","prefecture_code":47},"8560":{"zip_code":"9008560","prefecture":"沖縄県","city":"那覇市","town":"おもろまち","prefecture_code":47},"8535":{"zip_code":"9008535","prefecture":"沖縄県","city":"那覇市","town":"おもろまち","prefecture_code":47},"8545":{"zip_code":"9008545","prefecture":"沖縄県","city":"那覇市","town":"楚辺","prefecture_code":47},"8686":{"zip_code":"9008686","prefecture":"沖縄県","city":"那覇市","town":"前島","prefecture_code":47},"8796":{"zip_code":"9008796","prefecture":"沖縄県","city":"那覇市","town":"東町","prefecture_code":47},"8605":{"zip_code":"9008605","prefecture":"沖縄県","city":"那覇市","town":"西","prefecture_code":47},"8517":{"zip_code":"9008517","prefecture":"沖縄県","city":"那覇市","town":"樋川","prefecture_code":47},"8558":{"zip_code":"9008558","prefecture":"沖縄県","city":"那覇市","town":"古波蔵","prefecture_code":47},"8571":{"zip_code":"9008571","prefecture":"沖縄県","city":"那覇市","town":"泉崎","prefecture_code":47},"8577":{"zip_code":"9008577","prefecture":"沖縄県","city":"那覇市","town":"山下町","prefecture_code":47},"8559":{"zip_code":"9008559","prefecture":"沖縄県","city":"那覇市","town":"西","prefecture_code":47},"8650":{"zip_code":"9008650","prefecture":"沖縄県","city":"那覇市","town":"楚辺","prefecture_code":47},"8570":{"zip_code":"9008570","prefecture":"沖縄県","city":"那覇市","town":"泉崎","prefecture_code":47},"8531":{"zip_code":"9008531","prefecture":"沖縄県","city":"那覇市","town":"旭町","prefecture_code":47},"8557":{"zip_code":"9008557","prefecture":"沖縄県","city":"那覇市","town":"松山","prefecture_code":47},"8610":{"zip_code":"9008610","prefecture":"沖縄県","city":"那覇市","town":"泊","prefecture_code":47},"8555":{"zip_code":"9008555","prefecture":"沖縄県","city":"那覇市","town":"松尾","prefecture_code":47},"8554":{"zip_code":"9008554","prefecture":"沖縄県","city":"那覇市","town":"旭町","prefecture_code":47},"8520":{"zip_code":"9008520","prefecture":"沖縄県","city":"那覇市","town":"おもろまち","prefecture_code":47},"8540":{"zip_code":"9008540","prefecture":"沖縄県","city":"那覇市","town":"松山","prefecture_code":47},"8602":{"zip_code":"9008602","prefecture":"沖縄県","city":"那覇市","town":"松尾","prefecture_code":47},"8588":{"zip_code":"9008588","prefecture":"沖縄県","city":"那覇市","town":"久茂地","prefecture_code":47},"8522":{"zip_code":"9008522","prefecture":"沖縄県","city":"那覇市","town":"旭町","prefecture_code":47},"8527":{"zip_code":"9008527","prefecture":"沖縄県","city":"那覇市","town":"旭町","prefecture_code":47},"8797":[{"zip_code":"9008797","prefecture":"沖縄県","city":"那覇市","town":"東町","prefecture_code":47},{"zip_code":"9008797","prefecture":"沖縄県","city":"那覇市","town":"東町","prefecture_code":47},{"zip_code":"9008797","prefecture":"沖縄県","city":"那覇市","town":"東町","prefecture_code":47}],"8609":{"zip_code":"9008609","prefecture":"沖縄県","city":"那覇市","town":"松山","prefecture_code":47},"8534":{"zip_code":"9008534","prefecture":"沖縄県","city":"那覇市","town":"久茂地","prefecture_code":47},"8678":{"zip_code":"9008678","prefecture":"沖縄県","city":"那覇市","town":"久茂地","prefecture_code":47},"8511":{"zip_code":"9008511","prefecture":"沖縄県","city":"那覇市","town":"久茂地","prefecture_code":47},"8505":{"zip_code":"9008505","prefecture":"沖縄県","city":"那覇市","town":"久茂地","prefecture_code":47},"8604":{"zip_code":"9008604","prefecture":"沖縄県","city":"那覇市","town":"西","prefecture_code":47},"8503":{"zip_code":"9008503","prefecture":"沖縄県","city":"那覇市","town":"久茂地","prefecture_code":47},"8516":{"zip_code":"9008516","prefecture":"沖縄県","city":"那覇市","town":"西","prefecture_code":47},"8550":{"zip_code":"9008550","prefecture":"沖縄県","city":"那覇市","town":"久茂地","prefecture_code":47},"8551":{"zip_code":"9008551","prefecture":"沖縄県","city":"那覇市","town":"東町","prefecture_code":47},"8504":{"zip_code":"9008504","prefecture":"沖縄県","city":"那覇市","town":"久茂地","prefecture_code":47},"8552":{"zip_code":"9008552","prefecture":"沖縄県","city":"那覇市","town":"西","prefecture_code":47},"8581":{"zip_code":"9008581","prefecture":"沖縄県","city":"那覇市","town":"松山","prefecture_code":47},"8513":{"zip_code":"9008513","prefecture":"沖縄県","city":"那覇市","town":"古波蔵","prefecture_code":47},"8512":{"zip_code":"9008512","prefecture":"沖縄県","city":"那覇市","town":"旭町","prefecture_code":47},"8608":{"zip_code":"9008608","prefecture":"沖縄県","city":"那覇市","town":"安謝","prefecture_code":47},"8795":{"zip_code":"9008795","prefecture":"沖縄県","city":"那覇市","town":"旭町","prefecture_code":47},"8547":{"zip_code":"9008547","prefecture":"沖縄県","city":"那覇市","town":"港町","prefecture_code":47},"8586":{"zip_code":"9008586","prefecture":"沖縄県","city":"那覇市","town":"久茂地","prefecture_code":47},"8530":{"zip_code":"9008530","prefecture":"沖縄県","city":"那覇市","town":"おもろまち","prefecture_code":47},"8548":{"zip_code":"9008548","prefecture":"沖縄県","city":"那覇市","town":"港町","prefecture_code":47},"8603":{"zip_code":"9008603","prefecture":"沖縄県","city":"那覇市","town":"樋川","prefecture_code":47},"8601":{"zip_code":"9008601","prefecture":"沖縄県","city":"那覇市","town":"おもろまち","prefecture_code":47},"8553":{"zip_code":"9008553","prefecture":"沖縄県","city":"那覇市","town":"泉崎","prefecture_code":47},"8585":{"zip_code":"9008585","prefecture":"沖縄県","city":"那覇市","town":"泉崎","prefecture_code":47},"8543":{"zip_code":"9008543","prefecture":"沖縄県","city":"那覇市","town":"旭町","prefecture_code":47},"8578":{"zip_code":"9008578","prefecture":"沖縄県","city":"那覇市","town":"樋川","prefecture_code":47},"8567":{"zip_code":"9008567","prefecture":"沖縄県","city":"那覇市","town":"樋川","prefecture_code":47},"8544":{"zip_code":"9008544","prefecture":"沖縄県","city":"那覇市","town":"樋川","prefecture_code":47},"8580":{"zip_code":"9008580","prefecture":"沖縄県","city":"那覇市","town":"壺川","prefecture_code":47},"8666":{"zip_code":"9008666","prefecture":"沖縄県","city":"那覇市","town":"おもろまち","prefecture_code":47},"8575":{"zip_code":"9008575","prefecture":"沖縄県","city":"那覇市","town":"旭町","prefecture_code":47},"8524":{"zip_code":"9008524","prefecture":"沖縄県","city":"那覇市","town":"久茂地","prefecture_code":47},"8735":{"zip_code":"9008735","prefecture":"沖縄県","city":"那覇市","town":"辻","prefecture_code":47},"8794":{"zip_code":"9008794","prefecture":"沖縄県","city":"那覇市","town":"東町","prefecture_code":47},"8510":{"zip_code":"9008510","prefecture":"沖縄県","city":"那覇市","town":"久茂地","prefecture_code":47},"8501":{"zip_code":"9008501","prefecture":"沖縄県","city":"那覇市","town":"泉崎","prefecture_code":47},"8651":{"zip_code":"9008651","prefecture":"沖縄県","city":"那覇市","town":"久茂地","prefecture_code":47},"8654":{"zip_code":"9008654","prefecture":"沖縄県","city":"那覇市","town":"牧志","prefecture_code":47},"8688":{"zip_code":"9008688","prefecture":"沖縄県","city":"那覇市","town":"久茂地","prefecture_code":47},"8525":{"zip_code":"9008525","prefecture":"沖縄県","city":"那覇市","town":"字天久","prefecture_code":47},"8656":{"zip_code":"9008656","prefecture":"沖縄県","city":"那覇市","town":"泉崎","prefecture_code":47},"8701":{"zip_code":"9008701","prefecture":"沖縄県","city":"那覇市","town":"久茂地","prefecture_code":47},"8711":{"zip_code":"9008711","prefecture":"沖縄県","city":"那覇市","town":"久茂地","prefecture_code":47},"8514":{"zip_code":"9008514","prefecture":"沖縄県","city":"那覇市","town":"赤嶺","prefecture_code":47},"8533":{"zip_code":"9008533","prefecture":"沖縄県","city":"糸満市","town":"西崎町","prefecture_code":47}}