{"0067":{"zip_code":"9020067","prefecture":"沖縄県","prefecture_kana":"オキナワケン","city":"那覇市","city_kana":"ナハシ","town":"安里","town_kana":"アサト","prefecture_code":47},"0073":{"zip_code":"9020073","prefecture":"沖縄県","prefecture_kana":"オキナワケン","city":"那覇市","city_kana":"ナハシ","town":"上間","town_kana":"ウエマ","prefecture_code":47},"0075":{"zip_code":"9020075","prefecture":"沖縄県","prefecture_kana":"オキナワケン","city":"那覇市","city_kana":"ナハシ","town":"国場","town_kana":"コクバ","prefecture_code":47},"0078":{"zip_code":"9020078","prefecture":"沖縄県","prefecture_kana":"オキナワケン","city":"那覇市","city_kana":"ナハシ","town":"識名","town_kana":"シキナ","prefecture_code":47},"0066":{"zip_code":"9020066","prefecture":"沖縄県","prefecture_kana":"オキナワケン","city":"那覇市","city_kana":"ナハシ","town":"大道","town_kana":"ダイドウ","prefecture_code":47},"0065":{"zip_code":"9020065","prefecture":"沖縄県","prefecture_kana":"オキナワケン","city":"那覇市","city_kana":"ナハシ","town":"壺屋","town_kana":"ツボヤ","prefecture_code":47},"0074":{"zip_code":"9020074","prefecture":"沖縄県","prefecture_kana":"オキナワケン","city":"那覇市","city_kana":"ナハシ","town":"仲井真","town_kana":"ナカイマ","prefecture_code":47},"0077":{"zip_code":"9020077","prefecture":"沖縄県","prefecture_kana":"オキナワケン","city":"那覇市","city_kana":"ナハシ","town":"長田","town_kana":"ナガタ","prefecture_code":47},"0071":{"zip_code":"9020071","prefecture":"沖縄県","prefecture_kana":"オキナワケン","city":"那覇市","city_kana":"ナハシ","town":"繁多川","town_kana":"ハンタガワ","prefecture_code":47},"0061":{"zip_code":"9020061","prefecture":"沖縄県","prefecture_kana":"オキナワケン","city":"那覇市","city_kana":"ナハシ","town":"古島","town_kana":"フルジマ","prefecture_code":47},"0072":{"zip_code":"9020072","prefecture":"沖縄県","prefecture_kana":"オキナワケン","city":"那覇市","city_kana":"ナハシ","town":"真地","town_kana":"マアジ","prefecture_code":47},"0068":{"zip_code":"9020068","prefecture":"沖縄県","prefecture_kana":"オキナワケン","city":"那覇市","city_kana":"ナハシ","town":"真嘉比","town_kana":"マカビ","prefecture_code":47},"0062":{"zip_code":"9020062","prefecture":"沖縄県","prefecture_kana":"オキナワケン","city":"那覇市","city_kana":"ナハシ","town":"松川","town_kana":"マツガワ","prefecture_code":47},"0069":{"zip_code":"9020069","prefecture":"沖縄県","prefecture_kana":"オキナワケン","city":"那覇市","city_kana":"ナハシ","town":"松島","town_kana":"マツシマ","prefecture_code":47},"0063":{"zip_code":"9020063","prefecture":"沖縄県","prefecture_kana":"オキナワケン","city":"那覇市","city_kana":"ナハシ","town":"三原","town_kana":"ミハラ","prefecture_code":47},"0076":{"zip_code":"9020076","prefecture":"沖縄県","prefecture_kana":"オキナワケン","city":"那覇市","city_kana":"ナハシ","town":"与儀","town_kana":"ヨギ","prefecture_code":47},"0064":{"zip_code":"9020064","prefecture":"沖縄県","prefecture_kana":"オキナワケン","city":"那覇市","city_kana":"ナハシ","town":"寄宮","town_kana":"ヨリミヤ","prefecture_code":47},"8571":{"zip_code":"9028571","prefecture":"沖縄県","city":"那覇市","town":"安里","prefecture_code":47},"8510":{"zip_code":"9028510","prefecture":"沖縄県","city":"那覇市","town":"寄宮","prefecture_code":47},"8585":{"zip_code":"9028585","prefecture":"沖縄県","city":"那覇市","town":"字上間","prefecture_code":47},"8513":{"zip_code":"9028513","prefecture":"沖縄県","city":"那覇市","town":"与儀","prefecture_code":47},"8588":{"zip_code":"9028588","prefecture":"沖縄県","city":"那覇市","town":"与儀","prefecture_code":47},"8521":{"zip_code":"9028521","prefecture":"沖縄県","city":"那覇市","town":"字国場","prefecture_code":47},"8550":{"zip_code":"9028550","prefecture":"沖縄県","city":"那覇市","town":"与儀","prefecture_code":47},"8570":{"zip_code":"9028570","prefecture":"沖縄県","city":"那覇市","town":"寄宮","prefecture_code":47},"8512":{"zip_code":"9028512","prefecture":"沖縄県","city":"那覇市","town":"与儀","prefecture_code":47},"8555":{"zip_code":"9028555","prefecture":"沖縄県","city":"那覇市","town":"寄宮","prefecture_code":47},"8511":{"zip_code":"9028511","prefecture":"沖縄県","city":"那覇市","town":"古島","prefecture_code":47}}