{"8314":{"zip_code":"9318314","prefecture":"富山県","prefecture_kana":"トヤマケン","city":"富山市","city_kana":"トヤマシ","town":"粟島町","town_kana":"アワジママチ","prefecture_code":16},"8321":{"zip_code":"9318321","prefecture":"富山県","prefecture_kana":"トヤマケン","city":"富山市","city_kana":"トヤマシ","town":"犬島","town_kana":"イヌジマ","prefecture_code":16},"8328":{"zip_code":"9318328","prefecture":"富山県","prefecture_kana":"トヤマケン","city":"富山市","city_kana":"トヤマシ","town":"犬島新町","town_kana":"イヌジマシンマチ","prefecture_code":16},"8374":{"zip_code":"9318374","prefecture":"富山県","prefecture_kana":"トヤマケン","city":"富山市","city_kana":"トヤマシ","town":"岩瀬赤田町","town_kana":"イワセアカダマチ","prefecture_code":16},"8372":{"zip_code":"9318372","prefecture":"富山県","prefecture_kana":"トヤマケン","city":"富山市","city_kana":"トヤマシ","town":"岩瀬天池町","town_kana":"イワセアマイケチョウ","prefecture_code":16},"8346":{"zip_code":"9318346","prefecture":"富山県","prefecture_kana":"トヤマケン","city":"富山市","city_kana":"トヤマシ","town":"岩瀬荒木町","town_kana":"イワセアラキマチ","prefecture_code":16},"8376":{"zip_code":"9318376","prefecture":"富山県","prefecture_kana":"トヤマケン","city":"富山市","city_kana":"トヤマシ","town":"岩瀬池田町","town_kana":"イワセイケダマチ","prefecture_code":16},"8365":{"zip_code":"9318365","prefecture":"富山県","prefecture_kana":"トヤマケン","city":"富山市","city_kana":"トヤマシ","town":"岩瀬入船町","town_kana":"イワセイリフネチョウ","prefecture_code":16},"8362":{"zip_code":"9318362","prefecture":"富山県","prefecture_kana":"トヤマケン","city":"富山市","city_kana":"トヤマシ","town":"岩瀬梅本町","town_kana":"イワセウメモトチョウ","prefecture_code":16},"8356":{"zip_code":"9318356","prefecture":"富山県","prefecture_kana":"トヤマケン","city":"富山市","city_kana":"トヤマシ","town":"岩瀬大町","town_kana":"イワセオオマチ","prefecture_code":16},"8341":{"zip_code":"9318341","prefecture":"富山県","prefecture_kana":"トヤマケン","city":"富山市","city_kana":"トヤマシ","town":"岩瀬御蔵町","town_kana":"イワセオクラマチ","prefecture_code":16},"8352":{"zip_code":"9318352","prefecture":"富山県","prefecture_kana":"トヤマケン","city":"富山市","city_kana":"トヤマシ","town":"岩瀬表町","town_kana":"イワセオモテマチ","prefecture_code":16},"8354":{"zip_code":"9318354","prefecture":"富山県","prefecture_kana":"トヤマケン","city":"富山市","city_kana":"トヤマシ","town":"岩瀬祇園町","town_kana":"イワセギオンマチ","prefecture_code":16},"8371":{"zip_code":"9318371","prefecture":"富山県","prefecture_kana":"トヤマケン","city":"富山市","city_kana":"トヤマシ","town":"岩瀬古志町","town_kana":"イワセコシマチ","prefecture_code":16},"8343":{"zip_code":"9318343","prefecture":"富山県","prefecture_kana":"トヤマケン","city":"富山市","city_kana":"トヤマシ","town":"岩瀬幸町","town_kana":"イワセサイワイチョウ","prefecture_code":16},"8351":{"zip_code":"9318351","prefecture":"富山県","prefecture_kana":"トヤマケン","city":"富山市","city_kana":"トヤマシ","town":"岩瀬堺町","town_kana":"イワセサカイマチ","prefecture_code":16},"8344":{"zip_code":"9318344","prefecture":"富山県","prefecture_kana":"トヤマケン","city":"富山市","city_kana":"トヤマシ","town":"岩瀬新町","town_kana":"イワセシンマチ","prefecture_code":16},"8342":{"zip_code":"9318342","prefecture":"富山県","prefecture_kana":"トヤマケン","city":"富山市","city_kana":"トヤマシ","town":"岩瀬神明町","town_kana":"イワセシンメイチョウ","prefecture_code":16},"8377":{"zip_code":"9318377","prefecture":"富山県","prefecture_kana":"トヤマケン","city":"富山市","city_kana":"トヤマシ","town":"岩瀬諏訪町","town_kana":"イワセスワマチ","prefecture_code":16},"8375":{"zip_code":"9318375","prefecture":"富山県","prefecture_kana":"トヤマケン","city":"富山市","city_kana":"トヤマシ","town":"岩瀬高畠町","town_kana":"イワセタカバタケマチ","prefecture_code":16},"8378":{"zip_code":"9318378","prefecture":"富山県","prefecture_kana":"トヤマケン","city":"富山市","city_kana":"トヤマシ","town":"岩瀬天神町","town_kana":"イワセテンジンマチ","prefecture_code":16},"8347":{"zip_code":"9318347","prefecture":"富山県","prefecture_kana":"トヤマケン","city":"富山市","city_kana":"トヤマシ","town":"岩瀬土場町","town_kana":"イワセドバマチ","prefecture_code":16},"8363":{"zip_code":"9318363","prefecture":"富山県","prefecture_kana":"トヤマケン","city":"富山市","city_kana":"トヤマシ","town":"岩瀬仲町","town_kana":"イワセナカチョウ","prefecture_code":16},"8355":{"zip_code":"9318355","prefecture":"富山県","prefecture_kana":"トヤマケン","city":"富山市","city_kana":"トヤマシ","town":"岩瀬新川町","town_kana":"イワセニイカワチョウ","prefecture_code":16},"8366":{"zip_code":"9318366","prefecture":"富山県","prefecture_kana":"トヤマケン","city":"富山市","city_kana":"トヤマシ","town":"岩瀬萩浦町","town_kana":"イワセハギウラマチ","prefecture_code":16},"8361":{"zip_code":"9318361","prefecture":"富山県","prefecture_kana":"トヤマケン","city":"富山市","city_kana":"トヤマシ","town":"岩瀬白山町","town_kana":"イワセハクサンマチ","prefecture_code":16},"8357":{"zip_code":"9318357","prefecture":"富山県","prefecture_kana":"トヤマケン","city":"富山市","city_kana":"トヤマシ","town":"岩瀬福来町","town_kana":"イワセフクライマチ","prefecture_code":16},"8353":{"zip_code":"9318353","prefecture":"富山県","prefecture_kana":"トヤマケン","city":"富山市","city_kana":"トヤマシ","town":"岩瀬文化町","town_kana":"イワセブンカマチ","prefecture_code":16},"8373":{"zip_code":"9318373","prefecture":"富山県","prefecture_kana":"トヤマケン","city":"富山市","city_kana":"トヤマシ","town":"岩瀬前田町","town_kana":"イワセマエダマチ","prefecture_code":16},"8367":{"zip_code":"9318367","prefecture":"富山県","prefecture_kana":"トヤマケン","city":"富山市","city_kana":"トヤマシ","town":"岩瀬松原町","town_kana":"イワセマツバラチョウ","prefecture_code":16},"8364":{"zip_code":"9318364","prefecture":"富山県","prefecture_kana":"トヤマケン","city":"富山市","city_kana":"トヤマシ","town":"岩瀬港町","town_kana":"イワセミナトマチ","prefecture_code":16},"8327":{"zip_code":"9318327","prefecture":"富山県","prefecture_kana":"トヤマケン","city":"富山市","city_kana":"トヤマシ","town":"上野新","town_kana":"ウワノシン","prefecture_code":16},"8326":{"zip_code":"9318326","prefecture":"富山県","prefecture_kana":"トヤマケン","city":"富山市","city_kana":"トヤマシ","town":"上野新町","town_kana":"ウワノシンマチ","prefecture_code":16},"8405":{"zip_code":"9318405","prefecture":"富山県","prefecture_kana":"トヤマケン","city":"富山市","city_kana":"トヤマシ","town":"海岸通","town_kana":"カイガンドオリ","prefecture_code":16},"8407":{"zip_code":"9318407","prefecture":"富山県","prefecture_kana":"トヤマケン","city":"富山市","city_kana":"トヤマシ","town":"海岸通新町","town_kana":"カイガンドオリシンマチ","prefecture_code":16},"8404":{"zip_code":"9318404","prefecture":"富山県","prefecture_kana":"トヤマケン","city":"富山市","city_kana":"トヤマシ","town":"加古町","town_kana":"カコマチ","prefecture_code":16},"8451":{"zip_code":"9318451","prefecture":"富山県","prefecture_kana":"トヤマケン","city":"富山市","city_kana":"トヤマシ","town":"銀嶺町","town_kana":"ギンレイチョウ","prefecture_code":16},"8442":{"zip_code":"9318442","prefecture":"富山県","prefecture_kana":"トヤマケン","city":"富山市","city_kana":"トヤマシ","town":"楠木","town_kana":"クスノキ","prefecture_code":16},"8411":{"zip_code":"9318411","prefecture":"富山県","prefecture_kana":"トヤマケン","city":"富山市","city_kana":"トヤマシ","town":"高来","town_kana":"コウライ","prefecture_code":16},"8417":{"zip_code":"9318417","prefecture":"富山県","prefecture_kana":"トヤマケン","city":"富山市","city_kana":"トヤマシ","town":"古志町","town_kana":"コシマチ","prefecture_code":16},"8435":{"zip_code":"9318435","prefecture":"富山県","prefecture_kana":"トヤマケン","city":"富山市","city_kana":"トヤマシ","town":"小西","town_kana":"コニシ","prefecture_code":16},"8443":{"zip_code":"9318443","prefecture":"富山県","prefecture_kana":"トヤマケン","city":"富山市","city_kana":"トヤマシ","town":"下飯野","town_kana":"シモイイノ","prefecture_code":16},"8325":{"zip_code":"9318325","prefecture":"富山県","prefecture_kana":"トヤマケン","city":"富山市","city_kana":"トヤマシ","town":"城川原","town_kana":"ジョウガワラ","prefecture_code":16},"8454":{"zip_code":"9318454","prefecture":"富山県","prefecture_kana":"トヤマケン","city":"富山市","city_kana":"トヤマシ","town":"住友町","town_kana":"スミトモチョウ","prefecture_code":16},"8409":{"zip_code":"9318409","prefecture":"富山県","prefecture_kana":"トヤマケン","city":"富山市","city_kana":"トヤマシ","town":"清風町","town_kana":"セイフウチョウ","prefecture_code":16},"8441":{"zip_code":"9318441","prefecture":"富山県","prefecture_kana":"トヤマケン","city":"富山市","city_kana":"トヤマシ","town":"高島","town_kana":"タカシマ","prefecture_code":16},"8315":{"zip_code":"9318315","prefecture":"富山県","prefecture_kana":"トヤマケン","city":"富山市","city_kana":"トヤマシ","town":"高園町","town_kana":"タカゾノチョウ","prefecture_code":16},"8336":{"zip_code":"9318336","prefecture":"富山県","prefecture_kana":"トヤマケン","city":"富山市","city_kana":"トヤマシ","town":"高畠町","town_kana":"タカバタケマチ","prefecture_code":16},"8403":{"zip_code":"9318403","prefecture":"富山県","prefecture_kana":"トヤマケン","city":"富山市","city_kana":"トヤマシ","town":"田畑","town_kana":"タバタ","prefecture_code":16},"8401":{"zip_code":"9318401","prefecture":"富山県","prefecture_kana":"トヤマケン","city":"富山市","city_kana":"トヤマシ","town":"田畑新町","town_kana":"タバタシンマチ","prefecture_code":16},"8402":{"zip_code":"9318402","prefecture":"富山県","prefecture_kana":"トヤマケン","city":"富山市","city_kana":"トヤマシ","town":"田畑北部","town_kana":"タバタホクブ","prefecture_code":16},"8334":{"zip_code":"9318334","prefecture":"富山県","prefecture_kana":"トヤマケン","city":"富山市","city_kana":"トヤマシ","town":"千原崎","town_kana":"チハラザキ","prefecture_code":16},"8445":{"zip_code":"9318445","prefecture":"富山県","prefecture_kana":"トヤマケン","city":"富山市","city_kana":"トヤマシ","town":"道正","town_kana":"ドウショウ","prefecture_code":16},"8316":{"zip_code":"9318316","prefecture":"富山県","prefecture_kana":"トヤマケン","city":"富山市","city_kana":"トヤマシ","town":"豊丘町","town_kana":"トヨオカチョウ","prefecture_code":16},"8322":{"zip_code":"9318322","prefecture":"富山県","prefecture_kana":"トヤマケン","city":"富山市","city_kana":"トヤマシ","town":"豊島町","town_kana":"トヨシマチョウ","prefecture_code":16},"8323":{"zip_code":"9318323","prefecture":"富山県","prefecture_kana":"トヤマケン","city":"富山市","city_kana":"トヤマシ","town":"豊城新町","town_kana":"トヨシロシンマチ","prefecture_code":16},"8324":{"zip_code":"9318324","prefecture":"富山県","prefecture_kana":"トヤマケン","city":"富山市","city_kana":"トヤマシ","town":"豊城町","town_kana":"トヨシロチョウ","prefecture_code":16},"8311":{"zip_code":"9318311","prefecture":"富山県","prefecture_kana":"トヤマケン","city":"富山市","city_kana":"トヤマシ","town":"豊田","town_kana":"トヨタ","prefecture_code":16},"8312":{"zip_code":"9318312","prefecture":"富山県","prefecture_kana":"トヤマケン","city":"富山市","city_kana":"トヤマシ","town":"豊田本町","town_kana":"トヨタホンマチ","prefecture_code":16},"8313":{"zip_code":"9318313","prefecture":"富山県","prefecture_kana":"トヤマケン","city":"富山市","city_kana":"トヤマシ","town":"豊田町","town_kana":"トヨタマチ","prefecture_code":16},"8305":{"zip_code":"9318305","prefecture":"富山県","prefecture_kana":"トヤマケン","city":"富山市","city_kana":"トヤマシ","town":"豊若町","town_kana":"トヨワカチョウ","prefecture_code":16},"8456":{"zip_code":"9318456","prefecture":"富山県","prefecture_kana":"トヤマケン","city":"富山市","city_kana":"トヤマシ","town":"永久町","town_kana":"トワマチ","prefecture_code":16},"8453":{"zip_code":"9318453","prefecture":"富山県","prefecture_kana":"トヤマケン","city":"富山市","city_kana":"トヤマシ","town":"中田","town_kana":"ナカダ","prefecture_code":16},"8408":{"zip_code":"9318408","prefecture":"富山県","prefecture_kana":"トヤマケン","city":"富山市","city_kana":"トヤマシ","town":"那智町","town_kana":"ナチマチ","prefecture_code":16},"8335":{"zip_code":"9318335","prefecture":"富山県","prefecture_kana":"トヤマケン","city":"富山市","city_kana":"トヤマシ","town":"西宮町","town_kana":"ニシノミヤマチ","prefecture_code":16},"8345":{"zip_code":"9318345","prefecture":"富山県","prefecture_kana":"トヤマケン","city":"富山市","city_kana":"トヤマシ","town":"西宮","town_kana":"ニシミヤ","prefecture_code":16},"8413":{"zip_code":"9318413","prefecture":"富山県","prefecture_kana":"トヤマケン","city":"富山市","city_kana":"トヤマシ","town":"野田","town_kana":"ノダ","prefecture_code":16},"8422":{"zip_code":"9318422","prefecture":"富山県","prefecture_kana":"トヤマケン","city":"富山市","city_kana":"トヤマシ","town":"野中","town_kana":"ノナカ","prefecture_code":16},"8428":{"zip_code":"9318428","prefecture":"富山県","prefecture_kana":"トヤマケン","city":"富山市","city_kana":"トヤマシ","town":"野中新","town_kana":"ノナカシン","prefecture_code":16},"8333":{"zip_code":"9318333","prefecture":"富山県","prefecture_kana":"トヤマケン","city":"富山市","city_kana":"トヤマシ","town":"蓮町","town_kana":"ハスマチ","prefecture_code":16},"8414":{"zip_code":"9318414","prefecture":"富山県","prefecture_kana":"トヤマケン","city":"富山市","city_kana":"トヤマシ","town":"浜黒崎","town_kana":"ハマクロサキ","prefecture_code":16},"8433":{"zip_code":"9318433","prefecture":"富山県","prefecture_kana":"トヤマケン","city":"富山市","city_kana":"トヤマシ","town":"針原新町","town_kana":"ハリワラシンマチ","prefecture_code":16},"8432":{"zip_code":"9318432","prefecture":"富山県","prefecture_kana":"トヤマケン","city":"富山市","city_kana":"トヤマシ","town":"針原中","town_kana":"ハリワラナカ","prefecture_code":16},"8415":{"zip_code":"9318415","prefecture":"富山県","prefecture_kana":"トヤマケン","city":"富山市","city_kana":"トヤマシ","town":"針日","town_kana":"ハリヒ","prefecture_code":16},"8431":{"zip_code":"9318431","prefecture":"富山県","prefecture_kana":"トヤマケン","city":"富山市","city_kana":"トヤマシ","town":"針原中町","town_kana":"ハリワラナカマチ","prefecture_code":16},"8455":{"zip_code":"9318455","prefecture":"富山県","prefecture_kana":"トヤマケン","city":"富山市","city_kana":"トヤマシ","town":"晴海台","town_kana":"ハルミダイ","prefecture_code":16},"8358":{"zip_code":"9318358","prefecture":"富山県","prefecture_kana":"トヤマケン","city":"富山市","city_kana":"トヤマシ","town":"東岩瀬町","town_kana":"ヒガシイワセマチ","prefecture_code":16},"8359":{"zip_code":"9318359","prefecture":"富山県","prefecture_kana":"トヤマケン","city":"富山市","city_kana":"トヤマシ","town":"東岩瀬村","town_kana":"ヒガシイワセムラ","prefecture_code":16},"8444":{"zip_code":"9318444","prefecture":"富山県","prefecture_kana":"トヤマケン","city":"富山市","city_kana":"トヤマシ","town":"東ケ丘","town_kana":"ヒガシガオカ","prefecture_code":16},"8452":{"zip_code":"9318452","prefecture":"富山県","prefecture_kana":"トヤマケン","city":"富山市","city_kana":"トヤマシ","town":"東富山寿町","town_kana":"ヒガシトヤマコトブキチョウ","prefecture_code":16},"8416":{"zip_code":"9318416","prefecture":"富山県","prefecture_kana":"トヤマケン","city":"富山市","city_kana":"トヤマシ","town":"日方江","town_kana":"ヒカタエ","prefecture_code":16},"8421":{"zip_code":"9318421","prefecture":"富山県","prefecture_kana":"トヤマケン","city":"富山市","city_kana":"トヤマシ","town":"平榎","town_kana":"ヒラエノキ","prefecture_code":16},"8423":{"zip_code":"9318423","prefecture":"富山県","prefecture_kana":"トヤマケン","city":"富山市","city_kana":"トヤマシ","town":"町袋","town_kana":"マチブクロ","prefecture_code":16},"8406":{"zip_code":"9318406","prefecture":"富山県","prefecture_kana":"トヤマケン","city":"富山市","city_kana":"トヤマシ","town":"松浦町","town_kana":"マツウラチョウ","prefecture_code":16},"8434":{"zip_code":"9318434","prefecture":"富山県","prefecture_kana":"トヤマケン","city":"富山市","city_kana":"トヤマシ","town":"三上","town_kana":"ミカミ","prefecture_code":16},"8301":{"zip_code":"9318301","prefecture":"富山県","prefecture_kana":"トヤマケン","city":"富山市","city_kana":"トヤマシ","town":"水落","town_kana":"ミズオチ","prefecture_code":16},"8427":{"zip_code":"9318427","prefecture":"富山県","prefecture_kana":"トヤマケン","city":"富山市","city_kana":"トヤマシ","town":"宮条","town_kana":"ミヤジョウ","prefecture_code":16},"8436":{"zip_code":"9318436","prefecture":"富山県","prefecture_kana":"トヤマケン","city":"富山市","city_kana":"トヤマシ","town":"宮園町","town_kana":"ミヤゾノチョウ","prefecture_code":16},"8425":{"zip_code":"9318425","prefecture":"富山県","prefecture_kana":"トヤマケン","city":"富山市","city_kana":"トヤマシ","town":"宮成","town_kana":"ミヤナリ","prefecture_code":16},"8426":{"zip_code":"9318426","prefecture":"富山県","prefecture_kana":"トヤマケン","city":"富山市","city_kana":"トヤマシ","town":"宮成中部","town_kana":"ミヤナリチュウブ","prefecture_code":16},"8437":{"zip_code":"9318437","prefecture":"富山県","prefecture_kana":"トヤマケン","city":"富山市","city_kana":"トヤマシ","town":"宮町","town_kana":"ミヤマチ","prefecture_code":16},"8332":{"zip_code":"9318332","prefecture":"富山県","prefecture_kana":"トヤマケン","city":"富山市","city_kana":"トヤマシ","town":"森","town_kana":"モリ","prefecture_code":16},"8331":{"zip_code":"9318331","prefecture":"富山県","prefecture_kana":"トヤマケン","city":"富山市","city_kana":"トヤマシ","town":"森住町","town_kana":"モリズミチョウ","prefecture_code":16},"8337":{"zip_code":"9318337","prefecture":"富山県","prefecture_kana":"トヤマケン","city":"富山市","city_kana":"トヤマシ","town":"森若町","town_kana":"モリワカチョウ","prefecture_code":16},"8412":{"zip_code":"9318412","prefecture":"富山県","prefecture_kana":"トヤマケン","city":"富山市","city_kana":"トヤマシ","town":"横越","town_kana":"ヨコゴシ","prefecture_code":16},"8303":{"zip_code":"9318303","prefecture":"富山県","prefecture_kana":"トヤマケン","city":"富山市","city_kana":"トヤマシ","town":"米田","town_kana":"ヨネダ","prefecture_code":16},"8306":{"zip_code":"9318306","prefecture":"富山県","prefecture_kana":"トヤマケン","city":"富山市","city_kana":"トヤマシ","town":"米田すずかけ台","town_kana":"ヨネダスズカケダイ","prefecture_code":16},"8304":{"zip_code":"9318304","prefecture":"富山県","prefecture_kana":"トヤマケン","city":"富山市","city_kana":"トヤマシ","town":"米田町","town_kana":"ヨネダマチ","prefecture_code":16},"8302":{"zip_code":"9318302","prefecture":"富山県","prefecture_kana":"トヤマケン","city":"富山市","city_kana":"トヤマシ","town":"緑陽町","town_kana":"リョクヨウマチ","prefecture_code":16},"8515":{"zip_code":"9318515","prefecture":"富山県","city":"富山市","town":"草島","prefecture_code":16},"8585":{"zip_code":"9318585","prefecture":"富山県","city":"富山市","town":"八町","prefecture_code":16},"8522":{"zip_code":"9318522","prefecture":"富山県","city":"富山市","town":"四方北窪","prefecture_code":16},"8523":{"zip_code":"9318523","prefecture":"富山県","city":"富山市","town":"八町","prefecture_code":16},"8543":{"zip_code":"9318543","prefecture":"富山県","city":"富山市","town":"岩瀬古志町","prefecture_code":16},"8511":{"zip_code":"9318511","prefecture":"富山県","city":"富山市","town":"米田町","prefecture_code":16},"8577":{"zip_code":"9318577","prefecture":"富山県","city":"富山市","town":"西宮町","prefecture_code":16},"8571":{"zip_code":"9318571","prefecture":"富山県","city":"富山市","town":"西宮町","prefecture_code":16},"8555":{"zip_code":"9318555","prefecture":"富山県","city":"富山市","town":"岩瀬赤田町","prefecture_code":16},"8510":{"zip_code":"9318510","prefecture":"富山県","city":"富山市","town":"岩瀬古志町","prefecture_code":16},"8501":{"zip_code":"9318501","prefecture":"富山県","city":"富山市","town":"豊田町","prefecture_code":16},"8562":{"zip_code":"9318562","prefecture":"富山県","city":"富山市","town":"高島","prefecture_code":16},"8517":{"zip_code":"9318517","prefecture":"富山県","city":"富山市","town":"下飯野","prefecture_code":16},"8533":{"zip_code":"9318533","prefecture":"富山県","city":"富山市","town":"楠木","prefecture_code":16},"8502":{"zip_code":"9318502","prefecture":"富山県","city":"富山市","town":"下飯野","prefecture_code":16},"8558":{"zip_code":"9318558","prefecture":"富山県","city":"富山市","town":"蓮町","prefecture_code":16},"8688":{"zip_code":"9318688","prefecture":"富山県","city":"富山市","town":"東岩瀬町","prefecture_code":16},"8540":{"zip_code":"9318540","prefecture":"富山県","city":"富山市","town":"豊田本町","prefecture_code":16},"8508":{"zip_code":"9318508","prefecture":"富山県","city":"富山市","town":"東岩瀬町","prefecture_code":16},"8588":{"zip_code":"9318588","prefecture":"富山県","city":"富山市","town":"田畑","prefecture_code":16},"8601":{"zip_code":"9318601","prefecture":"富山県","city":"富山市","town":"海岸通","prefecture_code":16}}